id,location_id,attention,address_1,address_2,city,state_province,postal_code,country
616544,50664374,,643 Tunbridge Road,,Baltimore,MD,21212,United States
616544,50664375,,643 Tunbridge Road,,Baltimore,MD,21212,United States
168299,55287572,, Eastside District Court,1400 East North Avenue,Baltimore,MD,21213,United States
168299,55291286,," Eastside District Court, Early Resolution Court",1400 East North Avenue,Baltimore,MD,21213,United States
167244,55291290,Maryland Dept. Of Juvenile Services Donald Devore  Secretary,1 Center Plaza,120 West Fayette Street,Baltimore,MD,21201,United States
167495,55291296,"Baltimore City Office Of Child Support Francine Pratt, Project Manager",Enforcement,1 North Charles Street 5th Floor,Baltimore,MD,21201,United States
166968,55291323,"Advocates For Children And Youth Matthew Joseph, Executive Director",1 North Charles Street,Suite 2400,Baltimore,MD,21201,United States
166968,55291320,"Maryland Juvenile Justice Coalition Angela Johnese, Policy Director",1 North Charles Street,Suite 2400,Baltimore,MD,21201,United States
167644,55291317,"Public Justice Center John Nethercut, Executive Director",1 North Charles Street,Suite 200,Baltimore,MD,21201,United States
167494,55291301,"Healthchoice Enrollment Hotline James Vivian, Program Director",1 North Charles Street,6th Floor,Baltimore,MD,21201,United States
168443,58285903,,1 North Charles Street,,Baltimore,MD,21201,United States
167048,55291329,"Baltimore City Police Department, S. District Michael Mcdonald, Major",242 West 29th Street,,Baltimore,MD,21211,United States
168011,55291331,"Workers' Compensation Commission R. Karl Aumann, Esq., Chairman",10 East Baltimore Street,,Baltimore,MD,21202,United States
167970,55291334,"Aids Action Baltimore, Inc. Jeffrey Grabelle, Office Manager",10 East Eager Street,,Baltimore,MD,21202,United States
167832,55291337,"Baltimore Va Medical Center Dennis Smith, Director",10 North Greene Street,,Baltimore,MD,21201,United States
167832,55291339,"Women Veterans Health Care Rebecca Gonzalez, Program Manager",10 North Greene Street,,Baltimore,MD,21201,United States
167094,55291341,,10 North Payson Street,,Baltimore,MD,21217,United States
167094,55291345,"Bon Secours Women's Resource Center Verna Gentry, Program Coordinator",10 North Pulaski Street,,Baltimore,MD,21223,United States
168046,55291347,"Equal Employment Opportunity Commission-Eeoc Gerald Kiel, Director",10 South Howard Street,3rd Floor,Baltimore,MD,21201,United States
167809,55291354,"United States Small Business Admin. Balto. Stephen D. Umberger, District Director",10 South Howard Street,Suite 6220,Baltimore,MD,21201,United States
167693,55291352,"Score-Counselors To America's Small Business Stephen L. Rosenstein, Chairman",SCORE Office,9250 Bendix Road,Columbia,MD,21045,United States
168612,55291350,"U.S. Housing And Urban Development James S. Kelly, Field Office Director",10 South Howard Street,"5th Floor, City Crescent Building",Baltimore,MD,21201-2505,United States
167226,55291357,"Americorps Keith J. Hart, Director",100 Community Place,1st Floor,Baltimore,MD,21032,United States
169142,55291360,Baltimore City Sheriff's Office Sheriff John W. Anderson,100 North Calvert Street,Room 104,Baltimore,MD,21202,United States
201133,55291362,"Southeast Baltimore Early Head Start Gayne Barlow-Kemper, Ms, Director",100 North Chester Street,,Baltimore,MD,21231,United States
167043,55291366,"Balto. City Dept. Of Legislative Reference Avery Aisen Stark, Director",100 North Holiday Street,Room 626,Baltimore,MD,21202,United States
167922,55291368,,100 North Holliday Street,,Baltimore,MD,21202,United States
401849,55289963,,PO Box 8964,,Baltimore,MD,21222,United States
168443,55291384,"Baltimore Substance Abuse Systems, Inc. Bill Atkins, Interim President",100 South Charles Street,"Tower 2, 8th Floor",Baltimore,MD,21201,United States
168521,55291382,"Federal Public Defender's Office James Wyda, Federal Public Defender",100 South Charles Street,9th Floor,Baltimore,MD,21201,United States
168396,55291386,"Julie Community Center Sr. Barbara Ann English, Director",100 South Washington Street,,Baltimore,MD,21231,United States
167210,55291393,"Waxter Center For Senior Citizens Leslie Yancy, Acting Director",1000 Cathedral Street,,Baltimore,MD,21201,United States
168523,55291396,"East Baltimore Medical Center Dan Bitzel, Site Administrator",1000 East Eager Street,,Baltimore,MD,21202,United States
168722,55291398,"Cancer Health Disparities Research Program Michael Farrier, Programs Manager",1000 East Eager Street,3rd Floor,Baltimore,MD,21202,United States
168538,55291400,"Pet Loss Helpline Robin Kellogg, Coordinator",1000 East Joppa Road,Apartment 203,Baltimore,MD,21286,United States
0,168632,1000 Friends Of MarylandDru Schmidt-Perkins                          ,1209 North Calvert Street,,Baltimore,MD,21202,United States
168443,55291412,"Baltimore City Health Dept. Sandra Haskett, Administrative Director",1001 East Fayette Street,,Baltimore,MD,21202,United States
168443,55291409,"Hiv/Std Prevention Program Glen Olthoff, Program Manager",1001 East Fayette Street,,Baltimore,MD,21202,United States
168443,55291407,Baltimore City Health Dept. Assistant Commissioner,1001 East Fayette Street,,Baltimore,MD,21202,United States
168443,55291404,"Baltimore City Health Dept. Olivia D. Farrow, Assistant Commissioner",1001 East Fayette Street,,Baltimore,MD,21202,United States
201133,55291417,"Baltimore City Child Care Resource Center Casandra Fallin, Executive Director",1001 Eastern Avenue,2nd Floor,Baltimore,MD,21202,United States
201133,55291415,"Locate: Child Care, Maryland Arna Griffith, Director",1001 Eastern Avenue,2nd Floor,Baltimore,MD,21202-4079,United States
168575,55291425,"Churches United Against Aids Rev. Brenda Mcbride, Executive Director",1001 Saint Paul Street,,Baltimore,MD,21202,United States
167827,55291428,"Deaf Addiction Services At Maryland (Dasam) Lisa Blumenthal, Case Manager",1001 West Pratt Street,,Baltimore,MD,21223,United States
167827,55291431,"Alcohol & Drug Abuse Prg. University Of Md Gale Chappman Robinson, Director",1001 West Pratt Street,2nd Floor,Baltimore,MD,21223,United States
260285,55291433,"American Legion Department Of Maryland Thomas L. Davis, Department Adjutant",101 North Gay Street,Room E,Baltimore,MD,21202,United States
167308,55291436,"Franciscan Center Karen Hayward-West,  Director",101 West 23rd Street,,Baltimore,MD,21218,United States
167524,55291443,"Youth Services, Futures Program Michelle D. Miles, Program Manager",101 West 24th Street,,Baltimore,MD,21218-5024,United States
167524,55291446,"Youth Services, Career Development Division Alice D. M. Cole, Director",101 West 24th Street,,Baltimore,MD,21218,United States
167521,55291449,,101 West Lombard Street,8th Floor,Baltimore,MD,21201,United States
167034,55291455,"Jill Fox Memorial Fund Mrs. Toba Grant, Executive Director",101 West Mount Royal Avenue,,Baltimore,MD,21201,United States
167034,55291452,"Chana Nancy Aiken, Program Director",C/O The Associated,101 West Mount Royal Avenue,Baltimore,MD,21201,United States
167513,55291458,"Division Of Rehabilitation Services Region 3 Michael Breeden, Regional Director",1010 Park Avenue,Suite 102 & 110,Baltimore,MD,21201,United States
168577,55289969,"Key Point Health Services, Inc. Dundalk Tessa Worsham, Director",1012 North Point Road,,Baltimore,MD,21224,United States
167390,55291464,"Helping Up Mission Bob Gehman, Executive Director",1029 East Baltimore Street,,Baltimore,MD,21202,United States
168248,55291470,"U.S. Dept. Of Labor, Wage And Hour Division Bezarah Gaither, District Director",103 South Gay Street,Room 207,Baltimore,MD,21202-4061,United States
167048,55291476,"Baltimore City Police Dept. Western District Major Garnell Green, District Commander",1034 North Mount Street,,Baltimore,MD,21217,United States
168626,55291488,"Native American Lifelines, Inc. Susan Roth, Executive Director",106 West Clay Street,,Baltimore,MD,21201,United States
168313,55291493,"Maryland Humanities Council (Mhc) Margaret R. Burke, Executive Director",108 West Centre Street,,Baltimore,MD,21201,United States
44865489,55291496,,7000 Golden Ring Road #9564,,Rosedale,MD,21237,United States
182559,55291498,"Bnia Matthew Kachura, Program Manager","University Of Baltimore, The Jacob France Institute",1420 North Charles Street,Baltimore,MD,21201,United States
1294078,55291502,,11 West Mount Vernon Place,Suite 4,Baltimore,MD,21201,United States
1739551,55291508,"Brooklyn Church Of God Rev. Ray Sewell, Outreach Director/Pastor",110 Townsend Avenue,,Baltimore,MD,21225,United States
167227,55291511,"Corpus Christi Community Center Roberta Brown, Director",2405 Linden Avenue,,Baltimore,MD,21217,United States
167922,55291514,,1100 Bolton Street,1st Floor,Baltimore,MD,21201,United States
26878053,55291516,,1100 East Northern Parkway,,Baltimore ,MD,21239,United States
167513,55291521,"Maryland State Dept. Of Education, Ged Office Patricia Alvey, Section Chief",1100 North Eutaw Street,Room 121,Baltimore,MD,21201,United States
167496,55291527,"Md. State Dept. Of Labor, Licensing & Reg. J. Ronald Dejuliis, Commissioner",Division Of Labor & Industry,1100 North Eutaw Street-Room 606,Baltimore,MD,21201,United States
167496,55291524,"Division Of Unemployment Insurance Brad Basford, Director",1100 North Eutaw Street,Room 508,Baltimore,MD,21201,United States
201133,55291530,,1101 North Point Boulevard,Suite 112,Baltimore,MD,21224,United States
168212,55291532,"Maryland Psychiatric Society Referral Service Steve Crawford, President",1101 St. Paul Street,Suite 305,Baltimore,MD,21202,United States
167360,55291537,"Hampden Family Center Steve Vassor,  Executive Director",1104 West 36th Street,,Baltimore,MD,21211,United States
168875,55291542,"Sixty Plus Legal Program Dennis Mciver, Coordinator",111 North Calvert Street,,Baltimore,MD,21202,United States
169144,55291547,,111 North Calvert Street,"Clarence Mitchell, Jr. Courthouse",Baltimore,MD,21202,United States
169144,55291545,"Pro Se Project, Baltimore City Sue German, Family Division Supervisor",111 North Calvert Street,,Baltimore,MD,21202,United States
168474,55291550,"Greater Baltimore Committee Donald C. Fry, President",111 South Calvert Street,Suite 1700,Baltimore,MD,21202-6180,United States
167148,55291553,"My Sister's Place Lodge, Catholic Charities Andrea Medina, Clinical Director",111 West Mulberry Street,,Baltimore,MD,21201,United States
169014,55291555,"Workforce Development Center At Hunt Valley Howard Marshall, Center Manager",11101 Mccormick Road,Suite 102,Baltimore,MD,21031,United States
167383,55291561,"Chase Brexton Health Services, Inc. David Shippee, Executive Director",1111 North Charles Street,,Baltimore,MD,21201,United States
167032,55291567,"Associated Black Charities Diane Bell-Mckoy, Ceo",1114 Cathedral Street,,Baltimore,MD,21201-5515,United States
167675,55291570,"Salvation Army,  Booth House Lauren Proctor, Director",1114 North Calvert Street,,Baltimore,MD,21202-3875,United States
167766,55291573,Sarah's Hope,1114 North Mount Street,,Baltimore,MD,21217,United States
167148,55291576,"Baltimore Child & Adolescent Response System Pat Wilson, Lcsw-C Program Director",1118 Light Street,Suite  200,Baltimore,MD,21230,United States
167923,55291582,"Paul's Place, Inc. William J. Mclennan, Executive Director",1118 Ward Street,,Baltimore,MD,21230,United States
168862,55291588,"Head Start Program, Day Spring Odette, Director",1125 North Patterson Park Avenue,,Baltimore,MD,21213,United States
168862,55291590,"Dayspring Village Dr. Pamela Talabis, Executive Director",1125 North Patterson Park Avenue,,Baltimore,MD,21213,United States
358097,55291604,,PO Box 6171,,Baltimore,MD,21231,United States
166954,55291609,"First Mount Calvary Pantry Rose Long, Coordinator",1142 North Fulton Avenue,,Baltimore,MD,21217,United States
168054,55291612,"Paca House Dedra Lane, Program Director",116 North Paca Street,,Baltimore,MD,21201,United States
167880,55291618,"Women's Housing Coalition, The Joann Levy, Executive Director",119 East 25th Street,,Baltimore,MD,21218,United States
167050,55291624,"Baltimore City State's Attorney's Office Kim Holmes, Lcsw-C,  Director",120 East Baltimore Street,9th Floor,Baltimore,MD,21202,United States
167050,55291627,"Victim/ Witness Service Unit Pam Widgeon, Division Chief",120 East Baltimore Street,9th Floor,Baltimore,MD,21202,United States
167766,55291629,"St. Vincent Emergency Service Molly Jameson, Director",120 North Front Street,,Baltimore,MD,21202-4804,United States
167827,55291640,"Umms Pediatrics Aids Program Dr. Vicki Tepper, Director",Division Of Pediatric Immunology,"737 West Lombard Street, Room 240",Baltimore,MD,21201,United States
167827,55291638,"Adolescent Star Track Program Joyell Arscott , Prevention Coordinator",120 Penn Street,1st Floor,Baltimore,MD,21201,United States
167827,55291635,"University Of Maryland Medical System Dr. Ligia Peralta, Director",120 Penn Street,1st Floor,Baltimore,MD,21201,United States
167827,55291631,"University Of Maryland Women's Health Center Linda Mcclellan, Rn, Practice Manager",120 Penn Street,,Baltimore,MD,21201,United States
167244,55291642,"Dept Of Juvenile Services Toni Torsch, Victims' Services Director",120 W. Fayette St.,,Baltimore,MD,21201,United States
167574,55291647,"Neighborhood Design Center, Inc., Baltimore Mark Cameron, Executive Director",120 West North Avenue,,Baltimore,MD,21201,United States
23505117,55291658,,1201 Druid Hill Avenue,,Baltimore ,MD,21217,United States
168639,55291661,"Office Of Emergency Management, Balto. City Lt. Richard Williams, Director",1201 East Coldspring Lane,,Baltimore,MD,21239,United States
167723,55289972,"Southwest Emergency Services Betty Okonski, Director",1201 Maple Avenue,,Baltimore,MD,21227-2639,United States
11920917,55289975,,1212 Chesaco Avenue,,Baltimore,MD,21237,United States
168632,55291668,1000 Friends Of Maryland Dru Schmidt-Perkins,1209 North Calvert Street,,Baltimore,MD,21202,United States
167941,55291671,"Baltimore County Medical Association Ms. Neilson Andrews, Executive Director",1211 Cathedral Street,,Baltimore,MD,21201,United States
167047,55291676,"Baltimore City Medical Society, 3Rd Fl Lisa Williams, Executive Director",1211 Cathedral Street,,Baltimore,MD,21201-5516,United States
167941,55291674,"Medchi, The Maryland State Medical Society Martin Wasserman, M.D., Executive Director",1211 Cathedral Street,,Baltimore,MD,21201-5585,United States
168048,55291679,"Head Start Program, Union Baptist Gayle E. Headen, Director",1211 Druid Hill Avenue,,Baltimore,MD,21217,United States
24418029,55291682,"Mattie B. Uzzle Outreach Center Dr. Jewel Grey, Executive Director",1211 North Chester Street,,Baltimore,MD,21213,United States
167524,55291684,"Eastside Youth Opportunity Center Eric Clay, Director",1212 North Wolfe Street,,Baltimore,MD,21213,United States
168402,55291688,"Historic East Balto. Comm. Action Coalition Edward Sabatino, Executive Director",1212 North Wolfe Street,,Baltimore,MD,21213,United States
8892260,55291692,,1215 East Fort Avenue,Suite 104,Baltimore,MD,21230,United States
1830800,55291695,,1217 West North Avenue,,Baltimore,MD,21217,United States
167045,55291698,"Baltimore City Dss, Adult Protective Services",1223 West Pratt Street,,Baltimore,MD,21223,United States
167045,55291704,"Baltimore City Dss, Project Home",1223 West Pratt Street,,Baltimore,MD,21223,United States
167045,55291701,"Baltimore City Dss, In-Home Aide Services",1223 West Pratt Street,,Baltimore,MD,21223,United States
167045,55291706,"Baltimore City Dss, Social Services To Adults",1223 West Pratt Street,,Baltimore,MD,21223,United States
9061262,55291709,,1224 Wicomico Street,,Baltimore,MD,21230,United States
167042,55291714,"Rental Allowance Program, Baltimore City Reggie Scriber",1225 West Pratt Street,,Baltimore,MD,21223,United States
167042,55291712,"Housing Choice Voucher Program, Baltimore Cit John Kelleher, Associate Deputy Director",1225 West Pratt Street,,Baltimore,MD,21223,United States
167827,55291718,"Harbor City Unlimited John Weibel, Director",1227 West Pratt Street,,Baltimore,MD,21223,United States
167069,55291720,"Karis Home Janna Buettner, Interim Director",1228 East Baltimore Street,,Baltimore,MD,21202,United States
219399,55291722,,1235 East Monument Street,,Baltimore,MD,21202,United States
167762,55291727,"St. Peter's Adult Learning Center Chip Woods, Director",13 South Poppleton Street,,Baltimore,MD,21201,United States
168455,55291731,"Knox Presbyterian Church Beverly Pinn, Clerk Of Session",1300 North Eden Street,,Baltimore,MD,21213,United States
168486,55291733,"Sandtown Habitat For Humanity, Inc. A. Tibbels & L. Stokes, Co-Directors",1300 North Fulton Avenue,,Baltimore,MD,21217,United States
168486,55291738,"Sandtown Habitat For Humanity, Inc. A. Tibbels & L. Stokes, Co-Directors",1300 North Fulton Avenue,,Baltimore,MD,21217,United States
167524,55291390,"Workforce Reception Gerald B. Grimes, Program Manager",1300 West 36th Street ,,Baltimore,MD,21218,United States
168600,55291744,"Booker T. Washington Middle School Derek Daniel, Principal",Thanksgiving Dinner,1301 Mcculloh Street,Baltimore,MD,21217,United States
167883,55291746,"Woodbourne Center, Inc. Stanley Weinstein, Ph.D., President & Ceo",1301 Woodbourne Avenue,,Baltimore,MD,21239,United States
167883,55291749,"Woodbourne Center, Inc. Treatment Foster Care Valerie Mims, Program Manager",1301 Woodburne Ave.,,Baltimore,MD,21239,United States
167511,55291752,"Maryland Society For Sight, Inc. Audrey Novak, Executive Director",1313 West Old Cold Spring Lane,,Baltimore,MD,21209,United States
167438,55291758,"Jubilee Baltimore, Inc. Judy Lynch, Office Manager",1351 South Clinton Street,,Baltimore,MD,21224,United States
167690,55291761,"Second Shiloh Meal Kitchen Wanda Hudson, President",PO Box 33385,,Baltimore,MD,21218,United States
168394,55291763,"Powell Recovery Center, Inc. Bill Scott, Executive Director",14 South Broadway,,Baltimore,MD,21231,United States
167718,55291773,"The Baltimore Station Michael Seipp, Executive Director",PO Box 27144,,Baltimore,MD,21230,United States
167514,55291775,,417 East Fayette Street,Room 625,Baltimore,MD,21202,United States
168362,55291778,"Oliver Community  Economic Development Corp. Nina Harper, Exec. Director",1400 East Federal Street,,Baltimore,MD,21213,United States
168401,55291784,"Earl's Place Sheila Helgerson, Executive Director",1400 East Lombard Street,,Baltimore,MD,21231,United States
167825,55291789,"University Of Baltimore School Of Law Robert Rubinson, Director",1401 North Charles Street,Suite D,Baltimore,MD,21201,United States
167641,55291791,"Providence Baptist Church Emergency Food Leslie Wood, Deacon",1401 Pennsylvania Avenue,,Baltimore,MD,21217,United States
169021,55291794,"Developmental Disabilities Administration, Ce Cynthia Shima Kauffman, Regional Director",1401 Severn Street,Suite 200,Baltimore,MD,21230,United States
167531,55291802,"Samaritan Community Sharon Krieger, Program Director",1407 Bolton Street,,Baltimore,MD,21217,United States
168435,55291806,"Providence Adult Day Care Robin Coley, Program Director",1427 Pennsylvania Avenue,,Baltimore,MD,21217,United States
167079,55291808,"Bethel Outreach Center David Hanna, Executive Director",1429 Mcculloh Street,,Baltimore,MD,21217,United States
168095,55291811,"Active Day Of Baltimore Ann Ambrose, Director",1430 Joh Avenue,Suite A,Baltimore,MD,21227,United States
167715,55291815,"Friendship House Shirley Rose, Director",1435 South Hanover Street,,Baltimore,MD,21230,United States
168079,55289979,"Asthma & Allergy Foundation Of America Susan Sweitzer, Executive Director",1498 Reisterstwon Road,Suite 324,Baltimore,MD,21208,United States
167394,55291826,"Homestead Umc Service Center Cassandra Carry, Director",1500 Gorsuch Avenue,,Baltimore,MD,21218,United States
167394,55291823,"Homestead Umc Service Center Cassandra Carry, Director",1500 Gorsuch Avenue,,Baltimore,MD,21218,United States
167485,55291836,"Maryland Nonprofits, Montgomery County Ann Kenworthy, Interim Executive Director",1500 Union Avenue,Suite 2500,Baltimore,MD,21211,United States
203786,55291839,,1500 Union Avenue,Suite 117,Baltimore,MD,21218,United States
167485,55291845,"Maryland Nonprofits, Main Office (Baltimore) Peter Berns, Executive Director",1500 Union Avenue,Suite 2500,Baltimore,MD,21211,United States
167497,55291842,"Maryland Disability Law Center Virginia Knowlton, Executive Director",1500 Union Avenue,Suite 2000,Baltimore,MD,21211,United States
168656,55291856,"Community Conferencing Center Lauren Abramson, Ph.D., Director",1500 Union Avenue,Suite 2700,Baltimore,MD,21211,United States
188179,55291853,,1500 Union Avenue,Suite 2600,Baltimore,MD,21211,United States
167485,55291850,"Marfy James P. Mccomb, Executive Director",1500 Union Avenue,Suite 2500,Baltimore ,MD,21211,United States
2698485,55291858,,"1500 Union Avenue, 2100",,Baltimore,MD,21211,United States
167784,55291862,"Total Health Care, Division Street Denotta Teagle, Site Administrator",1501 Division Street,,Baltimore,MD,21217,United States
167736,55291864,"St. Francis Xavier Church Ed Thomas, Coordinator",1501 East Oliver Street,,Baltimore,MD,21213-2999,United States
167102,55291872,"Bread Of Life Ministry Jessie Hall, Coordinator",1501 Mcculloh Street,New  Metropolitan Church,Baltimore,MD,21217,United States
167102,55291870,"Bread Of Life Ministry Jessie Hall, Coordinator",1501 Mcculloh Street,New  Metropolitan Church,Baltimore,MD,21217,United States
167102,55291875,"Bread Of Life Ministry Jessie Hall, Coordinator",1501 Mcculloh Street,New  Metropolitan Church,Baltimore,MD,21217,United States
168191,55291877,"Agape House, Inc. Rev. Edward G. Robinson, Pastor/Ceo",222 North Carrollton Avenue,,Baltimore,MD,21223,United States
168191,55291883,"Agape House, Inc. Rev. Edward G. Robinson, Pastor/Ceo",222 North Carrollton Avenue,,Baltimore,MD,21223,United States
168191,55291880,"Agape House, Inc. Rev. Edward G. Robinson, Pastor/Ceo",222 North Carrollton Avenue,,Baltimore,MD,21223,United States
168191,55291893,"Agape House, Inc. Rev. Edward G. Robinson, Pastor/Ceo",222 North Carrollton Avenue,,Baltimore,MD,21223,United States
168191,55291891,"Agape House, Inc. Rev. Edward G. Robinson, Pastor/Ceo",222 North Carrollton Avenue,,Baltimore,MD,21223,United States
168191,55291888,"Agape House, Inc. Rev. Edward G. Robinson, Pastor/Ceo",222 North Carrollton Avenue,,Baltimore,MD,21223,United States
168191,55291885,"Agape House, Inc. Rev. Edward G. Robinson, Pastor/Ceo",222 North Carrollton Avenue,,Baltimore,MD,21223,United States
168191,55291899,"Agape House, Inc. Rev. Edward G. Robinson, Pastor/Ceo",222 North Carrollton Avenue,,Baltimore,MD,21223,United States
168191,55291896,"Agape House, Inc. Rev. Edward G. Robinson, Pastor/Ceo",222 North Carrollton Avenue,,Baltimore,MD,21223,United States
168523,55291905,,1501 South Clinton Street,Suite 200,Baltimore,MD,21224,United States
28766236,55291908,,1501 West Lexington Street,,,MD,21223,United States
167784,55291915,"Total Health Care Inc., Saratoga Street Patricia Newman, Center Manager",1501 Division Street,,Baltimore,MD,21217,United States
167784,55291912,"Total Health Care Inc., Substance Abuse Wendy Merrick, Program Director",1501 West Saratoga Street,,Baltimore,MD,21223,United States
168751,55289982,"People Encouraging People Colleen Mcgraw, Assistant To President",1506 Woodlawn Drive,Suite C,Baltimore,MD,21207,United States
167524,55291920,"Westside Youth Opportunity Community Center Kerry Owings, Program Manager",1510 West Lafayette Avenue,,Baltimore,MD,21217,United States
167784,55291923,"Men's Health Center, The Pat Newman, Site Administrator",1515 West North Avenue,,Baltimore,MD,21217,United States
168443,55291925,"Baltimore City Health Dept. Cathy Watson, Bureau Chief, Family Planning","Druid Health District, 1st Floor",1515 West North Avenue,Baltimore,MD,21217,United States
167346,55291929,"Harford House Ann Hedgebeth, Counselor Coordinator",1517 East North Avenue,,Baltimore,MD,21213,United States
167045,55291934,"Baltimore City Dss, Family Support Services",1525 North Calvert Street ,,Baltimore,MD,21202,United States
167045,55291931,"Baltimore City Dss, Intake & Assessment",1525 North Calvert Street,,Baltimore,MD,21202,United States
168355,55291937,"New Song Academy And Learning Center Susan Tibbels, Principal/Director",1530 Presstman Street,,Baltimore,MD,21217,United States
167737,55291940,"St. Gregory The Great Church Father Damien Nalepa, Pastor",1542 North Gilmor Street,,Baltimore,MD,21217,United States
167766,55291944,"St. Peter Claver Church Co-Op Lady Marie C. Wise, Coordinator",1546 North Fremont Avenue,,Baltimore,MD,21217,United States
167091,55291949,"Black Mental Health Alliance For Education Tracee Bryant, Executive Director",16 West 25th Street,Suite 103,Baltimore,MD,21218,United States
167791,55291961,"Trinity Baptist Church Pantry Mary Taylor, Food Pantry Coordinator",1601 Druid Hill Avenue,,Baltimore,MD,21217,United States
167900,55291969,"Y Of Central Md, Druid Hill Center Gregory Phillips, Executive Director",1609 Druid Hill Avenue,,Baltimore,MD,21217,United States
167900,55291971,"Y Of Central Md, Druid Hill Center Gregory Phillips, Executive Director",1609 Druid Hill Avenue,,Baltimore,MD,21217,United States
167048,55291974,"Baltimore City Police Department Major John W. Dodson,  District Commander",Eastern District,242 West 29th Street,Baltimore,MD,21211,United States
166957,55291977,,1621 Druid Hill Avenue,,Baltimore,MD,21217,United States
31463215,55291982,,1635 West Pratt Street,,Baltimore,MD,21223,United States
167148,55291988,"My Sister's Place Drop-In Center Tracy Pindell, Program Director",17 West Franklin Street,,Baltimore,MD,21201,United States
167766,55291985,"Samaritan Center Tracy Pindell, Director",17 West Franklin Street,,Baltimore,MD,21201,United States
168877,55291990,,17 West Mulberry Street,,Baltimore,MD,21201,United States
169001,55291993,,1700 Coldspring Lane,,Baltimore,MD,21251,United States
169051,55291996,"Northeast Development Alliance Shirl Byron, Executive Director",PO Box 66011,,Baltimore,MD,21239,United States
168387,55292000,"Safe Haven Network Darlene Crider, President",1700 North Caroline Street,,Baltimore,MD,21213,United States
167904,55292003,"Zion Baptist Church Marshall F. Prentice, Pastor",1700 North Caroline Street,,Baltimore,MD,21213,United States
12477699,55292017,,1700 Ridgely Street,,Baltimore,MD,21230,United States
167605,55292022,"Payne Memorial Outreach Mr. Ellis Harcum, Administrator",1701 Madison Avenue,,Baltimore,MD,21217,United States
167605,55292020,"Payne Memorial Outreach Mr. Ellis Harcum, Administrator",1701 Madison Avenue,,Baltimore,MD,21217,United States
169149,55292025,"Family Connections Dr. Fred Strieder, Director",1701 Madison Avenue,4th Floor,Baltimore,MD,21217,United States
167245,55292036,"Student To Employment Program Cynthia Scott, Intake Coordinator",1701 North Gay Street,,Baltimore,MD,21213,United States
167245,55292040,"Humanim, Inc.",1701 North Gay Street,,Baltimore,MD,21213,United States
167271,55292042,"Echo House Multi-Service Center Janice Lockwood, Executive Director",1705 West Fayette Street,,Baltimore,MD,21223-1708,United States
167474,55292044,"Lutheran Mission Society Of Maryland Laura Lutz, Coordinator",601 Hammonds Lane,,Brooklyn Park,MD,21225,United States
167827,55292048,"Mt. Washington Pediatric Hospital, Inc. Sheldon Stein, President/Ceo",1708 West Rogers Avenue,,Baltimore,MD,21209,United States
169096,55292050,"Spectrum Support, Inc., Baltimore David Thompson, Director",1708 Whitehead Road,Suite 100,Baltimore,MD,21207,United States
168715,55292056,"Taylor Made Assisted Living Center Tamara R. Taylor-Norfleet, Chief Exec. Office",1714 East 33rd Street,,Baltimore,MD,21218,United States
167435,55292059,"Johns Hopkins Hospital, Moore Clinic Richard Moore, Clinical Director",1717 East Monument Street,,Baltimore,MD,21287,United States
54843697,55291781,"Eastern Community Action Center Desiree Mack, Human Services Manager",1731 East Chase Street,,Baltimore,MD,21213,United States
374366,55292082,,1736 North Payson Street,,Baltimore,MD,21217,United States
167480,55292089,March Of Dimes Birth Defects Foundation,175 West Ostend Street,Suite C-2,Baltimore,MD,21230,United States
168259,55292086,"Bvu's Volunteer Central Kelly Hodge-Williams, Director",175 West Ostend Street,Suite 100,Baltimore,MD,21230,United States
168881,55292100,"Kennedy Krieger Family Center, Birth To 5 Jasmine Grant, Coordinator",1750 East Fairmount Avenue,2nd Floor,Baltimore,MD,21231,United States
167442,55292093,"Kennedy Krieger School Patrick Millard, Director",1750 East Fairmount Avenue,,Baltimore,MD,21231,United States
167494,55292130,"Maryland Dept. Of Health And Mental Hygiene Dr. John M. Deboy, Director",1770 Ashland Avenue,,Baltimore,MD,21205,United States
168080,58121265,,1777 Reisterstown Road,Suite 206 West ,Baltimore,MD,21208,United States
56755788,56938855,,1800 N. Charles Street,Suite 810,Baltimore,MD,21201,United States
167697,55292132,"Turnaround, Inc. Baltimore Rosalyn Bransom , Executive Director","Turn Around, Inc","8503 La Salle Road, 2nd Floor",Towson,MD,21286,United States
166957,55292138,,1800 North Charles Street,Suite 700,Baltimore,MD,21201,United States
166957,55292135,"Aids Interfaith Residential Services (Airs) Leslie Leitch, Executive Director",1800 North Charles Street,Suite 700,Baltimore,MD,21201,United States
167435,55292141,"Johns Hopkins Hospital Ronald Peterson, President",1800 Orleans Street,,Baltimore,MD,21287,United States
167608,55292146,"People's Church Of Baltimore Calvin Pettigrew, Pantry Coordinator",230 North Fulton Avenue,,Baltimore,MD,21223,United States
167813,55292163,,1800 Washington Boulevard,Suite 340,Baltimore,MD,21230,United States
167813,55292154,"United Way Of Central Maryland Larry Walton, President And Cpo",1800 Washington Boulevard,Suite 340,Baltimore,MD,21230,United States
167813,55292151,"First Call For Help Saundra Bond, Executive Director",1800 Washington Boulevard,Suite 340,Baltimore,MD,21230,United States
358732,55292148,,1800 Washington Boulevard,,Baltimore,MD,21230,United States
358719,55292170,,1800 Washington Boulevard,Suite 755,Baltimore ,MD,21230,United States
167327,55292166,"Fuel Fund Of Maryland, Administrative Off. Mary Ellen Vanni, Executive Director",1800 Washington Boulevard,Suite 410-A,Baltimore,MD,21230,United States
167639,55292173,"Project Plase, Inc. Mary Slicher, Executive Director",3549-3601 Old Frederick Road,,Baltimore,MD,21229,United States
168382,55292176,"Raven's Medical Adult Day Care Edna Evans, Ceo",1821 North Smallwood Street,,Baltimore,MD,21216-7512,United States
169023,55289986,"Center For Community Integration Leon Indursky, Ceo","1829 Reisterstown Road, Suite 350",,Baltimore,MD,21208,United States
167470,55292180,"Ark Food Pantry Gloria Rice, Coordinator",1263 East North Avenue,,Baltimore,MD,21202,United States
167048,55292183,"Baltimore City Police Dept., Northeastern Antonio Rodriguez, District Commander",242 West 29th Street,,Baltimore,MD,21211,United States
168524,55292186,"Baltimore Chesapeake Bay Outward Bound Center David Starnes, Executive Director",1900 Eagle Drive,,Baltimore,MD,21207,United States
204262,55292189,,1900 East Northern Parkway,Suite 201,Baltimore,MD,21239,United States
12830652,55292195,"Diakon Lutheran Social Ministries Kidz Stuff Gwendolyn Chadwick, Director",1900 North Broadway,Suite 100,Baltimore,MD,21213,United States
56406496,56406500,,1900 North Howard Street,Suite 300,Baltimore,MD,21218,United States
167044,55292206,,1901 Pennsylvania Avenue,,Baltimore,MD,21217,United States
167902,55292209,"Ywca Of The Greater Baltimore Area, Inc. Vicki Sharif, Chief Executive Officer",1800 North Charles Street,Suite 904,Baltimore,MD,21201,United States
168676,55292215,"Martha's Place Angela Long, Executive Director",PO Box 12764,,Baltimore,MD,21217,United States
167262,55289990,"Dundalk Youth Service Center Jaqueline Stilling, Director",2 North Dundalk Avenue,2nd Floor,Baltimore,MD,21222,United States
167471,55292218,"Loading Dock, Inc. Leslie Kirkland, Executive Director",2 North Kresson Street,,Baltimore,MD,21224,United States
168671,55292221,"Executive Vice President, Clean & Safe Svcs. Tom Yeager",20 South Charles Street,6th Floor,Baltimore,MD,21202,United States
38339526,55292231,,20 South Charles Street,Suite 800,Baltimore,MD,21201,United States
168399,55292235,"Youth As Resources Julie Reeder, Program Director",20 West Easger Street,3rd Floor,Baltimore,MD,21201,United States
168752,55292238,"Ebenezer Ame Church Vernetta Butler, Coordinator",20 West Montgomery Street,,Baltimore,MD,21230,United States
368000,55292242,,200 East Lexington Street,Suite 501,Baltimore,MD,MD 21202,United States
167049,55292248,"Attendance And Truancy Office Dr. Tina Spears, Director",200 East North Avenue,Room 106,Baltimore,MD,21202,United States
167049,55292245,"Baltimore City Public School System Dr. Andrés Alonso, Ceo",200 East North Avenue,,Baltimore,MD,21202,United States
167049,55292254,,200 East North Avenue,Room 204 B,Baltimore,MD,21202,United States
167049,55292250,"Bcps, Child Find Unit Rodney Gittings, Child Find Coordinator",200 East North Avenue,Room 204,Baltimore,MD,21202,United States
167566,55292257,"National Federation Of The Blind Dr. Marc Maurer, President",200 East Wells Street,,Baltimore,MD,21230,United States
37337784,55292260,,200 Holliday Street,Room 8,Baltimore,MD,21202,United States
168443,55292263,"Bureau Of Vector Control Ronald Cuffie, Director",200 Holliday Street,Suite 600,Baltimore,MD,21202,United States
167585,55292265,"Consumer Protection Division, Baltimore Steven Silverman, Chief",200 Saint Paul Place,16th Floor,Baltimore,MD,21202-2021,United States
168140,55292270,Maryland Insurance Administration Office Of The Commissioner,200 St. Paul Place,Suite 2700,Baltimore,MD,21202,United States
167513,55292272,,School and Community Nutrition Programs,200 West Baltimore Street,Baltimore,MD,21201,United States
39378823,55292278,,2000 East Belvedere Avenue,,Baltimore,MD,21239,United States
167045,55292284,"Baltimore City Dss, Medical Assistance",2000 North Broadway,,Baltimore,MD,21213,United States
167882,55292289,,2000 North Broadway,3rd Floor,Baltimore,MD,21213,United States
167495,55293144,"Maryland Office Of Refugees And Asylees Edward Lin, Director",2000 North Broadway Street,2nd and 3rd Floors,Baltimore,MD,21213,United States
167094,55292291,"Bon Secours Hospital, Psychiatry James Chambers, Executive Director",2000 West Baltimore Street,,Baltimore,MD,21223,United States
167382,55292299,"Health Care For The Homeless, Inc., Baltimore Jeff Singer, President & Ceo",2000 West Baltimore Street,Suite 247,Baltimore,MD,21223,United States
167094,55292295,"Bon Secours Hospital Pauline Harris, Exec Asst. To The Ceo",2000 West Baltimore Street,,Baltimore,MD,21223,United States
167094,55292293,"Community Institute Of Behavioral Services James Chambers, Executive Director",2000 West Baltimore Street,,Baltimore,MD,21223,United States
259792,55292304,,2001 West North Avenue,,Baltimore,MD,21217,United States
166991,55292309,"American Diabetes Association Of Maryland Katherine Rogers, Area Executive Director",2002 Clipper Park Road,Suite 110,Baltimore,MD,21211,United States
166991,55292307,"American Diabetes Association Of Maryland Katherine Rogers, Area Executive Director",2002 Clipper Park Road,Suite 110,Baltimore,MD,21211,United States
167187,55292312,"Christ Umc Emergency Food Pantry Mary Richardson & Bernice Merritt, Directors",2005 East Chase Street,,Baltimore,MD,21213-3325,United States
201133,55289993,"Young Parent Support Center Pete Taylor, Director",201 Back River Neck Road,Suite 100,Baltimore,MD,21221,United States
167922,55292316,,201 East Baltimore Street ,,Baltimore ,MD,21202,United States
167494,55292322,"Maryland Children's Health Prog., Balto. City Kathy Westcoat, President",Healthcare Access Maryland,"201 East Baltimore Street, Suite 1000",Baltimore,MD,21202,United States
167953,55292320,"Baltimore City Dept. Of Communication Service B. Harriette Taylor, Interim Director",201 East Baltimore Street,11th Floor,Baltimore,MD,21202,United States
168126,55292326,The Union Memorial Hospital,201 East University Parkway,,Baltimore,MD,21218,United States
167042,55292329,"Baltimore Housing, Family Enhancement Unit Varnell Britt, Program Administrator",201 North Aisquith Street,,Baltimore,MD,21202,United States
168653,55292339,"Recovery Network Clark Hudak, Director",201 North Charles Street,Suite 200,Baltimore,MD,21201,United States
167521,55292337,"Maryland Volunteer Lawyers Service Bonnie Sullivan, Executive Director",201 North Charles Street ,Suite 1400,Baltimore,MD,21201,United States
167392,55292334,"Homeless Persons Representation Project Antonia Fasanelli, Executive Director",201 North Charles Street,Suite 1104,Baltimore,MD,21201-4403,United States
182028,55292445,Jotfc/O Robin Mckinney,"201 North Charles Street, 3rd Floor",,Baltimore,MD,21201,United States
34283650,55292345,,"201 North Charles Street, Suite 920",,Baltimore,MD,21201,United States
167643,55292348,"Office Of The Public Defender, Baltimore City Elizabeth Julian, District Public Defender",201 St. Paul Place,,Baltimore,MD,21202,United States
167494,55292350,"Kids In Safety Seats (Kiss) Tracey Whitman, Coordinator",201 West Preston Street,,Baltimore,MD,21201,United States
167494,55292363,,201 West Preston Street,5th Floor,Baltimore,MD,21201,United States
167494,55292358,"Epidemiology And Disease Control Program John M. Colmers, Secretary",201 West Preston Street,3rd Floor,Baltimore,MD,21201-2399,United States
167494,55292372,,201 West Preston Street,Suite 423A,Baltimore,MD,21201,United States
167494,55292369,"Healthchoice Enrollee Action Line Bobbe Frazier, Division Chief",201 West Preston Street,Room 299,Baltimore,MD,21201,United States
167494,55292366,"Rare And Expensive Case Management (Rem) Ella Wood, Supervisor",MD Dept Of Health And Mental Hygiene,"201 West Preston Street, Room 210",Baltimore,MD,21201,United States
167882,55292375,"Johns Hopkins Wic Program Pat Bell-Waddy, Coordinator",2013 East Monument Street,,Baltimore,MD,21205,United States
167832,55292391,,209 West Fayette Street ,2nd Floor,Baltimore ,MD,21201,United States
167392,55292388,,Baltimore VA Annex,"209 West Fayette Street, 2nd Floor",Baltimore,MD,21201,United States
167832,55292384,"Healthcare For Homeless Veterans Gene Siciliano, Coordinator",209 West Fayette Street,,Baltimore,MD,21201,United States
166962,55292394,"Baltimore Community Resource Center Ruth Daiker, Executive Director",21 West 25th Street,,Baltimore,MD,21218,United States
166962,55292396,"Baltimore Community Resource Center Ruth Daiker, Executive Director",21 West 25th Street,,Baltimore,MD,21218,United States
56406555,56406557,,210 East Lexington Street,Suite 104,Baltimore,MD,21202,United States
168443,55292402,"Baltimore City Health Department Joshua Sharfstein, Commissioner",210 Guilford Avenue,3rd Floor,Baltimore,MD,21202,United States
167813,55292404,,2100 Ashland Avenue,,Baltimore,MD,21205,United States
167663,55292407,"St. Wenceslaus Catholic Church Audrey T. Wesson, Director",2100 East Madison Street,,Baltimore,MD,21205,United States
168598,55292412,"Dru/ Mondawmin Healthy Families, Inc. Dr. Barbara Hughes, Executive Director",2100 Eutaw Place,,Baltimore,MD,21217,United States
1741086,55292414,,2100 Liberty Heights Avenue,,Baltimore,MD,21217,United States
167578,55292420,"New Shiloh Baptist Church Larry Glover, Director",2100 North Monroe Street,,Baltimore,MD,21217,United States
616558,55292423,,2104 Maryland Avenue,,Baltimore,MD,21218,United States
167599,55292425,"The Family Tree Patricia Cronin, Executive Director",2108 North Charles Street,,Baltimore,MD,21218,United States
168443,55292429,,211 East 25th Street,,Baltimore,MD,21218,United States
167281,55292432,,2110 Mura Street,,Baltimore,MD,21213,United States
616562,55292435,,2117 Maryland Avenue,,Baltimore,MD,21218,United States
169080,55292440,"Druid Heights Community Development Corp. Kelly Little, Executive Director",2140 Mcculloh Street,,Baltimore,MD,21217,United States
169061,55292442,"Earnbenefits Sara Johnson, Baltimore Program Associate",217 East Redwood Street,Suite 1500,Baltimore,MD,21202,United States
169061,55289415,"Earnbenefits Sara Johnson, Baltimore Program Associate",217 East Redwood Street,Suite 1500,Baltimore,MD,21202,United States
166992,55292447,"American Heart Association, Maryland Sue Manning, Vp Of Corporate Relations","217 East Redwood Street, 11th Floor",,Baltimore,MD,21202,United States
182028,55292450,Baltimore Cash Campaign Joanna Smith-Ramani,"217 East Redwood Street, Suite 1500",,Baltimore,MD,21202,United States
167068,55292458,"Narcotics Anonymous Service Center Frank Dyson, Office Manager",217 North Warwick Avenue,,Baltimore,MD,21223,United States
182683,55292460,,218 East Lexington Street,Suite 401,Baltimore,MD,21202,United States
168350,55292465,"Job Corps Outreach And Admissions Office Antoinette Miller, Project Manager",218 North Charles Street,Suite 301,Baltimore,MD,21201,United States
168616,55290002,"Park View At Catonsville Pat Jetters, Property Manager",218 North Charles Street,Suite 220,Baltimore,MD,21228,United States
167461,55292467,"Lexaco, Inc. Jeffery Bowers, President",218 North Paca Street,,Baltimore,MD,21201,United States
167249,55292470,"Door, The Mary Mcclinton, Executive Director",219 North Chester Street,,Baltimore,MD,21231,United States
168585,55292473,"America Work Of Maryland Stephen Muirhead, Vice President",22 Light Street,6th Floor,Baltimore,MD,21202,United States
167827,55292475,"University Of Maryland Medical Center Jeffrey A. Rivest, President/Ceo",22 South Greene Street,,Baltimore,MD,21201,United States
167828,55292478,"Maryland Poison Center Dr. Bruce Anderson, Director Of Operations",220 Arch Street,Office Level  1,Baltimore,MD,21201,United States
168581,55292481,"Women Accepting Responsibility (War) Bernice Tucker, Founder",2200 Garrison Boulevard,Suite 205,Baltimore,MD,21216,United States
167498,55292483,"Maryland Food Bank Deborah Flateman, Chief Executive Officer",2200 Halethorpe Farms Road,,Baltimore,MD,21227,United States
167827,55292489,"Kernan Hospital James E. Ross, Ceo",2200 Kernan Drive,,Baltimore,MD,21207,United States
168516,55290005,"Brain Injury Association Of Maryland Diane Triplett, Executive Director",2200 Kernan Drive,,Baltimore,MD,21207-6665,United States
168508,55292492,"Light Health Wellness Comprehensive Service Debbie Rock, Executive Director",PO Box 25535,,Baltimore,MD,21217,United States
167400,55292508,,2201 Argonne Drive,,Baltimore,MD,21218,United States
167400,55292505,"House Of Ruth,Counseling Program Ellyn Loy, Dir. Of Counseling & Outreach",2201 Argonne Drive,,Baltimore,MD,21218-1627,United States
167400,55292502,"House Of Ruth, Gateway Project Lisa Nitsch, Program Manager",2201 Argonne Drive,,Baltimore,MD,21218-1627,United States
167400,55292499,"House Of Ruth, Speakers Bureau Kerri Wojciechowski, Community Relations Mgr.",2201 Argonne Drive,,Baltimore,MD,21218-1627,United States
167400,55292496,"House Of Ruth Dorothy  Lennig, Legal Clinic Director",Domestic Violence Legal Clinic,2201 Argonne Drive,Baltimore,MD,21218-1627,United States
358851,55292513,,2201 Garrison Boulevard,,Baltimore,MD,21216,United States
168649,55292518,"Center For Urban Families Joseph Jones, President",2201 North Monroe Street,,Baltimore,MD,21217,United States
168649,55292516,"Strive Baltimore Joseph Jones, President",2201 North Monroe Street,,Baltimore,MD,21217,United States
167524,56074995,"Career Academy Youth Services Callie Greene, Program Manager",2201 Pioneer Avenue,,Baltimore,MD,21214,United States
167048,55292520,"Baltimore City Police Department, Northern Di Major Ross Buzzoro, District Commander",ATTN: District: Northern 242 W 29th St.,,Baltimore,MD,21211-2908,United States
168223,55292523,"First Emmanuel Baptist Pantry Reverend Eugene Belcher, Pastor",2209 Park Avenue,,Baltimore,MD,21217-4847,United States
167792,55292531,"True Way Church Of Christ Mary Newman, Director",2214 Evergreen Street,,Baltimore,MD,21216,United States
167345,55292533,"Goodwill Industries Of The Chesapeake Marge Thomas, President/Ceo",222 East Redwood Street,,Baltimore,MD,21202,United States
168583,55292535,"The Men's Center Leon Purnell, Program Director",2222 East Jefferson Street,,Baltimore,MD,21205,United States
168270,55292539,"Casa De Maryland, Inc., Baltimore Gustavo Torres, Director",2224 East Fayette Street,,Baltimore,MD,21231,United States
168557,55292551,"North Baltimore Center R. Terence Farrell, Executive Director",2225 North Charles Street,,Baltimore,MD,21218,United States
168557,55292542,"Partners In Recovery Edward Williams, Program Coordinator",2225 North Charles Street,,Baltimore,MD,21218,United States
167049,55292554,,2235 North Fulton Avenue,,Baltimore,MD,21217,United States
167739,55292557,"St. John Lutheran Church Doris Anderson, Ministry Assistant",226 Washburn Avenue,,Baltimore,MD,21225-2099,United States
167148,55292560,"Project Fresh Start Andrew Medina, Director",228 West Lexington Street,Suite 220,Baltimore,MD,21201,United States
169074,55292563,"Optimum Health Systems Dr. Sam Omotosho, Director",2300 Garrison Boulevard,Suite 104,Baltimore,MD,21216,United States
167882,55292569,"Baltimore City Health Dept Wic Express Joanne Smith, Director",2300 Garrison Boulevard,Suite 290,Baltimore,MD,21216,United States
169036,55292566,"Garwyn Oaks / Northwest Housing Resource Cent Mereida Goodman, Executive Director",2300 Garrison Boulevard,Suite 140,Baltimore,MD,21216,United States
168580,55292572,"Baltimore Child Abuse Center Roberta Rice, Development Director",2300 North Charles Street,4th Floor,Baltimore,MD,21218,United States
167513,55292575,"Workforce Technology Center Jean Jackson, Program Director",2301 Argonne Drive,,Baltimore,MD,21218-1696,United States
167519,55292581,"Maryland Technology Assistance Program Jessica Vollmer, Office Manager",2301 Argonne Drive,Suite T-17,Baltimore,MD,21218,United States
167839,55292578,"Volunteers For Medical Engineering, Inc. Norma Theo Pinette, Executive Director",2301 Argonne Drive,,Baltimore,MD,21218,United States
167524,56074979,"Career Academy Youth Services Callie Greene, Program Manager",2301 Gwynns Falls Parkway,,Baltimore,MD,21217,United States
169071,55292584,,2304 Belair Road,,Baltimore,MD,21213,United States
168436,55292589,"Maryland Educational Opportunity Center Ellen Dolvey-Howard, Executive Director",2305 North Charles Street,Suite 101,Baltimore,MD,21218,United States
167766,55292599,"St. Vincent De Paul Society Of Baltimore John J. Schiavone, Executive Director",2305 North Charles Street,Suite 300,Baltimore,MD,21218-9969,United States
168641,55292596,"Family League Of Baltimore City, Inc. Janis Parks, Executive Director",2305 North Charles Street,Suite 200,Baltimore,MD,21218,United States
9693892,55292606,,2315 North Charles Street,First Floor,Baltimore,MD,21218,United States
167064,55292609,"Baltimore Medical System, Orleans Square Evelyn Perez, Office Manager",2323 Orleans Street,,Baltimore,MD,21224,United States
166983,55292611,"Alliance Inc, Baltimore City Victor Ebube, Director",234 South Broadway,,Baltimore,MD,21231,United States
17174779,55292614,,239 North Gay Street,,Baltimore,MD,21202,United States
167784,55292617,"Total Health Care Inc., Kirk Avenue Center Ayana Williams, Rn, Center Manager",1501 Division Street,,Baltimore,MD,21217,United States
167784,55292623,"Total Health Care Inc., Mondawmin Mall Denotta Teagle, Center Manager",1501 Division Street,,Baltimore,MD,21217,United States
167524,55292625,,2401 Liberty Heights Avenue,Suite 302,Baltimore,MD,21215,United States
168736,55292628,"New Antioch Church Lolita King, Outreach Director",2401 St. Paul Street,,Baltimore,MD,21218,United States
168736,55292631,"New Antioch Church Lolita King, Outreach Director",2401 St. Paul Street,,Baltimore,MD,21218,United States
167094,55292634,"Next Passage Shirley Belton, Director",2401 West Baltimore Street,,Baltimore,MD,21223,United States
167094,55292637,"New Hope Treatment Center Carrie Little, Director",2401 West Baltimore Street,,Baltimore,MD,21223,United States
167705,55292639,"Sinai Hospital Of Baltimore, Inc. Neil Meltzer, President",2401 West Belvedere Avenue,,Baltimore,MD,21215,United States
167705,55292645,"Sinai Hospital, Rehabilitation Center John Miller, Clinical Support Program Manager",2401 West Belvedere Avenue,,Baltimore,MD,21215,United States
167705,55292642,"Sinai Hospital, Addictions Recovery Program Suzanne Harrison, Director Of Psychiatry",2401 West Belvedere Avenue,,Baltimore,MD,21215,United States
167705,55292648,"Sinai Hospital Vsp David Shegan, Director",2401 West Belvedere Avenue,,Baltimore,MD,21215,United States
167735,55292651,"St. Francis Neighborhood Center Father Tom Composto, Executive Director",2405 Linden Avenue,,Baltimore,MD,21217-3944,United States
167227,55292657,"Corpus Christi Community Center Roberta Brown, Director",2405 Linden Avenue,,Baltimore,MD,21217,United States
168412,55292659,"Donald Bentley Food Pantry Josh Julius, Director",2405 Loch Raven Road,,Baltimore,MD,21218,United States
168423,55292665,"Maryland Community Health Initiative Vernard Nelson, Program Manager",2410 Pennsylvania Avenue,Suite 200,Baltimore,MD,21217,United States
167724,55292667,"Spina Bifida Association Of Maryland, Inc. Sue Whelan, President",2416 Lampost Lane,,Baltimore,MD,21234,United States
168241,55292679,"New Life Baptist Church Milton Williams, Pastor",2417 East North Avenue,,Baltimore,MD,21213,United States
168241,55292673,"New Life Baptist Church Milton Williams, Pastor",2417 East North Avenue,,Baltimore,MD,21213,United States
168241,55292676,"New Life Baptist Church Milton Williams, Pastor",2417 East North Avenue,,Baltimore,MD,21213,United States
167766,55292681,"Head Start Program, St. Francis Xavier Christopher Barnes, Director",242 South Patterson Park Avenue,,Baltimore,MD,21231,United States
35553872,55292683,,2422 West Patapsco Avenue,,Baltimore,MD,21230,United States
219399,55292686,,2425 Eutaw Place,,Baltimore,MD,21217,United States
167460,55292690,"Levindale Hebrew Geriatric Center & Hospital Ronald Rothstein, President/Ceo",2434 West Belvedere Avenue,,Baltimore,MD,21215,United States
168235,55292693,"Build Rob English, Lead Organizer",2439 Maryland Avenue,,Baltimore,MD,21218,United States
167003,55292695,"American Rescue Workers Of Md, Inc. Captain Tony Bell, Director",2441 West Baltimore Street,,Baltimore,MD,21223,United States
167524,55292698,,2446 Washington Boulevard,,Baltimore,MD,21230,United States
167784,55292700,"Total Health Care, Inc., Westside Center Patricia Newman, Facility Director",1501 Division Street,,Baltimore,MD,21217,United States
168601,55292703,"Daybreak Rehabilitation Program Kheninh Daniels, Program Director",2490 Giles Road,,Baltimore,MD,21225,United States
167163,55292707,"Neighborhood Housing Services Of Baltimore In Felix Torres Colon, Executive Director",25 East 20th Street,Suite 170,Baltimore,MD,21218,United States
12277601,55292712,,25 North Caroline Street,,Baltimore,MD,21231,United States
167610,55292719,"Perkins Square Baptist Church Dr. Virginia Ferguson, Coordinator",2500 Edmondson Avenue,,Baltimore,MD,21223,United States
167610,55292722,"Perkins Square Baptist Church Dr. Virginia Ferguson, Coordinator",2500 Edmondson Avenue,,Baltimore,MD,21223,United States
167495,56061140,,2500 Pennsylvania Avenue,,Baltimore,MD,21217,United States
169112,55292725,"Coppin Heights Community Development Corporat Michelle Mceachern, Executive Director",Grace Hill Jacobs Building,2500 West North Avenue,Baltimore,MD,21216,United States
166985,55292730,"Alternative Directions, Inc. Michelle Kelly, Executive Director",2505 North Charles Street,,Baltimore,MD,21218,United States
167569,55292733,"Archway Clinic Louise Gleazon, Project Director",251 Bayview Boulevard,,Baltimore,MD,21224,United States
1110733,55292738,,2510 Saint Paul Street,1st Floor,Baltimore,MD,21218,United States
167774,55292741,"Treatment Resources For Youth (Try) Latavia Little, Director",2517 North Charles Street,,Baltimore,MD,21218,United States
203444,55292749,,2521 Saint Paul Street,,Baltimore,MD,21218,United States
203444,55292745,,2521 Saint Paul Street,,Baltimore,MD,21218,United States
167645,55292751,"Weisman/Kaplan House Albert Arraggon, Counselor",2523 Maryland Avenue,,Baltimore,MD,21218,United States
10117122,55292755,,2526 St. Paul Street,,Baltimore,MD,21218,United States
167338,55292758,"Gay, Lesbian, Bisexual & Transgendered Com Craig Wylie, Executive Director",100 Cathedral Street,3rd Floor,Baltimore,MD,21201,United States
168444,55292762,Bni (Baltimore Neighborhoods Inc) Richard Doran,2530 North Charles Street,Suite 200,Baltimore,MD,21218,United States
167590,55292764,,2539 St. Paul Street,,Baltimore,MD,21218,United States
167094,55292770,,26 North Fulton Avenue,,Baltimore,MD,21223,United States
167094,55292776,"Bon Secours Family Support Center Lori H. Fagan, Director",26 North Fulton Avenue,,Baltimore,MD,21223,United States
167882,55292773,"Baltimore City Health Dept Wic - Joanne Smith, Director",26 North Fulton Avenue,,Baltimore,MD,21223,United States
167150,55292780,"Viva House Willa Bickham, Co-Founder",26 South Mount Street,,Baltimore,MD,21223,United States
167039,55292786,,2901 Liberty Heights Avenue,Room 231B MNB,Baltimore,MD,21215,United States
167806,55292789,"Federal Bureau Of Investigation, Baltimore Amy Joe Lyons, Acting Special Agent",2600 Lord Baltimore Drive,,Baltimore,MD,21244,United States
167148,55292793,,2300 Dulaney Valley Road,,Timonium,MD,21093,United States
167148,55292804,"Catholic Charities Of Balto Pregnancy Pare Ellen Warnock, Associate Administrator",2601 North Howard Street,Suite 200,Baltimore,MD,21218,United States
167148,55292801,"Catholic Charities Of Balto., Center For Fami Laurie Vozzella-Bell, Administrator",2601 North Howard Street,Suite 200,Baltimore,MD,21218,United States
204343,55292799,,2601 North Howard Street,Suite 160,Baltimore,MD,21218,United States
203599,55292796,,2601 North Howard Street,Suite 150,Baltimore,MD,21218,United States
167148,55292807,,"2601 North Howard Street, Suite 200",Center for Family Services Villa Maria Community Resources,Baltimore,MD,21218,United States
167766,55292810,"Cottage Avenue Community Transitional Housing Jacqueline Chesley, Program Director",2601 Ulman Avenue Rear,,Baltimore,MD,21215,United States
168186,55292815,"Coppin State University, Community Health Cen Immaculata Ulu, Associate Director","2601 West North Avenue, Suite 131",,Baltimore,MD,21216,United States
167733,55292821,"St. Elizabeth's Church Food Pantry Lucy Dipinto, Director",2638 East Baltimore Street,,Baltimore,MD,21224,United States
168607,55292830,,2641 Maryland Avenue,,Baltimore,MD,21218,United States
168607,55292827,"Progressive Life Center, Baltimore Lewis Smith, Program Manager",2641 Maryland Avenue,,Baltimore,MD,21218,United States
167260,55290008,"Dundalk Church Of The Brethren Pantry Medie Mclaughlin, Pantry Coodinator",2660 Yorkway,,Baltimore,MD,21222-4432,United States
167297,55292834,"First Apostolic Faith Church Pantry Melvina Wilson, Coordinator",27 South Caroline Street,,Baltimore,MD,21231,United States
167506,55292836,"Maryland New Directions Grace Lee, Director",2700 North Charles Street,Suite 200,Baltimore,MD,21218,United States
167042,55292847,"Baltimore Housing, Ohep/Weatherization Cherlyn Mitchell, Director",2700 North Charles Street,Suite 202,Baltimore,MD,21218,United States
167513,55292850,"Office Of Child Care Administration, Balto. Michael Morrison, Regional Manager",2700 North Charles Street ,Suite 203,Baltimore,MD,21218,United States
8891969,55292839,,2700 North Charles Street,Suite 201,Baltimore,MD,21218,United States
168523,55292853,"Wyman Park Medical Center Rebecca Kritzler,Sr. Dir. Clinical Operations",2700 Remington Avenue ,Suite 2000,Baltimore,MD,21211,United States
168943,55292862,"Cherry Hill Homes Shirley Foulks/Phil Gray, President/Counselor",2700 Spelman Road,,Baltimore,MD,21225,United States
168943,55292865,"Cherry Hill Homes Shirley Foulks/Phil Gray, President/Counselor",2700 Spelman Road,,Baltimore,MD,21225,United States
167675,55292868,"Salvation Army Baltimore, Adult Rehab Center Mr Edward Lejk, Program Director",2700 West Patapsco Avenue,,Baltimore,MD,21230-2702,United States
167675,55292871,"Salvation Army, Thrift Stores Major Dan  Delany, Head Administrator",2700 West Patapsco Avenue,,Baltimore,MD,21230,United States
168571,55292874,"Civic Works Dana Stein, Executive Director",2701 St Lo Drive,,Baltimore,MD,21213,United States
168571,55292877,,2701 St Lo Drive,,Baltimore,MD,21213,United States
168571,55292879,,2701 St. Lo Drive,,Baltimore,MD,21213,United States
168571,55292882,,2701 St. Lo Drive,,Baltimore,MD,21213,United States
166955,55292884,"Afl-Cio Community Services Jay B. Smith, Director",2701 West Patapsco Avenue,Suite 110,Baltimore,MD,21230-2797,United States
167042,55292888,"Baltimore Housing, Our House Cassandra Deleon, Director",2707 Sethlow Road,,Baltimore,MD,21225,United States
219272,55292892,,2713 Latona Road,,Baltimore,MD,21214,United States
168335,55292896,"Coalition To End Childhood Lead Poisoning Ruth Ann Norton, Executive Director",2714 Hudson Street,,Baltimore,MD,21224,United States
367693,55292899,,1564 Sheffield Road,,Baltimore,MD,21218,United States
168679,55292906,"Family Assistance Network Carlos Hardy, Executive Director",28 East Ostend Street,Suite 303,Baltimore,MD,21202,United States
168679,55292903,"Ncadd - Maryland Carlos Hardy, Executive Director",28 East Ostend Street,Suite 303,Baltimore,MD,21230,United States
167975,55292901,"South Baltimore Learning Corporation Sonia Socha, Executive Director",28  East Ostend Street,,Baltimore,MD,21230,United States
168337,55292909,"Bridge House Benjamin Toney, Executive Director",28 South Broadway,,Baltimore,MD,21231,United States
167699,55292911,"Shepherd's Clinic Jack Vandenhengel, Executive Director",2800 Kirk Avenue,,Baltimore,MD,21218,United States
35281678,55292913,,5500 Harford Rd.,,Baltimore,MD,21214,United States
56406588,56407159,,2812-14 Reisterstown Road,,Baltimore ,MD,21215,United States
168063,55292921,"Life, Inc. Thomas Noto, Executive Director",2822 Hollins Ferry Road,,Baltimore,MD,21230,United States
169071,55292924,"Helping Other People Through Empowerment Thomas Hicks, Executive Director",2828 Loch Raven Road,,Baltimore,MD,21218,United States
167827,55292927,"University Family Medicine Harriet Mandell, Practice Manager",29 South Paca Street,1st Floor,Baltimore,MD,21201,United States
55059188,55292930,"Community Health Awareness And Ina Glenn-Smith, Assistant Program Director",2901 Druid Park Drive,Suite 105,Baltimore,MD,21215,United States
56406505,56406514,,2901 Druid Park Drive,Suite A210,Baltimore,MD,21215,United States
167039,55292935,,2901 Liberty Heights Avenue,Dental Clinic,Baltimore,MD,21215,United States
167039,55292932,"Baltimore City Community College Dr. Carolane Williams, President",2901 Liberty Heights Avenue,,Baltimore,MD,21215,United States
167072,55292938,"Banner Neighborhoods Community Corporation Jolyn Rademacher, Executive Director",2911 Pulaski Highway,,Baltimore,MD,21224,United States
167495,56061087,,2919 East Biddle Street,,Baltimore,MD,21213,United States
167148,55292940,"Head Start Program, St. Veronica's Shirley Barber, Director",2920 Joseph Avenue,,Baltimore,MD,21225,United States
182028,55292944,,2921 Stranden Road,,Baltimore,MD,21230,United States
169150,55292949,"Maryland National Guard Family Assistance Cen William Turner, Coordinator",29th Division Street,,Baltimore,MD,21201,United States
169150,55292952,"Joint Family Support Assistant Program Claudia Johnson,Military Onesource Consultant",29th Division Street,5th Regiment Armory,Baltimore,MD,21201,United States
167827,55292955,"Evelyn Jordan Center, Lori Fantry, Md, Mph",300 Armory Place,,Baltimore,MD,21201,United States
167048,55292957,,300 East Madison Street,,Baltimore,MD,21202,United States
167244,55292959,"Dept Of Juvenile Services Area I Walter Jackson, Area Director",300 North Gay Street,,Baltimore,MD,21202,United States
1830710,55292963,,300 Water Street,Suite 300,Baltimore,MD,21202,United States
168443,55292965,,3000 Druid Park Drive,Suite 2C,Baltimore,MD,21215,United States
1786020,55293254,,3000 Falls Road, Mill Number 1,Baltimore,MD,21211,United States
167659,55292967,"Ray Of Hope Baptist Church George Allen, Contact Person",3000 Parkside Drive,,Baltimore,MD,21214,United States
167044,55292973,"Baltimore City Dept. Of Recreation & Parks Wanda Durden, Director",3001 East Drive,Druid Hill Park,Baltimore,MD,21217,United States
167524,55292977,,3001 East Madison Street,,Baltimore,MD,21205,United States
167494,55292983,,3001 South Hanover Street,"Harbor Hospital Outpatient Center, Suite 206",Baltimore,MD,21225,United States
168126,55292979,"Harbor Hospital Joseph Oddis, President",3001 South Hanover Street,,Baltimore,MD,21225,United States
169047,55292985,"Book Thing Of Baltimore, Inc., The Russell Wattenburg, Executive Director",3001 Vineyard Lane,,Baltimore,MD,21218,United States
167865,55292989,"Whitestone Baptist Church, Food Pantry Ms. Smith, Coordinator,",3001-3005 Baker Street,,Baltimore,MD,21216,United States
167513,55292993,"Infants And Toddlers Program, Baltimore City Charles Baugh, Director",3002 Druid Park Drive,,Baltimore,MD,21215,United States
167045,55292996,"Baltimore City Dss, Recruitment Foster Care &",3007 East Biddle Street,,Baltimore,MD,21213,United States
167045,55292999,"Baltimore City Dss, Family Services",3007 East Biddle Street,,Baltimore,MD,21213,United States
167265,55293010,"East Baltimore Community Corporation Bruce Jennings, Deputy Director",301 North Gay Street,,Baltimore,MD,21202,United States
167265,55293013,"Reflective Treatment Center Muriel Brothers, Program Administrator",301 North Gay Street,Lower Level,Baltimore,MD,21202,United States
168379,55293018,"Maryland Center For Veterans Colonel Charles Williams, Executive Director","Education And Training, Inc.",301 North High Street,Baltimore,MD,21202,United States
203844,55293020,,Lockerman-Bundy Elementary School,301 North Pulaski Street,Baltimore,MD,21223,United States
167717,55293023,,301 St. Paul Place,Suite 501,Baltimore,MD,21202,United States
168443,55293029,"Baltimore Animal Rescue & Care Shelter Jennifer Mead-Brause, Director",301 Stockholm Street,,Baltimore,MD,21230,United States
174293,55293059,"Maryland Accessible Telecommunications (Mat) Brenda Kelly-Frey, Director",301 West Preston Street,Room 1008 A,Baltimore,MD,21201-2365,United States
167915,55293065,"Homeowner's Property Tax Credit Program Silma Raymond, Administrator",301 West Preston Street,Room 900,Baltimore,MD,21201,United States
174293,55293063,Maryland Relay,301 West Preston Street,Room 1008A,Baltimore,MD,21201,United States
168900,55293082,"Group Home Complaint Hotline Latonya Shacklette, Coordinator",301 West Preston Street,Suite 1502,Baltimore,MD,21201,United States
168463,55293079,"Senior Medicare Patrol Michelle Holzer, Program Coordinator",301 West Preston Street,Suite 1007,Baltimore,MD,21201,United States
168463,55293076,"Msda, Housing Services Division Stephanie Hull, Chief Of Housing Services",301 West Preston Street,Suite 1007,Baltimore,MD,21201-2374,United States
168463,55293072,"Maryland Dept. Of Aging Gloria Lawlah, Secretary",301 West Preston Street,Suite 1007,Baltimore,MD,21201-2374,United States
167915,55293068,"Renters' Tax Credit Program Silma Raymond, Administrator",301 West Preston Street,Room 900,Baltimore,MD,21201,United States
358497,55293087,,302 W Fayette  Street,,Baltimore,MD,21201,United States
36814220,55293094,,3043 West Belvedere Avenue,,Baltimore,MD,21215,United States
167832,55293096,"U.S. Dept. Of Veterans Affairs, Balto. Region George Wolohojian, Director",31 Hopkins Plaza,2nd Floor,Baltimore,MD,21201,United States
167247,55293112,"Disabled American Veterans Filippi Micocci, Supervisor",31 Hopkins Plaza,Suite 1229,Baltimore,MD,21201-2825,United States
167520,55293110,"Maryland Dept. Of Veterans Affairs James A. Adkins, Secretary",16 Francis Street,4th Floor,Annapolis,MD,21401,United States
167537,55293107,"Military Order Of The Purple Heart Vernon F. Mitchell, National Service Officer",31 Hopkins Plaza,Room 1237,Baltimore,MD,21201-2829,United States
167833,55293104,"Veterans Of Foreign Wars Phil Medlin, State Service Officer",31 Hopkins Plaza,Room 1226,Baltimore,MD,21201,United States
167804,55293102,"Internal Revenue Service, Baltimore Office Mark Everson, Commissioner",31 Hopkins Plaza,Fallon Federal Building,Baltimore,MD,21201,United States
167226,55293099,"Americorpsvista Chrystal Biles, Director",31 Hopkins Plaza,Suite 400-B,Baltimore,MD,21201,United States
167094,55293126,"Bon Secours, Adapt Cares Clarence Williams, Program Director",3101 Towanda Avenue,,Baltimore,MD,21215,United States
167495,55293128,"Office Of Home Energy Programs (Ohep) Ralph Markus, Director",Saratoga State Center,311 West Saratoga Street,Baltimore,MD,21201-3521,United States
167064,55293146,"Baltimore Medical System, Inc. Joan Schneider, Office Manager",Belair-Edison Family Health Center,3120 Erdman Avenue,Baltimore,MD,21213,United States
204007,55293149,,3134 Eastern Avenue,,Baltimore,MD,21224,United States
167717,55293152,"Family Health Centers Of Baltimore, Calvert S Michele Emery, Practice Manager",315 North Calvert,,Baltimore,MD,21202,United States
167198,55293157,"City Temple Outreach Of Baltimore, The Gary Hamiel, Director Of Outreach",317 Dolphin Street,,Baltimore,MD,21217,United States
167345,55293166,"Step, Inc. (Schapiro Training And Employment James Hassan, Executive Director",32 South Street,,Baltimore,MD,21202,United States
3373846,55293168,"Division Of Youth And Young Adult Ministry Mark Pacione, Director",320 Cathedral Street,,Baltimore,MD,21201,United States
167148,55293171,"Catholic Charities Project Serve Abby Maloney, Program Manager",320 Cathedral Street,,Baltimore,MD,21201,United States
358099,55293175,,3200 Eastern Avenue,,Baltimore,MD,21224,United States
167859,55293178,"Wayland Baptist Soup Kitchen Gladys Saunders, Coordinator",3200 Garrison Boulevard,,Baltimore,MD,21216,United States
167433,55293180,"Walbrook Vicinity Churches Asst. Ministry Barbara Hayes, Coordinator",C/O John Wesley Church,3202 West North Avenue,Baltimore,MD,21216,United States
167729,55293183,"St. Ambrose Housing Aid Center, Inc. Vincent P. Quayle, Executive Director",321 East 25th Street,,Baltimore,MD,21218,United States
167922,55293185,,321 North Calvert Street,2nd Floor,Baltimore,MD,21202,United States
167920,55293194,"At Jacob's Well, Inc. Albert K. Roach,  Executive Director",323 East 25th Street,,Baltimore,MD,21218-5303,United States
167552,55293196,"Mountain Manor Treatment Center Walt Dolata, Administrator",3243 Eastern Avenue,,Baltimore,MD,21224,United States
168728,55293199,"Power Inside Jaqueline Robarge, Director",325 East 25th Street,,Baltimore,MD,21218,United States
168085,55293202,"Planned Parenthood Of Maryland, Inc. John Nugent, President",330 North Howard Street,,Baltimore,MD,21201,United States
167508,55293205,"Maryland Spca Aileen Gabbey, Executive Director",3300 Falls Road,,Baltimore,MD,21211,United States
167071,55293207,"Board Of Child Care Thomas L. Curcio, President/Ceo",3300 Gaither Road,,Baltimore,MD,21244,United States
167731,55293214,"St. Cecilia Rcc Soup Kitchen Angela Mccusson, Coordinator",3300 Clifton Avenue,,Baltimore,MD,21216,United States
167123,55293216,"Canton Baptist Church Rev. Steve Wolverton, Pastor",3302 Toone Street,,Baltimore,MD,21224,United States
167148,55293222,"St. Ann Adult Day Svcs, Catholic Charities Cherie Melton, Director",3308 Benson Avenue,,Baltimore,MD,21227,United States
167148,55293227,"Answers For The Aging Dolores Krysiak, Program Coordinator",3310 Benson Avenue,,Baltimore,MD,21227-1035,United States
1740613,55293229,,3313 Oakfield Avenue,,Gwynn Oak,MD,21207,United States
9789514,55293231,,3317 St. Luke's Lane,,Baltimore,MD,21207,United States
10562264,55290015,,3319 Summit Avenue,,Baltimore,MD,21234,United States
167774,55293237,"Northwest Baltimore Youth Services, Inc. Audrey M. Bennett, Executive Director",3319 West Belvedere Avenue,,Baltimore,MD,21215,United States
167601,55293235,"Park West Health System, Inc. Dr. Allen J. Bennett, President/Ceo",3319 West Belvedere Avenue,,Baltimore,MD,21215,United States
169084,55293240,"Southeast Community Development Corporation Chris Ryer, Director",3323 Eastern Avenue,Suite 200,Baltimore,MD,21224,United States
15044791,55293243,"The Community Mediation Program Tracee Ford, Director",3333 Greenmount Avenue,,Baltimore,MD,21218,United States
41274411,55293245,,3340 Old Fredrick Road,,Baltimore,MD,21229,United States
167092,55293248,"Blind Industries And Services Of Md, Balto. Frederick J. Puente, President",3345 Washington Boulevard,,Baltimore,MD,21227,United States
167193,55293251,Church Of The Guardian Angel Pantry Dean Krebs-Pantry  & Sarah Chalk-Thrift Shop,2629 Huntingdon Avenue,,Baltimore,MD,21211,United States
167217,55293259,"Community Law Center Kristine Dunkerton, Director",3355 Keswick Road,Suite 200,Baltimore,MD,21211,United States
167197,55293256,"Citizens Planning And Housing Association Dan Pontious, Acting Executive Director",3355 Keswick Road,Suite 200,Baltimore,MD,21211,United States
167459,55293262,"Johns Hopkins University Tutorial Project Young Song, Director",3400 North Charles Street,Levering 200,Baltimore,MD,21218,United States
374389,55293265,,3410 White Avenue,,Baltimore,MD,21214,United States
54843697,55293268,"Southeast Community Action Center Diann Baker, Director",3411 Bank Street,,Baltimore,MD,21224,United States
168324,55293271,"Belair-Edison Neighborhoods Johnette Richardson, Director",3412 Belair Road,,Baltimore,MD,21213,United States
167860,55293274,"Abbott Memorial Presbyterian Church, We Care Sylvia Bragg, Director",3426 Bank Street,,Baltimore,MD,21224,United States
167766,55293282,,3445 Park Heights Avenue,,Baltimore,MD,21215,United States
167766,55293285,"St. Ambrose Outreach Center Laura Spada, Director",3445 Park Heights Avenue,,Baltimore,MD,21215-7850,United States
167361,55293290,"Hwrmw Community Services Betty Callahan, Director",3449 Falls Road,Hampden United Methodist Church,Baltimore,MD,21211,United States
167361,55293298,"Hwrmw Community Services Betty Callahan, Director",3449 Falls Road,Hampden United Methodist Church,Baltimore,MD,21211,United States
167361,55293296,"Hwrmw Community Services Betty Callahan, Director",3449 Falls Road,Hampden United Methodist Church,Baltimore,MD,21211,United States
167361,55293293,"Hwrmw Community Services Betty Callahan, Director",3449 Falls Road,Hampden United Methodist Church,Baltimore,MD,21211,United States
167532,55293301,"Mercy Medical Center Thomas Mullen, President & Ceo",345 St. Paul Place,,Baltimore,MD,21202-2140,United States
167344,55293310,Good Shepherd Baptist Pantry Mary Speight,3459 Park Heights Avenue,,Baltimore,MD,21215,United States
167344,55293308,Good Shepherd Baptist Pantry Mary Speight,3459 Park Heights Avenue,,Baltimore,MD,21215,United States
167344,55293305,Good Shepherd Baptist Pantry Mary Speight,3459 Park Heights Avenue,,Baltimore,MD,21215,United States
167245,55293315,"Workfirst, Inc. Marsha Legg, Director",3501 East Federal Street,,Baltimore,MD,21213,United States
167353,55293318,"Greater Homewood Community Corporation, Inc. Jo Ann Mckinney, Learner Advocate",3503 North Charles Street,,Baltimore,MD,21218,United States
167509,55293320,"The Maryland School For The Blind Carl Lancaster, Interim President & Ceo",3501 Taylor Avenue,,Baltimore,MD,21236,United States
167657,55293322,"Radio Reading Network Of Maryland Peggy Dorsey, Office Administrator",3501 Taylor Avenue,,Baltimore,MD,21236,United States
167900,55293325,"Head Start Program, Emily Price Jones Roi Kenshahinton, Director",3510 Eldorado Avenue,,Baltimore,MD,21207,United States
168361,55293330,"Development Corp. Of Northwest Baltimore Florine V. Robinson, Executive Director",3521 West Belvedere Avenue,,Baltimore,MD,21215-5802,United States
167212,55290019,,3525 Resource Drive,,Baltimore,MD,21133,United States
168741,55290026,"All About You Health Care Service, Inc. Marie Johnson, Director",3527 North Rolling Road,Suite 225,Baltimore,MD,21244,United States
38359492,55293332,,3529 Edmondson Avenue,,Baltimore ,MD,21229,United States
212342,55293336,,3533 Dolfield Avenue,,Baltimore,MD,21215,United States
168429,55293340,"The Family Kitchen Pantry Greta Carter, Director",360 South Dukeland Street,,Baltimore,MD,21223,United States
166990,55293348,"American Civil Liberties Union Of Maryland Susan Goering, Executive Director",3600 Clipper Mill Road,Suite 350,Baltimore,MD,21211,United States
167084,55293344,"Big Brothers Big Sisters, Central Maryland Robin Tomechko, President & Ceo",3600 Clipper Mill Road,Suite 250,Baltimore,MD,21211,United States
219213,55293350,,3600 O'Donnell Street,Suite 2,Baltimore,MD,21224,United States
167639,55293352,"Project Plase, Inc. Mary Slicher, Executive Director",1814 Maryland Avenue,,Baltimore,MD,21201,United States
167639,55293354,"Project Plase, Inc. Mary Slicher, Executive Director",3601 Old Frederick Road,,Baltimore,MD,21229,United States
168425,55293357,"Trinity Newbirth Elizabeth Milburn, Executive Director",3604-2 North Rogers Avenue,,Baltimore,MD,21207,United States
9219438,55293360,,3612 Falls Road,,Baltimore,MD,21211,United States
167054,55293362,"Police Athletic League (Pal), Scott's Branch Officers Greenfield And Badham",3651 Rolling Road,,Baltimore,MD,21207,United States
167064,55293365,"Bms, Highlandtown Community Health Center Victoria Shrader, Office Manager","3700 Fleet Street, Suite 200",,Baltimore,MD,21224,United States
167307,55293368,"Foxwell Memorial Apartments Marti Chase, Community Director",3700 Greenspring Avenue,,Baltimore,MD,21211,United States
169052,55293376,,3701 9th Street,,Baltimore,MD,21225,United States
169052,55293374,,3701 9th Street,,Baltimore,MD,21225,United States
168062,55293378,"Special Olympics, Maryland Dr. Patricia Krebs, President & Ceo",3701 Commerce Drive,Suite 103,Baltimore,MD,21227,United States
167483,55293381,"Martin Pollak Project Inc., The Richard L. Norman, Ceo",3701 Eastern Avenue,,Baltimore,MD,21224,United States
168694,55293384,"U.S. Citizenship And Immigration Services Jonathan Scharfen, Acting Director",3701 Koppers Street,,Baltimore,MD,21227,United States
167400,55293392,"Adelante Familia Lisa Knickmeyer, Director",Adelante Familia c/o House of Ruth Maryland,2201 Argonne Drive,Baltimore,MD,21218,United States
167400,55293394,"Adelante Familia Lisa Knickmeyer, Director",Adelante Familia c/o House of Ruth Maryland,2201 Argonne Drive,Baltimore,MD,21218,United States
167552,55293402,"Mountain Manor Treatment Center Paul Wells, Administrator",3800 Frederick Avenue,,Baltimore,MD,21229,United States
167766,55293404,"St. Bernardine's Pantry Father Miller, Coordinator",3812 Edmondson Avenue,,Baltimore,MD,21229,United States
167063,55293412,"Utility Service Protection Program Towanda Howe, Limited Income Liaison",P.O. Box 1475,,Baltimore,MD,21203,United States
167520,55293414,"Baltimore Va Rehab. & Extended Care Center Dennis Smith, Director",3900 Loch Raven Boulevard,,Baltimore,MD,21218,United States
6941139,55293417,,3900 Roland Avenue,,Baltimore,MD,21211,United States
167520,55293420,,3901 The Alameda,,Baltimore,MD,21218,United States
167882,55290030,"Baltimore County Health Dept., Wic Deborah D'souza, Coordinator",3902 Annapolis Road,,Baltimore,MD,21227,United States
168431,55293422,"Child First Authority Carol Reckling, Executive Director",3904 Hickory Avenue,Suite 200,Baltimore,MD,21211,United States
203791,55293425,,3907 Hamilton Avenue,,Baltimore,MD,21206,United States
271139,55293428,,3911 Garrison Boulevard,,Baltimore,MD,21215,United States
401426,55293439,,3910 West Rogers Avenue,,Baltimore,MD,21215,United States
401426,55293431,,3910 West Rogers Avenue,,Baltimore,MD,21215,United States
168253,55293445,"Jobs, Housing & Recovery Linda Boyer, Executive Director",PO Box 242587,,Baltimore,MD,21227,United States
167758,55293448,"St. Paul Evangelical Lutheran Church Nancy Stroh, Secretary",3915 Pennington Avenue,,Baltimore,MD,21226-1211,United States
368000,55293458,,3931 Ridgewood Avenue,,Baltimore,MD,21215,United States
54843697,55293461,"Northwest Community Action Center Diane Jones, Manager",3939 Reisterstown Road,,Baltimore,MD,21215,United States
17175009,55293469,,3939 Reisterstown Road,Suite 268,Baltimore,MD,21215,United States
168436,55293466,"Maryland Educational Opportunity Center Ellen Dolvey-Howard, Executive Director",3939 Reisterstown Road,,Baltimore,MD,21215,United States
169035,55293471,"Episcopal Housing Corporation Dan Mccarthy, Executive Director",3986 Roland Avenue,,Baltimore,MD,21211,United States
167069,55293473,Baltimore Rescue Mission Charles Buettner Executive Director,PO Box 735,,Baltimore,MD,21202,United States
167347,55293479,"Grace And Hope Mission, Inc. Helen Meewes, President",4 South Gay Street,,Baltimore,MD,21202,United States
167276,55293483,"Enoch Pratt Free Library Carla D. Hayden,  Executive Director",400 Cathedral Street,,Baltimore,MD,21201-4484,United States
167508,55293487,,4007 Falls Road,,Baltimore,MD,21211,United States
167492,55293493,"Maryland Dept. Of Business & Economic Develop David Edgerley, Secretary",401 East Pratt Street,9th Floor,Baltimore,MD,21202,United States
167503,55293495,"World Trade Center Institute, The Deb Kielty, Executive Director",401 East Pratt Street,Suite 232,Baltimore,MD,21202,United States
168029,55293497,"Baltimore Area Visitors Center Frank Riggio, Manager",401 Light Street,,Baltimore,MD,21202,United States
167435,55293499,East Baltimore Mental Health Partnership Dr. Jacquelyn Duval-Harvey,401 North Caroline Street,,Baltimore,MD,21231,United States
167766,55293502,"Beans And Bread Outreach Center Mary Lee Bradyhouse, Director",402 South Bond Street,,Baltimore,MD,21231,United States
167391,55293508,Holy Rosary Church Pantry Father John Michalski,408 South Chester Street,,Baltimore,MD,21231,United States
168683,55293520,"Vehicles For Change Martin Schwartz, Executive Director",4111 Washington Boulevard,,Baltimore,MD,21227,United States
167601,55293525,"Park West Health System, Hidden Garden Prog. Cleo L. Edmonds, Program Director",4120 Patterson Avenue,,Baltimore,MD,21215,United States
167601,55293522,"Park West Health System, Reisterstown Plaza Michelle Durante, Site Administrator",4120 Patterson Avenue,,Baltimore,MD,21215,United States
260072,55293528,,4140 Patterson Avenue,,Baltimore,MD,21215,United States
167513,55293532,"Maryland State Library For The Blind And Jill Lewis, Director",Maryland State Library for the Blind and Physically Handicapped,415 Park Avenue,Baltimore,MD,21201,United States
168443,55293539,,417 East Fayette Street,6th floor,Baltimore,MD,21202,United States
168443,55293536,,1001 East Fayette Street,,Baltimore,MD,21202,United States
167210,55293565,"Baltimore City Comm. On Aging & Retirement Deborah Hamilton, Program Coordinator",417 East Fayette Street,Suite 634,Baltimore,MD,21202,United States
168443,55293562,,417 East Fayette Street,Suite 602,Baltimore,MD,21202,United States
167042,55293559,Home Ownership & Rehabilitation Services Michael Guy Or Thomas Jaudon,417 East Fayette Street,Suite 1125,Baltimore,MD,21202,United States
169139,55293557,"Balto. City Board Of Elections Armstead Jones, Director",417 East Fayette Street,Room 129,Baltimore,MD,21202,United States
167210,55293555,,417 East Fayette Street,6th Floor,Baltimore,MD,21202,United States
167210,55293552,"Senior Info  Asst Baltimore City Thelma Winn, Division Chief",417 East Fayette Street,6th Floor,Baltimore,MD,21202,United States
167210,55293549,"Baltimore City Commission On Aging & Retire.- Renay C. Alexander, Program Manager",417 East Fayette Street,6th Floor,Baltimore,MD,21202,United States
167210,55293547,"Retired And Sr. Vol. Prog., Balto. City Daphne Hicks, Director",417 East Fayette Street,6th Floor,Baltimore,MD,21202,United States
168463,55293545,"Msda, Nutrition Program For The Elderly Joseph V. Gennusa Iii,Phd, Rd, Ldn",417 East Fayette Street,6th Floor,Baltimore,MD,21202,United States
168443,55293541,"Baltimore City Health Dept., Adult Evaluation Francine Childs, Assis. Commissioner",417 East Fayette Street,6th Floor,Baltimore,MD,21202,United States
168443,55293570,"Baltimore City Commission On Aging & Retire. Pamela Massie, Supervisor","417 East Fayette Street, 6th Floor",,Baltimore,MD,21202,United States
167856,55293573,"Waters Church Soup Kitchen Iris Rowe, Director",417 North Aisquith Street,,Baltimore,MD,21202,United States
358869,55293576,,4200 Edmondson Avenue,Suite 200-A,Baltimore,MD,21229,United States
169001,55293579,"Morgan State University, Tax Assistance Cynthia Lloyd, Tax Volunteer",4200 Hillen Road,"School of Business, Room 216",Baltimore,MD,21251,United States
168751,55293582,"People Encouraging People Colleen Mcgraw, Assistant To President",22 South Howard Street,Suite 105,Baltimore,MD,21201,United States
167243,55293584,Damascus House,4203 Ritchie Highway,,Baltimore,MD,21225,United States
167561,55293587,"My Brother's Keeper Sister Carol Durkin , Director",4207 Frederick Avenue,,Baltimore,MD,21229,United States
167382,55293589,"Health Care For The Homeless, Inc., Baltimore Jeff Singer, President & Ceo",421 Fallsway,,Baltimore,MD,21202,United States
56406541,56408045,,421 West Pratt Street,,Baltimore,MD,21223,United States
167048,55293595,"Southwestern District Major Anthony Brown, District Commander",Southwestern District,c/o 242 West 29th Street,Baltimore,MD,21211-2908,United States
167075,55293603,"Bea Gaddy Family Center Connie Bass, Director",PO Box 38501,,Baltimore,MD,21231-1635,United States
167075,55293615,"Bea Gaddy Family Center Connie Bass, Director",PO Box 38501,,Baltimore,MD,21231-1635,United States
167075,55293612,"Bea Gaddy Family Center Connie Bass, Director",PO Box 38501,,Baltimore,MD,21231-1635,United States
167075,55293609,"Bea Gaddy Family Center Connie Bass, Director",PO Box 38501,,Baltimore,MD,21231-1635,United States
167075,55293606,"Bea Gaddy Family Center Connie Bass, Director",PO Box 38501,,Baltimore,MD,21231-1635,United States
55823100,57231713,,428 East 25th Street,,Baltimore,MD,21218,United States
167148,55293618,"Esperanza Center, Catholic Charities Cynthia Fickes, Director",430 South Broadway,,Baltimore,MD,21231,United States
167365,55293627,"Harford Belair Community Mental Health Center Larry Alessi, M.D., Director",4308 Harford Road,,Baltimore,MD,21214-1895,United States
167194,55293641,"Community Support Center Yvette Clark, Coordinator",4321 Old York Road,,Baltimore,MD,21212-4727,United States
167194,55293638,"Community Support Center Yvette Clark, Coordinator",4321 Old York Road,,Baltimore,MD,21212-4727,United States
167194,55293643,"Community Support Center Yvette Clark, Coordinator",4321 Old York Road,,Baltimore,MD,21212-4727,United States
167287,55293646,"Family & Children's Services Linda T. Harvey, Center Director",4330 D Pimlico Road,,Baltimore,MD,21215,United States
167281,55293649,"Ark Daycare Center Nancy Newman, Director",4330 Pimlico Road,,Baltimore,MD,21215,United States
219399,55293651,,4340 Park Heights Avenue,,Baltimore,MD,21215,United States
167478,55293654,"Manna House, Inc. Esther Reaves, Executive Director",435 East 25th Street,,Baltimore,MD,21218,United States
166972,55293663,"All Saints Emergency Services Gloria Barnes, Chair Of Food Pantry",4408 Liberty Heights Avenue,,Baltimore,MD,21207,United States
53488803,55293665,,4414 Frankford Avenue,,Baltimore,MD,21206,United States
167052,55290034,"Baltimore County Information Gary Schauber, Supervisor",4423 Bucks Schoolhouse Road,,Baltimore,MD,21237,United States
168485,55293673,"I Can't, We Can, Inc. Israel Cason, President",4432 Park Heights Avenue,,Baltimore,MD,21215,United States
31463212,55293676,,4500 Frankford Avenue,,Baltimore,MD,21206,United States
174272,55293679,"Loyola College Jan Edward Williams, Director",4501 North Charles Street,Seton Court O2B,Baltimore,MD,21210,United States
167882,55293682,"University Of Md School Of Medicine - Wic Pamela Harrison, Program Coordinator",4536 Edmondson Avenue,,Baltimore,MD,21229,United States
167365,55293685,"Harford Belair Haven Stephen Riegger, Program Director",4536 Harford Road,,Baltimore,MD,21214,United States
167827,55293688,"University Care At Edmondson Village Carolyn Morsell, Center Manager",4538 Edmondson Avenue,,Baltimore,MD,21229,United States
167494,55293690,,4538 Edmondson Avenue,,Baltimore,MD,21229,United States
168674,55293696,"Gaudenzia, Inc. At Park Heights Michael Hall, President/Ceo",4615 Park Heights Avenue,,Baltimore,MD,21215-6331,United States
168674,55293698,"Gaudenzia, Inc. At Park Heights Michael Hall, President/Ceo",4615 Park Heights Avenue,,Baltimore,MD,21215-6331,United States
56363924,56407395,,4651 Roland Ave,,Baltimore,MD,21210,United States
167287,55293705,"Family & Children's Services Of Central Stanley Levi, Executive Director",4623 Falls Road,,Baltimore,MD,21209,United States
167287,55293713,"Family & Children's Services, Elder Services Cheryl Ladota, Director",4623 Falls Road,,Baltimore,MD,21209,United States
167287,55293708,"Family & Children's Services Barbara Ross, Program Coordinator",Family Violence Project,4623 Falls Road,Baltimore,MD,21209,United States
29426582,55293716,,4640 Edmondson Avenue,2nd Floor,Baltimore,MD,21229,United States
201551,55293721,"Homecall, Inc., Baltimore City Margaret Tierney, Branch Manager",4701 Mount Hope Drive,Suite A,Baltimore,MD,21215,United States
201551,55290037,"Homecall, Inc. Arbutus Margaret Kerney, Branch Manager",4701 Mt. Hope Drive,Suite A,Baltimore,MD,21215,United States
27851469,55293727,,4710 Pennington Avenue,1st Floor,Baltimore,MD,21226,United States
167304,55293729,"Forty West Assistance And Referral Center Charlotte Mason, Director",4711 Edmondson Avenue,,Baltimore,MD,21229,United States
166995,55293737,"American Red Cross Of Central Md Frank Miller, Executive Director",4800 Mount Hope Drive,,Baltimore,MD,21215-3231,United States
166995,55293735,"American Red Cross Of Central Md Frank Miller, Executive Director",4800 Mount Hope Drive,,Baltimore,MD,21215-3231,United States
166995,55293745,"American Red Cross Of Central Md Frank Miller, Executive Director",4800 Mount Hope Drive,,Baltimore,MD,21215-3231,United States
166995,55293742,"American Red Cross Of Central Md Frank Miller, Executive Director",4800 Mount Hope Drive,,Baltimore,MD,21215-3231,United States
166995,55293740,"American Red Cross Of Central Md Frank Miller, Executive Director",4800 Mount Hope Drive,,Baltimore,MD,21215-3231,United States
167563,55293750,"Naacp, National Headquarters Dennis C. Hayes, Interim President",4805 Mount Hope Drive,,Baltimore,MD,21215,United States
167341,55293753,"Girl Scouts Of Central Maryland Traci A. Barnett, Executive Director/Ceo",4806 Seton Drive,,Baltimore,MD,21215,United States
167183,55293756,"Chimes Maryland Alexis M. Melin, Lcsw",4814 Seton Drive,,Baltimore,MD,21215,United States
167183,55293758,"Intervals Medical Day Habilitation Center Edward M. Hartman, Ed. D Chief Operating Off.",4814 Seton Drive,,Baltimore,MD,21215,United States
182028,55293761,,4910 Park Heights Avenue,,Baltimore,MD,21215,United States
168498,55293764,"Maryland Center For Arts And Technology Inc Dr. Dorothy E. Brunson, Program Director",4910 Park Heights Avenue,2nd Floor,Baltimore,MD,21215,United States
167434,55293771,"Johns Hopkins Bayview Medical Center Gregory F. Schaffer, President",4940 Eastern Avenue,,Baltimore,MD,21224-2780,United States
167434,55293776,"Community Care-A-Van Patricia Alexander, P.A.",4940 Eastern Avenue,BMO Room 1031,Baltimore,MD,21224,United States
167434,55293774,"Methadone Maintenance Dr. Robert Brooner, Director",4940 Eastern Avenue,,Baltimore,MD,21224,United States
167434,55293785,"Johns Hopkins Bayview, Social Work Department Janet Seals, Social Worker",4940 Eastern Avenue,"Building Aa, Room 1370",Baltimore,MD,21224,United States
167434,55293783,"Center For Chemical Dependence Dr. Darius Rastegar, Director",4940 Eastern Avenue,A 2 East Room 202,Baltimore,MD,21224-2735,United States
167434,55293780,"Johns Hopkins Bayview, Center For Addiction & Vickie Walters,Program Director",4940 Eastern Avenue,5th Floor,Baltimore,MD,21224-3033,United States
167048,55293791,"Baltimore City Police Department John Bailey, District Commander",Central District,c/o 242 West 29th Street,Baltimore,MD,21211-2908,United States
167048,55293793,"Baltimore City Police Department John Bailey, District Commander",Central District,c/o 242 West 29th Street,Baltimore,MD,21211-2908,United States
167458,55293795,"Legal Aid Bureau, Inc., Baltimore City Wilhelm H. Joseph Jr., Executive Director",500 East Lexington Street,,Baltimore,MD,21202-3560,United States
167494,55293801,"Aids Administration Heather Hauck, Director",500 North Calvert Street,"5th Floor, Shillman Building",Baltimore,MD,21202,United States
167496,55293799,"Maryland Dept. Of Labor, Licensing & Regulati Thomas E. Perez, Secretary",500 North Calvert Street,,Baltimore,MD,21201-3651,United States
167495,56061106,,500 North Hilton Street,,Baltimore,MD,21229,United States
168747,55293807,"University Of Maryland School Of Law Tax Prog Luann Marshall, Coordinator",500 West Baltimore Street,Suite 360,Baltimore,MD,21201,United States
1739551,55293813,"Brooklyn Church Of God Rev. Ray Sewell, Outreach Director/Pastor",5007 Ritchie Highway ,,Baltimore,MD,21225,United States
167045,55293819,"Baltimore City Dss, Eviction Prevention Progr",501 East Fayette Street,Room 207,Baltimore,MD,21202,United States
168299,55293815,"District Court Of Maryland, Civil Division Kathy Hefner, Administrative Clerk",501 East Fayette Street,,Baltimore,MD,21202,United States
219399,55293825,,5010 York Road,,Baltimore,MD,21212,United States
167081,55293827,"Better Business Bureau Of Greater Md Angie Barnett , President",502 South Sharp Street,Suite 1200,Baltimore,MD,21201,United States
3629791,55293831,,505 East 42nd Street,,Baltimore,MD,21218,United States
182563,55293833,,5100 Denmore Avenue,,Baltimore,MD,21215,United States
167070,55293837,"Greater Baltimore Urban League, Inc. J. Howard Henderson, President",512 Orchard Street,,Baltimore,MD,21201,United States
167062,55293839,"Baltimore Crisis Response, Inc. Linda Fauntleroy, Director Of Hotline Service",5124 Greenwich Avenue,,Baltimore,MD,21229,United States
24322688,55293843,,513 East 36th Street,,Baltimore,MD,21218,United States
168439,55293846,"Meals On Wheels, Balto. City And Balto. Cty James Bagwell, Client Services Administrator",515 South Haven Street,,Baltimore,MD,21224-4220,United States
167343,55293854,"Glenwood Life Counseling Center Lillian Donnard, Executive Director",516 Glenwood Avenue,,Baltimore,MD,21212,United States
167512,55293861,"Pro Bono Resource Center Of Maryland, Inc. Sharon Goldsmith, Executive Director",520 West Fayette Street.,,Baltimore,MD,21201,United States
169095,55293867,,520 West Fayette Street,Suite 410,Baltimore,MD,21201,United States
168352,55293869,"Care Clinic Cindy Weisbart, Psy.D",520 West Lombard Street,"Gray Hall, 1st Floor",Baltimore,MD,21201,United States
168722,55293872,"Comprehensive Care Practice Michael Fingerhood, Medical Director",5200 Eastern Avenue,"Mason Lord Building, West Tower, 5th Floor",Baltimore,MD,21224,United States
167223,55290039,"Concord Baptist Church Hazel Guin, Contact Person",5204 Liberty Heights Avenue,,Baltimore,MD,21207,United States
167346,55293878,"Micah House Lin Romano, Deputy Director",5207 York Road,,Baltimore,MD,21212,United States
167879,55293880,"The Women's Growth Center Ilene Toller, Director",5209 York Road,Suite B-12,Baltimore,MD,21212,United States
42254217,55293882,,5217 Reisterstown Road ,,Baltimore,MD,21215,United States
54843697,55293886,"Northeast Community Action Center David Smith, Manager",5225 York Road,,Baltimore,MD,21212,United States
167802,55293890,"Westminster House Heather Warren,  Manager",524 North Charles Street,,Baltimore,MD,21201,United States
167298,55293892,"First Baptist Church Soup Kitchen Reather Green, Coordinator",525 North Caroline Street,,Baltimore,MD,21205,United States
167048,55293894,,5271 Reisterstown Road,,Baltimore,MD,21215,United States
54943247,55293902,,5315 Harford Road,,Baltimore,MD,21214,United States
54943247,55293900,,5315 Harford Road,,Baltimore,MD,21214,United States
167049,55293904,"National Academy Foundation Karen Webber-Ndour, Principal",540 North Caroline Steet,,Baltimore,MD,21205,United States
167164,55293906,"Central Maryland Ecumenical Council Tim Hanavan, Executive  Director",5400 Loch Raven Boulevard,,Baltimore,MD,21239,United States
167577,55293908,"New Creation Christian Church Leslie Percell, Outreach Coordinator",PO Box 29180,,Baltimore,MD,21205,United States
167604,55293910,"Pastoral Counseling Services Of Maryland Deanna Ferrell, Clinical Coordinator",5407 North Charles Street,,Baltimore,MD,21210-2094,United States
616571,55293912,,541 South Beechfield Avenue,,Baltimore,MD,21229,United States
29057295,55293914,,Deliverance Through Jesus Christ Apostolic Faith Church,"5411 Old Frederick Road, Suite 17",Baltimore,MD,21229,United States
167616,55290042,"Pregnancy Center West Irene Eagan, Director",5411 Old Frederick Road,Suite 1,Baltimore,MD,21229,United States
56406541,56406544,,5411 Old Frederick Road #13,,Baltimore,MD,21229,United States
56363983,56364013,,5438 York Road Suite 202,,Baltimore,MD,21212,United States
56662538,56662549,,"5450 Reisterstown Road, Suite 304",,Baltimore,MD,21215,United States
167434,55293918,"Johns Hopkins Bayview Mr. Kim Houser, Manager",Child And Adolescent Community Psychiatry Services,5500 East Lombard St.,Baltimore,MD,21224-2780,United States
167346,55293920,"C.A.R.E.S. Rachael Neill, Program Coordinator",5502 York Road,St. Mary's Church,Baltimore,MD,21212,United States
168077,55290046,"Medical Eye Bank Of Maryland Patricia Murphy, Executive Director",5520 Research Park Drive,Suite 400,Baltimore,MD,21228,United States
260007,55293926,,559 Roberts Street,,Baltimore,MD,21217,United States
168126,55293928,"Good Samaritan Hospital Of Md, Inc. Lynn Kirlin, Director Of Development",5601 Loch Raven Boulevard,,Baltimore,MD,21239-2995,United States
167882,55293932,"Baltimore City Health Dept  Wic - Harford C Joanne Smith, Director",5610 Harford Road,,Baltimore,MD,21214,United States
167346,55293934,"Epiphany House Liz Unzeler, Site Manager",5610 York Road,,Baltimore,MD,21212,United States
167430,55293940,"Weinberg Jewish Community Center Phil Miller, Vice-President",5700 Park Heights Avenue,,Baltimore,MD,21215,United States
167474,55293942,"Immanuel Compassion Center Denise Waicker, Center Coordinator",601 Hammonds Lane,,Brooklyn Park,MD,21225,United States
168664,55293944,"Share, Huber Memorial Church Felicia Rivers, Coordinator",5701 York Road,,Baltimore,MD,21212,United States
167034,55293946,"Jewish Volunteer Connection Leslie Pomerantz, Executive Director",5708 Park Heights Avenue,,Baltimore,MD,21215,United States
56460361,56460538,,5710 Bellona Ave,Suite 102,Baltimore,MD,21212,United States
167048,55293948,"Southeastern District Major Roger Bergeron, District Commander",Southeastern District ,c/o 242 West 29th Street,Baltimore,MD,21211-2908,United States
56406516,56406527,,5718 Harford Road,Suite 103,Baltimore,MD,21214,United States
168098,55293950,"Jewish Big Brother & Big Sister League Dr. Aviva Weisbord, Executive Director",5750 Park Heights Avenue,,Baltimore,MD,21215,United States
168098,55293956,"Jewish Community Services, Legal Services Joel Simon, Program Co-Chair",5750 Park Heights Avenue,,Baltimore,MD,21215,United States
168098,55293952,"Jewish Community Services Barbara L. Gradet, Lcsw, Executive Director",5750 Park Heights Avenue,,Baltimore,MD,21215,United States
168299,55293960,,Borgerding District Court Building,5800 Wabash Avenue,Baltimore ,MD,21215,United States
167364,55293966,"Harbel Community Organization, Inc. Naomi Benyowitz, Executive Director",5807 Harford Road,,Baltimore,MD,21214-1895,United States
167364,55293968,,5807 Harford Road,,Baltimore,MD,21214-1895,United States
168360,55293970,"Chai (Comprehensive Housing Assistance, Inc.) Ken Gelula, Executive Director",5809 Park Heights Avenue,,Baltimore,MD,21215,United States
167882,55293972,"Baltimore City Health Dept., Wic Joanne Smith, Director",5818 Reisterstown Road,,Baltimore,MD,21215,United States
167495,56061124,,5818 Reisterstown Road,,Baltimore,MD,21215,United States
54147319,55293974,,Wright Way Tax Solutions,PO Box 66316,Baltimore,MD,21239,United States
168328,55293976,"Rebuilding Together Bonnie Bessor, Executive Director",5820 York Road,Suite T300,Baltimore,MD,21212,United States
168418,55293978,"Senior Network Of North Baltimore James Williams, Interim Executive Director",5828 York Road,,Baltimore,MD,21212,United States
14982140,55293980,,5828 York Road,,Baltimore,MD,21212,United States
167495,55293982,"One Church, One Child Adoption Program Nancy Blackwell, Program Manager",5900 Bland Avenue,,Baltimore,MD,21215,United States
167384,55293984,"Hearing And Speech Agency Of Metro. Baltimore Susan H. Glasgow, Executive Director",5900 Metro Drive,,Baltimore,MD,21215,United States
167435,55293986,"Johns Hopkins Home Care Group Susan Martin, Sr. Director Of Business Devel.",5901 Holabird Avenue,Suite A,Baltimore,MD,21224,United States
7154751,55293988,,5910 Ayleshire Road,,Baltimore,MD,21239,United States
167473,55293996,"Loyola Clinical Centers, The Janet Simon Schreck, Division Director",5911 York Road,Suite 100,Baltimore,MD,21212,United States
167473,55294000,"Loyola Clinical Centers, The Janet Simon Schreck, Division Director",5911 York Road,Suite 100,Baltimore,MD,21212,United States
168442,55294002,Maryland Nat'l Guard Counterdrug Task Force Counterdrug Coordinator,5th Regiment Armory,"29th Division Street, M23",Baltimore,MD,21201-2288,United States
56481540,56481585,,"6 Nashua Court, Suite B",,Baltimore,MD,21221,United States
167500,55294004,"Office Of Student Financial Assistance Elizabeth Urbanski, Director",6 North Liberty Street,Ground Suite,Baltimore,MD,21201,United States
167516,55294008,"Maryland Office Of People's Counsel Paula M. Carmody, Director",6 Saint Paul Street,Suite 2102,Baltimore,MD,21202-1608,United States
167490,55294014,"Maryland Commission On Human Relations Henry Ford, Executive Director",6 St. Paul Street,Suite 900,Baltimore,MD,21202,United States
167514,55294012,"Maryland Transit Administration  (Mta) Paul J. Wiedefeld, Mta Administrator",6 St. Paul Street,,Baltimore,MD,21202-1614,United States
167518,55294010,"Maryland State Public Service Commission Lawanda Edwards, Supervisor Of Ext. Relations",6 St. Paul Street,,Baltimore,MD,21202,United States
167185,55294018,"Christ Church Harbor Apartments, Inc. Cindy Berardino, Manager",600 Light Street,,Baltimore,MD,21230,United States
1740990,55294020,,600 North Charles Street,,Baltimore,MD,21201,United States
167435,55294022,"Johns Hopkins University, School Of Medicine Dr. Richard Moore, Clinical Director",Aids Services,"600 North Wolfe Street, Carnegie 346",Baltimore,MD,21205,United States
167435,55294026,"Johns Hopkins Hospital, Hiv Testing Jean R. Anderson, M.D., Director",601 North Wolfe Street,"Phipps, Room 248",Baltimore,MD,21287,United States
167435,55294024,"Community Psychiatry/Hispanic Mental Health Teresa Tufano, Hispanic Clinic Coordinator",600 North Wolfe Street,"Johns Hopkins Hospital, Meyer Building 144",Baltimore,MD,21287,United States
167435,55294028,"Johns Hopkins Hiv  Womens' Health Program Jean Anderson, Md, Assistant Professor",600 North Wolfe Street,Phipps 249,Baltimore,MD,21287,United States
168033,55294030,"U.S. Food And Drug Admin., Baltimore Office Evelyn Bonnin, District Director",6000 Metro Drive,Suite 101,Baltimore,MD,21215,United States
374398,55294032,,6000 Radecke Avenue,,Baltimore,MD,21206,United States
167922,55294034,"One Call Center Sheila Dixon, Mayor",601 East Fayette Street,,Baltimore,MD,21202,United States
168722,55294036,"Parkinson's Disease Center Becky Dunlop, Rn, Bsn, Nurse Coordinator",601 North Caroline Street,Suite 5064,Baltimore,MD,21287,United States
167277,55294038,"Enon Baptist Church Deacon William Hardy, Coordinator",601 North Schroeder Street,,Baltimore,MD,21217,United States
167277,55294040,"Enon Baptist Church Deacon William Hardy, Coordinator",601 North Schroeder Street,,Baltimore,MD,21217,United States
3171543,55294044,,6020 Marian Drive,,Baltimore,MD,21215,United States
3171543,55294046,,6020 Marian Drive,,Baltimore,MD,21215,United States
168428,55294048,"Greater Grace World Outreach Joyce Anderson, Coordinator",6025 Moravia Park Drive,,Baltimore,MD,21206,United States
167148,55294054,"Cherry Hill Seniorlife Center Katie Shade, Program Director",606 Cherry Hill Road,Suite 201,Baltimore,MD,21225-1229,United States
54843697,55294050,"Southern Community Action Center Beulah Mccain-Lucas, Manager",606 Cherry Hill Road,,Baltimore,MD,21225,United States
168493,55294056,"Education Based Latino Outreach, Inc. (Eblo) Maritza Gonzalez, Program Manager",606 South Ann Street,,Baltimore,MD,21231,United States
168443,55294060,"Baltimore City Healthy Start, Inc. Alma Roberts, President/ C.E.O.",610 North Chester Street,,Baltimore,MD,21205,United States
169066,55294064,Seiu 1199 (Service Employees International Un Nichelle Mcgirt,611 North Eutaw Street,,Baltimore,MD,21201,United States
2967177,55294066,,611 Park Avenue,Suite A,Baltimore,MD,21201,United States
167148,55294078,,620 Fallsway,,Baltimore,MD,21202,United States
167148,55294076,,620 Fallsway,,Baltimore,MD,21202,United States
167718,55294072,"Baltimore City 24-Hour Shelter Linda Trotter, Director",620 Fallsway,,Baltimore,MD,21202,United States
168443,55294080,,Eastern Dental,620 North Caroline Street,Baltimore,MD,21205,United States
168443,55294084,"Baltimore City Health Dept., Sharon Rumber, Director",Maternal & Infant Nursing Program,620 North Caroline Street,Baltimore,MD,21205,United States
168443,55294082,Baltimore City Health Dept.,620 North Caroline Street,,Baltimore,MD,21205,United States
167049,55294086,,6201 Frankford Avenue,,Baltimore,MD,21206,United States
167882,55294088,"Baltimore City Health Department-Wic Joanne Smith, Director",621 North Eden Street,,Baltimore,MD,21205,United States
168640,55294090,"Victoire Health Services, Inc. Taiwo Brown, President",6211 Harford Road,,Baltimore,MD,21214,United States
168571,55294092,,6260 Frankford Avenue,,Baltimore,MD,21206,United States
203809,55294096,,810 Weatherbee Road,,Baltimore,MD,21286,United States
167590,55294098,"On Our Own, Baltimore City Tony Wright, Executive Director",6301 Harford Road,,Baltimore,MD,21214,United States
167717,55294100,"Family Health Centers Of Baltimore, Cherry Hi Paula B. Mclellan, Ceo",631 Cherry Hill Road,,Baltimore,MD,21225,United States
168749,55294102,"Dependable Nursing Services, Llc Ezinna Esochaghi, President",6310 Fair Oaks Avenue,,Baltimore,MD,21214,United States
167672,55294104,"Ronald Mcdonald House Charities Of Balto. Inc Mariane Rowan Braun, Executive Director",635 West Lexington Street,,Baltimore,MD,21201-1571,United States
166989,55294106,"Hope Lodge Karen Seaberry, Director",636 West Lexington Street,,Baltimore,MD,21201,United States
39970361,55294108,,6400 Belair Road,,Baltimore,MD,21206,United States
167524,56074987,"Career Academy Youth Services Callie Greene, Program Manager",6401 Pioneer Drive,,Baltimore,MD,21214,United States
167706,55294112,"U.S. Social Security Administration Jo Anne B. Barnhart, Commissioner",6401 Security Boulevard,Windsor Park Building,Baltimore,MD,21235,United States
167055,55294114,"Rental Allowance Program, Baltimore County Elizabeth Glenn, Chief Of Community Planning",6401 York Road,,Baltimore,MD,21212,United States
167055,55290049,"Baltimore County Dss, General Information Timothy W. Griffith, Director",6401 York Road,,Baltimore,MD,21212,United States
167055,55290058,"Project Home/Adult Foster Care Deborah Veystrk, Supervisor",6401 York Road,,Baltimore,MD,21212,United States
167055,55290055,"Baltimore County Dss, Adoption Alice Bonner, Supervisor-Adoption",6401 York Road,,Baltimore,MD,21212,United States
167055,55290068,"Baltimore County Dss, Home Care Unit Aimee Bollinger-Smith, Administrator",6401 York Road,,Baltimore,MD,21212,United States
167055,55290066,"Baltimore County Dss, Foster Care/Adoptions Judith Schagrin, Assistant Director",Children & Licensing,6401 York Road,Baltimore,MD,21212,United States
167055,55290064,"Baltimore County Dss, Child Protective Svcs. Mark Vidor, Assistant Director, Family Svcs.",6401 York Road,,Baltimore,MD,21212,United States
167055,55290060,"Baltimore County Dss, Adult Protective Svcs. Marci Van De Mark, Assistant Director",6401 York Road,,Baltimore,MD,21212,United States
167056,55290108,"Public Health Nursing Nancy J. Miller, Acting Director",6401 York Road,,Baltimore,MD,21212,United States
167056,55290104,"Bureau Of Disease Control Dr. Barbara Mclean, Acting Director",6401 York Road,,Baltimore,MD,21212,United States
167057,55290097,"Baltimore County Human Relations Commission Celestine Morgan, Executive Director",6401 York Road,Drumcastle Government Center,Baltimore,MD,21212,United States
167055,55290091,"Baltimore County Housing Office Lois Cramer, Administrator",6401 York Road,,Baltimore,MD,21212,United States
167055,55290088,"Baltimore County Dss, Ohep Harriet Hertz, Supervisor",6401 York Road,,Baltimore,MD,21212,United States
167055,55290084,"Baltimore County Dss, (Tca) Lynn Hoesch, Policy Specialist",6401 York Road,,Baltimore,MD,21212,United States
167055,55290078,"Baltimore Co. Dss, Social Services To Adults Blanche Coady, Supervisor Info. & Referral",6401 York Road,,Baltimore,MD,21212,United States
167055,55290074,"Baltimore County Dss, Medical Assistance Tom Saylor, Medical Asst. Policy Spec.",6401 York Road,,Baltimore,MD,21212,United States
167055,55290163,"Baltimore County Dss, Food Stamps Martha Canoune, Policy Specialist",6401 York Road,Drumcastle Center,Baltimore,MD,21212,United States
167056,55290155,"Baltimore County Health Dept., Medical Social Phyllis Hall, Lcsw-C Director",6401 York Road,3rd Floor,Baltimore,MD,21212,United States
167056,55290152,"Breast And Cervical Cancer Program Baltimore Constance Notaro, Program Director",6401 York Road,3rd Floor,Baltimore,MD,21212,United States
167056,55290143,"Baltimore County Health Dept., Cancer Prevent Constance Notaro, Nurse Administrator",6401 York Road,3rd Floor,Baltimore,MD,21212,United States
167056,55290140,,6401 York Road,3rd Floor,Baltimore,MD,21212,United States
167056,55290136,"Baltimore County Health Dept. Pierre Vigilance, M.D., Mph",6401 York Road,3rd Floor,Baltimore,MD,21212,United States
167056,55290129,"Baltimore County Health Dept., Long Term Care Della Leister,  Bureau Director",6401 York Road,3rd Floor,Baltimore,MD,21212,United States
167056,55290125,"Baltimore County Health Dept. Barbara Andersen, R.N., M.S., Health Educator",Communications and Constituent Services,6401 York Road,Baltimore,MD,21212,United States
167494,55290121,"Maryland Children's Health Program, Balto. Co Karen Bratton, Program Director",6401 York Road,3rd Floor,Baltimore,MD,21212,United States
167055,55290114,"Baltimore County Dss, District Office Steve Kearns, District Manager",6401 York Road,,Baltimore ,MD,21212,United States
167055,55290112,"Baltimore County Dss, Emergency Assistance Gary Holt, Assistant Director",6401 York Road,,Baltimore,MD,21212,United States
616544,55294120,,643 Tunbridge Road,,Baltimore,MD,21212,United States
219426,55294122,,644 East 33rd Street,,Baltimore,MD,21218,United States
167824,55294124,University Of Maryland Dental School,650 West Baltimore Street,,Baltimore,MD,21201,United States
167702,55290166,"Sheppard Pratt Health System Bonnie Katz, Vice President",PO Box 6815,,Baltimore,MD,21285-6815,United States
168352,55294126,,655 West Lombard Street,Room 425,Baltimore,MD,21201,United States
167352,55294128,"Hoover Services For Low Vision & Blindness Janet Sunness, M.D., Director",6569 North Charles Street,Suite 504,Baltimore,MD,21204,United States
167212,55290169,Community Assistance Network Community Resource Specialist,6600 Wycombe Way,Hillendale Gate,Baltimore,MD,21234,United States
169011,55294130,"National Alliance On Mental Illness Kathryn Farinholt, Executive Director",6600 York Road,Suite 204,Baltimore,MD,21212,United States
27851383,55294134,,6609 Reisterstown Road,Suite 206D,Baltimore,MD,21215,United States
167826,55294136,"Maryland Cooperative Extension Manami J. Brown, Acting City Extension Dir.",6615 Reisterstown Road,Suite 201,Baltimore,MD,21215,United States
260063,55294138,,6623 Johnnycake Road,,Baltimore,MD,21244,United States
167352,55294140,"Greater Baltimore Medical Center (Gbmc) Laurence M Merlis, President",6701 North Charles Street,,Baltimore,MD,21204,United States
167494,55294142,"Maryland State Division Of Vital Records Geneva G. Sparks, Director",6764-B Reisterstown Road,Reisterstown Road Plaza Mall,Baltimore,MD,21215,United States
168754,55294146,"6776 Reisterstown Road Patrick Mcgee, Interim Director",6776 Reisterstown Road,Suite 212,Baltimore,MD,21215,United States
168754,55294144,"Maryland State Criminal Injury Compensation Robin Woolford, Jr., Executive Director",6776 Reisterstown Road ,Suite 206,Baltimore,MD,21215,United States
168754,55294148,"Maryland Parole Commission David R. Blumberg, Chairperson",6776 Reisterstown Road,Suite 307,Baltimore,MD,21215,United States
167181,55294150,"The Children's Guild, Inc. Dr. Andrew Ross, President",6802 McClean Boulevard,,Baltimore,MD,21234,United States
167615,55290173,"Pregnancy Center North Cindi Ritter, Director",6805 York Road,,Baltimore,MD,21212,United States
168707,55294152,"Augsburg Lutheran Home & Village Glenn Scherer, Executive Director",6811 Campfield Road,,Baltimore,MD,21207-4698,United States
167524,55291440,"Career Academy Youth Services Callie Greene, Program Manager",6900 Park Heights Avenue,,Baltimore,MD,21215,United States
167148,55294154,,6999 Reisterstown Road,,Baltimore,MD,21215,United States
367690,55294156,,7 East Baltimore Street,,Baltimore,MD,21202,United States
167922,55294158,"Baltimore City Health Dept., Homeless Service Diane Glauber, President & Ceo",7 East Redwood Street,,Baltimore,MD,21202,United States
167040,55294164,"Baltimore Community Relations Commission Alvin Gillard, Director",7 East Redwood Street,9th Floor,Baltimore,MD,21202,United States
168443,55294160,"Baltimore City Health Dept. Eric Lomboy, Director",1800 North Charles Street,5th & 6th Floor,Baltimore,MD,21201,United States
167715,55294168,"Safe House Shirley Rose,  Director",7 West Randall Street,,Baltimore,MD,21230,United States
21272107,55294170,,700 Light Street,,Baltimore,MD,21230,United States
168257,55294172,"Centerstage Michael Ross, Managing Director",700 North Calvert Street,,Baltimore,MD,21202,United States
167784,55294174,,1501 Division Street,,Baltimore,MD,21217,United States
167452,55294178,"Keswick Multicare Center Elizabeth Bowerman, Ceo",700 West 40th Street,,Baltimore,MD,21211-2199,United States
166961,55294176,"Action In Maturity Kimberly Allender, Transport & Event Coor.",700 West 40th Street,,Baltimore,MD,21211,United States
167482,55294180,"Toys For Tots Thomas Montanaro, Coordinator",7000 Hamlet Avenue,,Baltimore,MD,21234,United States
374389,55294182,,7000 Harford Road,,Baltimore,MD,21234,United States
167287,55290176,"Family & Children's Services, Domestic Violen Patricia Thompson Lcsw-C,  District Director",7000 Security Boulevard,Suite 302,Baltimore,MD,21244,United States
40202590,55294188,,7001 Harford Road,,Baltimore,MD,21234,United States
40202590,55294186,,7001 Harford Road,,Baltimore,MD,21234,United States
168071,55294192,"Vna Home Health Of Maryland Nancy Jaffe, Administrator",7008 Security Boulevard,Suite 300,Baltimore,MD,21244,United States
168861,55294194,"Christ Lutheran Place Carla Richardson, Director",701 South Charles Street,,Baltimore,MD,21230,United States
167494,55294204,"Walter P. Carter, Fayette Street Clinic Marsha Gorth, Clinic Coordinator",701 West Pratt Street,3rd Floor,Baltimore,MD,21201,United States
167827,55294202,"Outpatient Addiction Treatment Services Mike Papa, Patient Director",701 West Pratt Street,1st Floor,Baltimore,MD,21201,United States
167827,55294200,"Pact Yolanda Jones, Clinical Program Director",701 West Pratt Street,,Baltimore,MD,21201,United States
167827,55294196,"Geriatric Psychiatry Mary Tlavek-Wolfson, Service Line Coordinator",701 West Pratt Street,,Baltimore,MD,21201,United States
167827,55294206,Umms Center For Infant Studies/Secure Starts Drs. David Pruitt & Kay Conners,701 West Pratt Street,4th Floor,Baltimore,MD,21201-1601,United States
167097,55294208,"Boy Scouts Of America Lil Kallas, Executive Assistant",701 Wyman Park Drive,,Baltimore,MD,21211-2899,United States
167442,55294210,"Kennedy Krieger Institute, Dr. Gary Goldstein, President",707 North Broadway,,Baltimore,MD,21205,United States
167039,55294214,"Baltimore City Community College Meintje Westerbeek, Director",Adult Education And English Language Services,710 East Lombard Street,Baltimore,MD,21202,United States
201621,55290180,"Choice Care, Upper Chesapeake Patty Schwanke, Supervisor",Amedisys Greater Chesapeake Home Care,"7106  Ridge Road, Suite 110",Baltimore,MD,21237,United States
167054,55290183,"Police Athletic League (Pal), Woodmoor Officers Stanton, Ballard; Coordinatr Edwards",7119 Croydon Road,,Baltimore,MD,21207,United States
168017,55294218,Macedonia Baptist Church Of Baltimore City Dorothy Joyner/ Margaret Coombs Directors,718 West Lafayette Avenue,,Baltimore,MD,21217,United States
3688393,55294220,,720 Rutland Avenue,,Baltimore,MD,21205,United States
167261,55294222,"The Community College Of Baltimore County Dr. Sandra L. Kurtinitis, President",7201 Rossville Boulevard,,Baltimore,MD,21237,United States
167036,55294224,"Arc Of Baltimore Stephen H. Morgan, Executive Director",7215 York Road,,Baltimore,MD,21212,United States
182028,55294236,,725 Fallsway,,Baltimore,MD,21202,United States
167148,55294234,"Our Daily Bread Employment Center Christine Kay, Associate Administrator",725 Fallsway,,Baltimore,MD,21202,United States
167148,55294232,"Our Daily Bread Employment Services Mary Stewart, Program Manager",725 Fallsway,,Baltimore,MD,21202,United States
167148,55294230,"Our Daily Bread Meal Services Dennis Murphy, Program Director",725 Fallsway,,Baltimore,MD,21202,United States
167148,55294226,"Christopher Place Employment Academy Carl Howell, Program Manager",725 Fallsway,,Baltimore,MD,21202,United States
167645,55294238,"Tuerk House Dr. John Hickey,  Executive Director",730 Ashburton Street,,Baltimore,MD,21216-4703,United States
167066,55294240,"Baltimore Pregnancy Center Mary Rossbach, Director",7311 Harford Road,,Baltimore,MD,21234,United States
168352,55294244,"Center For Infants & Child Loss Donna Becker, Director",737 West Lombard Street,Suite 233,Baltimore,MD,21201,United States
167738,55294246,"Loaves And Fishes, Mobile Unit Sue Cesare, Founder",740 North Calvert Street,,Baltimore,MD,21202,United States
167146,55294248,"Carter Memorial Church Of God In Christ Pantr Lillie Pearson, Coordinator",745 West Fayette Street,,Baltimore,MD,21201-1111,United States
14884621,55294250,,750 East Pratt Street,16th Floor,Baltimore,MD,21202,United States
169027,55294252,"U.S. Dept. Of Health & Human Services Kerry Weems, Acting Administrator",Center For Medicare & Medicaid Services (Cms),7500 Security Blvd,Baltimore,MD,21244-1850,United States
12832490,55290189,,7517 North Point Road,,Sparrows Point,MD,21219,United States
167934,55294254,"Twelve Step Recovery Workshop Drew Leder, Contact Person",,,Baltimore,MD,,United States
167148,55294256,"Holden Hall R. Lee-Spruell, Director",761 West Hamburg Street,,Baltimore,MD,21230,United States
168723,55294258,"Whole Woman's Health Gloria Johnson, Executive Director",7648 Belair Road,,Baltimore,MD,21236,United States
259785,55290196,,7834 Eastern Avenue,,Baltimore,MD,21224,United States
259785,55290192,,7834 Eastern Avenue,,Baltimore,MD,21224,United States
259785,55290201,,7834 Eastern Avenue,,Baltimore,MD,21224,United States
259785,55290199,,7834 Eastern Avenue,,Baltimore,MD,21224,United States
168359,55290206,"Eastside Community Development Corp Emma Feheely, Office Manager",7835 Eastern Avenue,Suite 302,Baltimore,MD,21224,United States
167212,55290209,"Community Assistance Network, Merritt Point Antonio Coffield, Sr., Executive Director",7900 East Baltimore Street,,Baltimore,MD,21224,United States
169014,55294262,"Workforce Development Center At Eastpoint Leo Martinelli, Center Manager",7930 Eastern Boulevard,,Baltimore,MD,21224,United States
167563,55294264,"Naacp, Baltimore City Chapter Marvin Cheatham, President",8 West 26th Street,,Baltimore,MD,21218,United States
168670,55294266,"A Step Forward, Inc. Lela Blue-Campbell, Ceo/Founder",800 North Fulton Avenue,2nd Floor,Baltimore,MD,21217,United States
9693853,55294274,,800 South Oldham Street,,Baltimore,MD,21224,United States
167308,55294276,Executive Director/Principal Dr. Christine Manlove,St Elizabeth School,801 Argonne Drive,Baltimore,MD,21218-1998,United States
167442,55294278,"Kennedy Krieger Learning Center Mary Rawlings, Administrative Coordinator",801 North Broadway,,Baltimore,MD,21205,United States
271284,55294280,,802 North Fulton Avenue,,Baltimore,MD,21217,United States
168280,55294282,"Living Classrooms Foundation Genevieve Gwiazda, Development Assoc.",802 South Caroline Street,,Baltimore,MD,21231,United States
167766,55294284,"St. Veronica's Food Bank Darrin Montgomery, President",806 Cherry Hill Road,St. Veronica's Catholic Church,Baltimore,MD,21225-1314,United States
168448,55294286,"Patrick Allison House, Inc. Howard Wicker, Program Manager",210 West Madison Avenue,,Baltimore,MD,21201,United States
167675,55294292,"Salvation Army Baltimore, Family Services Crystal White, Social Worker (Case Manager)",814 Light Street,,Baltimore,MD,21230,United States
168250,55294296,"Gift Of Hope Missionaries Of Charity Sister Mamoriama, Contact Person",818 North Collington Avenue,,Baltimore,MD,21205,United States
168601,55294300,"Glass Methadone Maintenance Program Howard Ashkin, Director Of Admissions",821 North Eutaw Street,Suite 201,Baltimore,MD,21201-4648,United States
167827,55294306,"Maryland General Hospital Sylvia Smith Johnson, President & Ceo",827 Linden Avenue,,Baltimore,MD,21201,United States
167494,55294302,"Walter P. Carter, Carruthers Clinic Barbara Sadauski Clinic Coordinator",827 Linden Avenue,,Baltimore,MD,21201,United States
168213,55294308,"Joseph Richey Hospice, Inc. Charlotte Hawtin, Acting Executive Director",838 North Eutaw Street,,Baltimore,MD,21201-4686,United States
167345,55294310,"Waverly Family Center Sharon Thomas, Director",829 Montpelier Street,,Baltimore,MD,21218,United States
42114823,55294312,,833 North Bond Street,,Baltimore,MD,21205,United States
168400,55294318,"Eubie Blake National Jazz Institute And Troy Burton, Executive Director",847 North Howard Street,,Baltimore,MD,21201,United States
168012,55290211,"Chadd Of Greater Baltimore Dr. Sharyn Rhodes, Chapter Coordinator",856 Seneca Park Road,,Baltimore,MD,21220-2312,United States
167766,55290214,"St. Ursula's Pantry Richard Keys, Coordinator",8801 Harford Road,,Baltimore,MD,21234,United States
167766,55290219,"St. Ursula's Pantry Richard Keys, Coordinator",8801 Harford Road,,Baltimore,MD,21234,United States
167054,55290221,"Police Athletic League (Pal), Shady Spring Officers Brian Cates And Patricia Smith",8876 Goldenwood Road,,Baltimore,MD,21237,United States
168728,55294322,,9 East Franklin Street,,Baltimore,MD,21202,United States
167728,55294324,"St. Agnes Hospital Bonnie Phipps, President/Ceo",900 Caton Avenue,,Baltimore,MD,21229,United States
167900,55294330,,900 East 33rd Street,,Baltimore,MD,21218,United States
167900,55294328,,900 East 33rd Street,,Baltimore,MD,21218,United States
168162,55294334,,900 Somerset Street,,Baltimore,MD,21202,United States
167064,55294336,"Baltimore Medical System, St. Agnes Sharon Douglas, Office Manager",900 South Caton Avenue,Mailbox # 081,Baltimore,MD,21229,United States
168126,55294340,"Franklin Square Hospital Center Carl Schindelar, President",9000 Franklin Square Drive,,Baltimore,MD,21237,United States
168356,55294344,Wald Community Nursing Center,901 North Broadway Street,,Baltimore,MD,21205,United States
168571,55294352,,901 North Milton Avenue,,Baltimore,MD,21205,United States
168484,55294348,"Moveable Feast Tom Bonderenko, Executive Director",PO Box 2298,,Baltimore,MD,21203,United States
168210,55294356,"Sisters Together And Reaching (Star), Inc Rev. Debra Hickman, President/Ceo",901 North Milton Street,Suite 260,Baltimore,MD,21205,United States
167732,55294358,"St. Edward's Catholic Church Lillian Humphries, Contact Person",901 Poplar Grove Street,,Baltimore,MD,21216-4350,United States
167244,55294362,"William Donald Schaefer House Martin Callum,  Program Manager Iii",Department Of Juvenile Justice,907 Druid Park Lake Drive,Baltimore,MD,21217,United States
168126,55294364,"Franklin Square Hospital, Bay Life Services Steve Pasko, Program Director",9105 Franklin Square Drive,,Baltimore,MD,21237,United States
166983,55294368,"Alliance Inc, Baltimore County Sharon Strimple, Acting Director",9201 Philadelphia Road,,Rosedale,MD,21237,United States
167148,55290228,"Francis X. Gallagher Services Mark Schulz, Administrator",9317 Belair Road,,Baltimore,MD,21036,United States
167481,55294374,"Marian House Katie Allston, Executive Director",949 Gorsuch Avenue,,Baltimore,MD,21218-3602,United States
167244,55294376,"Dept. Of Juvenile Services Foster Grandparent Deloris Brooks, Program Manager","Charles H. Hickey Jr. School, Building 22","9700 Old Harford Road, Room 103",Baltimore,MD,21234,United States
168155,55294378,"Choice Program Tara Williams-Wynne, Service Coordinator",Shriver Center UMBC,1000 Hilltop Circle,Baltimore,MD,21250,United States
168675,55290230,"Christus Victor Lutheran Church Charles Leight, Coordinator",9833 Harford Road,,Baltimore,MD,21234,United States
0,168670,"A Step Forward, Inc.Lela Blue-Campbell/Sonnie Price, Prg Director",800 North Fulton Avenue,2nd Floor,Baltimore,MD,21217,United States
0,56406470,,3939 Reisterstown Road,Suite 150,Baltimore,MD,21215,United States
0,167860,"Abbott Memorial Presbyterian Church, We CareSylvia Bragg, Director                       ",3426 Bank Street,,Baltimore,MD,21224,United States
0,166961,"Action In MaturityPatricia Chalfant, Director                  ",700 West 40th Street,,Baltimore,MD,21211,United States
167045,55294388,,Administrative Office,1910 North Broadway,Baltimore,MD,21213,United States
167045,55294384,"Baltimore City Dss, Eafc",Administrative Office,1910 North Broadway,Baltimore,MD,21213,United States
167045,55294386,"Baltimore City Dss, Temporary Cash Assistance",Administrative Office,1910 North Broadway,Baltimore,MD,21202,United States
167045,55294382,"Baltimore City Dss, Temporary Disability Assi",Administrative Office,1910 North Broadway,Baltimore,MD,21213,United States
167045,55294380,"Baltimore City Dss, Food & Nutrition Services",Administrative Office,1910 North Broadway,Baltimore,MD,21213,United States
167400,55294392,"House Of Ruth, Domestic Violence Hotline Carol Bernstein, Hotline Manager",Administrative Office,2201 Argonne Drive,Baltimore,MD,21218-1627,United States
167400,55294390,"House Of Ruth, Shelter Program Janice Miller, Residential Clinical Director",Administrative Office,2201 Argonne Drive,Baltimore,MD,21218-1627,United States
0,166968,"Advocates For Children And YouthMatthew Joseph,  Executive  Director         ",1 North Charles Street,Suite 2400,Baltimore,MD,21201,United States
0,166955,"Community Services Of Central Maryland, Inc.Jay B. Smith,  Assistant Director            ",2701 West Patapsco Avenue,Suite 110,Baltimore,MD,21230-2797,United States
0,168191,"Agape House, Inc.Rev. Edward G. Robinson, Pastor/CEO          ",222 North Carrollton Avenue,,Baltimore,MD,21223,United States
0,167970,"Aids Action Baltimore, Inc.Jeffrey Grabelle, Office Manager             ",10 East Eager Street,,Baltimore,MD,21202,United States
0,166957,"Aids Interfaith Residential Services (Airs)Leslie Leitch, Executive Director            ",1800 North Charles Street,Suite 700,Baltimore,MD,21201,United States
0,56364044,,107 East 25th Street,,Baltimore ,MD,21218,United States
616544,50664348,,643 Tunbridge Road,,Baltimore,MD,21212,United States
616544,50664361,,5503 Alhambra Avenue,,Baltimore,MD,21212,United States
0,166982,"Allen Center For Senior CitizensCoretha Arrington, Director                  ",1404 South Charles Street,,Baltimore,MD,21230,United States
0,166983,"Alliance, IncPhilip W. Taff, CEO                          ",7701 Wise Avenue,Suite 206,Baltimore,MD,21222-3228,United States
0,56662538,,"5450 Reisterstown Road, Suite 304",,Baltimore,MD,21215,United States
0,166985,"Alternative Directions, Inc.Michelle Kelly, Executive Director           ",2505 North Charles Street,,Baltimore,MD,21218,United States
0,168585,"America Work Of MarylandStephen Muirhead, Vice President             ",22 Light Street,,Baltimore,MD,21202,United States
0,166989,"American Cancer SocietyGail Roddie-Hamlin, CEO                      ",8219 Towncenter Drive,,Baltimore,MD,21236-0025,United States
0,166990,"American Civil Liberties Union Of MarylandSusan Goering, Executive Director            ",3600 Clipper Mill Road,Suite 350,Baltimore,MD,21211,United States
0,166992,"American Heart Association, Maryland OfficeSue Manning, VP of Corporate Relations       ","217 East Redwood Street, 11th Floor",,Baltimore,MD,21202,United States
0,168078,"American Lung Association Of MarylandStephen Peregoy, President & CEO             ",211 East Lombard Street,Suite 260,Baltimore,MD,21202,United States
0,166995,"American Red Cross, Central Md-HeadquartersFrank Miller, Executive Director             ",4800 Mount Hope Drive,,Baltimore,MD,21215-3231,United States
0,167003,"American Rescue Workers Of Maryland, Inc.Captain Tony Bell, Director                  ",2441 West Baltimore Street,,Baltimore,MD,21223,United States
57248990,57249059,,,,Baltimore ,MD,21201,United States
0,358099,,3200 Eastern Avenue,,Baltimore,MD,21224,United States
0,3373846,,320 Cathedral Street,,Baltimore,MD,21201,United States
0,167470,"Ark ChurchGloria Rice, Coordinator                     ",1263 East North Avenue,,Baltimore,MD,21202,United States
167148,55294394,,Arlington Elementary,3705 West Rogers Avenue,Baltimore,MD,21215,United States
0,1786020,,3355 Keswick Road,Stable Building Suite 104,Baltimore,MD,21211,United States
0,167032,"Associated Black CharitiesDiane Bell-McKoy, CEO                        ",1114 Cathedral Street,,Baltimore,MD,21201-5515,United States
0,167034,"Associated: Jewish Comm.Fed. Of Balto., TheMarc Terrill, President Elect                ",101 West Mount Royal Avenue,,Baltimore,MD,21201,United States
0,168079,"Asthma And Allergy Foundation Of America (AafSusan Sweitzer, Executive Director           ",1498 Reisterstown Road,Suite 324,Baltimore,MD,21208,United States
0,31463212,,4500 Frankford Avenue,,Baltimore ,MD,21206,United States
0,56363924,,P.O. Box 26173 ,,Baltimore,MD,21210,United States
0,167920,"At Jacob's Well, Inc.Albert K. Roach, Executive Director          ",323 East 25th Street,,Baltimore,MD,21218-5303,United States
0,168707,"Augsburg Lutheran Home & VillageGlenn Scherer, Executive Director            ",6811 Campfield Road,,Baltimore,MD,21207-4698,United States
0,358097,,113 South Broadway,,Baltimore,MD,21231,United States
0,168029,"Baltimore Area Convention And Visitors Assoc.Frank Riggio, Manager                        ",100 Light Street,12th Floor,Baltimore,MD,21202,United States
0,168257,"Centerstage AssociatesMichael Ross, Managing Director              ",700 North Calvert Street,,Baltimore,MD,21202,United States
0,168580,"Baltimore Child Abuse CenterPeggy Mainor, Executive Director             ",2300 North Charles Street,4th Floor,Baltimore,MD,21218,United States
358869,51228960,,4200 Edmondson Avenue,Suite 200-A,Baltimore,MD,21229,United States
57248990,57248999,,,,Baltimore ,MD,21201,United States
48463262,48482354,,"1800 North Charles Street, Suite 804",,Baltimore,MD,21201,United States
0,168875,"Baltimore City Bar AssociationKatherine T. Sanzone, Executive Director     ",111 North Calvert Street,Suite 627,Baltimore,MD,21202,United States
0,169144,"Baltimore City Circuit CourtBeverly Carter, Esq., Court Administrator    ",111 North Calvert Street,,Baltimore,MD,21202,United States
0,167210,"Balto.City Commiss.On Aging & Retirement EducJohn P. Stewart, Executive Director          ",10 North Calvert Street,Suite 300,Baltimore,MD,21202,United States
0,167039,"Baltimore City Community CollegeDr. Carolane Williams, President             ",2901 Liberty Heights Avenue,,Baltimore,MD,21215,United States
0,167953,"Baltimore City Dept. Of Communication ServiceB. Harriette Taylor, Interim Director        ",201 East Baltimore Street,11th Floor,Baltimore,MD,21202,United States
0,167043,"Baltimore City Dept. Of Legislative ReferenceAvery Aisen Stark, Director                  ",100 North Holliday Street,Room 626,Baltimore,MD,21202,United States
0,37337784,,200 Holliday Street,Room 8,Baltimore,MD,21202,United States
0,167044,"Baltimore City Dept. Of Recreation And ParksWanda Durden, Director                       ",3001 East Drive,,Baltimore,MD,21217,United States
167922,55294396,,"Baltimore City Department of Transportation, Human Resources"," 417 East Fayette Street, Room 545",Baltimore,MD,21202,United States
0,168048,"Baltimore City Head Start ProgramNii Sowah, Director                          ",100 South Charles Street,5th Floor,Baltimore,MD,21201,United States
0,168443,"Baltimore City Health DepartmentJoshua Sharfstein, Commissioner              ",1001 East Fayette Street,,Baltimore,MD,21202,United States
0,167922,"Mayor's Office Of Information & TechnologySheila Dixon, Mayor                          ",100 North Holliday Street,,Baltimore,MD,21202,United States
0,54843697,,7 East Redwood Street,,Baltimore,MD,21202,United States
0,167047,"Baltimore City Medical SocietyLisa Williams, Executive Director            ",1211 Cathedral Street,,Baltimore,MD,21201,United States
0,167040,"Baltimore Community Relations CommissionAlvin Gillard, Director                      ",7 East Redwood Street,9th Floor,Baltimore,MD,21202,United States
0,167048,"Baltimore City Police DepartmentFrederick Bealefeld, III , Commissioner      ",242 West 29th Street,,Baltimore,MD,21202,United States
0,167049,"Baltimore City Public School SystemDr. Andrés Alonso,CEO                        ",200 East North Avenue,,Baltimore,MD,21202,United States
0,169142,Baltimore City Sheriff's OfficeSheriff John W. Anderson                     ,100 North Calvert Street,Room 104,Baltimore,MD,21202,United States
0,167050,"Baltimore City State's Attorney's OfficePatricia C. Jessamy, State's Attorney        ",120 East Baltimore Street,9th Floor,Baltimore,MD,21202,United States
0,166962,"Baltimore Community Resource CenterRuth Daiker, Executive Director              ",21 West 25th Street,,Baltimore,MD,21218,United States
0,9061262,,1224 Wicomico Street,,Baltimore,MD,21230,United States
0,167055,"Baltimore County Dept. Of Social ServicesTimothy Griffith, Director                   ",6401 York Road,,Baltimore,MD,21212,United States
0,167056,"Baltimore County Health DepartmentGregory Wm. Branch, M.D, Acting Health Office",6401 York Road,3rd Floor,Baltimore,MD,21212-2130,United States
0,167057,"Baltimore County Human Relations CommissionCelestine Morgan, Executive Director         ",6401 York Road,Drumcastle Government Center,Towson,MD,21212,United States
0,167052,"Baltimore County InformationGary Schauber, Supervisor                    ",4423 Bucks Schoolhouse Road,,Baltimore,MD,21237,United States
0,169063,"Baltimore County Local Management BoardRoe Davis, Executive Director                ",6401 York Road,,Baltimore,MD,21212,United States
0,167062,"Baltimore Crisis Response, Inc.Edgar K. Wiggins, MHS Executive Director     ",5124 Greenwich Avenue,,Baltimore,MD,21229,United States
0,167063,"Baltimore Gas And Electric Company (Bge)Kenneth DeFontes, Jr., President/CEO         ",PO Box 1475,,Baltimore,MD,21203,United States
0,167042,"Baltimore HousingPaul T. Graziano, Commissioner               ",417 East Fayette Street,Suite 1346,Baltimore,MD,21202,United States
0,168387,"Baltimore Mediation Facilitation & TrainingLouise Phipps Senft, President               ",4502 Schenley Road,,Baltimore,MD,21210,United States
0,167064,"Baltimore Medical SystemJay Wolvovsky, President/CEO                 ",Adminstrative Office,3501 Sinclair Lane,Baltimore,MD,21213,United States
0,168444,"Baltimore Neighborhoods, Inc. (Bni)Richard Doran, Director                      ",2530 North Charles Street,Suite 200,Baltimore,MD,21218,United States
0,168861,"Christ Lutheran PlaceCarla Richardson, Director                   ",701 South Charles Street,,Baltimore,MD,21230,United States
0,167066,"Baltimore Pregnancy CenterMary Rossbach, Director                      ",7311 Harford Road,,Baltimore,MD,21234,United States
0,38339526,,20 South Charles Street,Suite 800,Baltimore,MD,21201,United States
0,167069,"The Baltimore Rescue MissionCharles Beautner, Executive Director         ",PO Box 735,,Baltimore,MD,21203,United States
0,167718,"Baltimore Station, TheMichael Seipp,  Executive Director           ",PO Box 27144,,Baltimore,MD,21230,United States
0,27851383,,6609 Reisterstown Road,Suite 206D,Baltimore,MD,21215,United States
0,203599,,2601 North Howard Street,Suite 150,Baltimore,MD,21218,United States
51054427,55195462,,1645 Ridgely Street,Suite 100,Baltimore,MD,21230,United States
56683352,56683382,,,,,MD,,United States
0,168235,"BuildRob English, Lead Organizer                  ",2439 Maryland Avenue,1st Floor,Baltimore,MD,21218,United States
0,167072,"Banner Neighborhoods Community CorporationJolyn Rademacher, Executive Director         ",2911 Pulaski Highway,,Baltimore,MD,21224,United States
0,167038,"Bar Association Of Baltimore CityKatherine Sanzone, Executive Director        ",111 North Calvert Street,Suite 627,Baltimore,MD,21202,United States
0,167075,"Bea Gaddy Family CenterConnie Bass, Director                        ",PO Box 38501,,Baltimore,MD,21231-1635,United States
0,616571,,541 South Beechfield Avenue,,Baltimore,MD,21229,United States
0,168324,"Belair-Edison NeighborhoodsJohnette Richardson, Director                ",9412 Belair Road,,Baltimore,MD,21213,United States
0,167349,"Believe In Tomorrow Children's FoundationBrian Morrison, Founder/CEO                  ",6601 Frederick Road,,Baltimore,MD,21228-0711,United States
167813,55294400,,Ben Franklin High School,1201 Cambria Street,Baltimore,MD,21225,United States
0,167079,"Bethel Outreach CenterDavid Hanna, Executive Director              ",Bethel Outreach Center,1300 Druid Hill Avenue,Baltimore,MD,21217,United States
0,401426,,3910 West Rogers Avenue,,Baltimore ,MD,21215,United States
0,167081,"Better Business Bureau Of Greater MdAngie Barnett, President                     ",502 South Sharp Street,Suite 1200,Baltimore,MD,21230,United States
0,167084,"Big Brothers Big Sisters, Central MarylandRobin Tomechko, President and CEO            ",3600 Clipper Mill Road,Suite 250,Baltimore,MD,21211,United States
0,167091,"Black Mental Health Alliance Education/ConsulTracee Bryant, Executive Director            ",16 West 25th Street,Suite 103,Baltimore,MD,21218,United States
0,167092,"Blind Industries And Services Of MdFrederick J. Puente, President               ",3345 Washington Boulevard,,Baltimore,MD,21227,United States
0,44865489,,7000 Golden Ring Road #9564,,Rosedale,MD,21237,United States
0,167071,Board Of Child CareThomas L. Curcio President/CEO               ,3300 Gaither Road,,Baltimore,MD,21244,United States
0,167094,"Bon Secours Baltimore Health SystemPercy Allen, CEO                             ",2000 West Baltimore Street,,Baltimore,MD,21223,United States
0,169047,"Book Thing Of Baltimore, Inc., TheRussell Wattenburg, Executive Director       ",3001 Vineyard Lane,,Baltimore,MD,21218,United States
0,168600,"Booker T. Washington Middle School ThanksgiviLynette Harris, Principal                    ",Dinner,1301 Mcculloh Street,Baltimore,MD,21217,United States
169149,55294402,,Booker T. Washington Middle School for the Arts,1301 McCulloh Street,Baltimore,MD,21217,United States
0,358869,,4200 Edmondson Avenue,Suite 200-A,Baltimore,MD,21229,United States
0,167097,"Boy Scouts Of America, Baltimore Area CouncilEthan Draddy, CEO & Scout Executive          ",701 Wyman Park Drive,,Baltimore,MD,21211-2899,United States
0,168516,"Brain Injury Association Of MarylandDiane Triplett, Executive Director           ",2200 Kernan Avenue,,Baltimore,MD,21093,United States
0,1739551,,110 Townsend Avenue,,Baltimore,MD,21225,United States
0,56587933,,2109 Druid Park Drive ,Suite A207,,MD,21215,United States
0,56406474,,2901 Druid Park Drive,Suite A207,Baltimore,MD,21215,United States
0,168259,"Business Volunteer Unlimited MarylandKelly Hodge-Williams, Director               ",175 West Ostend Street,Suite 100,Baltimore,MD,21230,United States
0,271139,,3911 Garrison Boulevard,,Baltimore,MD,21215,United States
0,167123,"Canton Baptist ChurchRev. Steve Wolverton,  Pastor                ",3302 Toone Street,,Baltimore,MD,21224,United States
0,10562264,,3319 Summit Avenue,,Baltimore,MD,21234,United States
0,168162,"Caroline Center, BaltimoreSister Patricia McLaughlin, Director         ",900 Somerset Street,,Baltimore,MD,21202,United States
0,167146,"Carter Memorial Church Of God In ChristLillie Pearson, Coordinator                  ",745 West Fayette Street,,Baltimore,MD,21201-1111,United States
0,167148,"Catholic Charities Of The Archdiocese Of BaltHarold A. Smith, Executive Director          ",320 Cathedral Street,,Baltimore,MD,21201,United States
0,169023,"Center For Community IntegrationLeon Indursky, CEO                           ","1829 Reisterstown Road, Suite 350",,Baltimore,MD,21208,United States
0,168649,"Center For Urban FamiliesJoseph Jones, CEO                            ",2201 North Monroe Street,,Baltimore,MD,21217,United States
167276,55294404,,Central Library,400 Cathedral Street,Baltimore,MD,21201,United States
0,167164,"Central Maryland Ecumenical CouncilTim Hanavan, Executive Director              ",5400 Loch Raven Boulevard,,Baltimore,MD,21239,United States
0,167950,"Centro De La Comunidad, Inc.Nelson A. Ortega, Executive Director         ",149 North Luzerne Avenue,,Baltimore,MD,21224,United States
1608504,52142742,,2401 Liberty Heights Avenue,Suite 4670,Baltimore,MD,21215,United States
0,3009943,,901 N Milton Ave,Suite 260,Baltimore,MD,21205,United States
0,167383,"Chase Brexton Health Services, Inc.David Shippe, Executive Director             ",1111 North Charles Street,,Baltimore,MD,21201,United States
0,168943,"Cherry Hill HomesShirley Foulks/Phil Gray, President/Counselor",2700 Spellman Road,,Baltimore,MD,21225,United States
0,167179,"Chesapeake Center For Youth DevelopmentIvan Leshinsky, Executive Director           ",PO Box 19618,,Baltimore,MD,21225,United States
0,167969,"Chesapeake Down's Syndrome Parent GroupGiulia Pearman, President                    ",PO Box 20127,,Baltimore,MD,21284-0127,United States
0,168431,"Child First AuthorityCarol Reckling, Executive Director           ",3904 Hickory Avenue,Suite 200,Baltimore,MD,21211,United States
0,167181,"Children's Guild, Inc.Dr. Andrew Ross, President                   ",6802 Mcclean Boulevard,,Baltimore,MD,21234,United States
0,167183,"Chimes, Inc.Edward M. Hartman, Ph.D, Chief Operating Offi",4814 Seton Drive,,Baltimore,MD,21215,United States
0,167185,"Christ Christ Harbor Apartments, Inc.Cindy Berardino, Manager                     ",600 Light Street,,Baltimore,MD,21230,United States
0,167187,"Christ UmcBernice Merritt/Mary Richardson, Directors   ",2005 East Chase Street,,Baltimore,MD,21213-3325,United States
0,259792,,2001 West North Avenue,,Baltimore,MD,21217,United States
0,168675,"Christus Victor Lutheran ChurchRev. Joseph Skillman, Pastor                 ",9833 Harford Road,,Baltimore,MD,21234,United States
0,167193,"Church Of The Guardian AngelRev. Alice Jellema, Rector                   ",2629 Huntingdon Avenue,,Baltimore,MD,21211,United States
0,167194,"Church Of The Redeemed Of The LordYvette Clark, Coordinator                    ",4321 Old York Road,,Baltimore,MD,21212-4727,United States
168989,55294406,"Survivors Of Suicide Judy Tunkle, Facilitator",Church Of The Redeemer,5603 North Charles Street,Baltimore,MD,21210,United States
0,168575,Churches United Against AidsReverend Brenda McBride                      ,1001 Saint Paul Street,,Baltimore,MD,21202,United States
0,167197,"Citizens Planning And Housing AssociationDan Pontious, Acting Executive Director      ",3355 Keswick Road,Suite 200,Baltimore,MD,21211,United States
0,167198,"The City Temple Outreach Of BaltimoreGary Hamiel, Director                        ",317 Dolphin Street,,Baltimore,MD,21217,United States
0,168571,"Civic WorksDana Stein, Executive Director               ",2701 St Lo Drive,,Baltimore,MD,21213,United States
0,169095,"Civil Justice, Inc.Phillip Robinson, Esq., Executive Director   ",520 West Fayette Street,Suite 410,Baltimore,MD,21201,United States
0,31463215,,1635 West Pratt Street,,Baltimore,MD,21223,United States
0,168335,"Coalition To End Childhood Lead PoisoningRuth Ann North, Executive Director           ",2714 Hudson Street,,Baltimore,MD,21224,United States
0,1830710,,300 Water Street,Suite 300,Baltimore,MD,21202,United States
0,167212,"Community Assistance NetworkRichard Doran, Executive Director            ",7900 East Baltimore Street,,Baltimore,MD,21224,United States
0,167261,"Community College Of Baltimore County, TheDr. Sandra L. Kurtinitis, President          ",7201 Rossville Boulevard,,Baltimore,MD,21237,United States
0,168656,"Community Conferencing CenterLauren Abramson, Ph.D., Director             ",1500 Union Avenue,Suite 2700,Baltimore,MD,21211,United States
0,167217,"Community Law CenterKristine Dunkerton, Director                 ",3355 Keswick Road,Suite 200,Baltimore,MD,21211,United States
0,167921,"Community Mediation ProgramCaroline Harmon, Executive Director          ",3333 Greenmount Avenue,,Baltimore,MD,21218,United States
0,168360,"Comprehensive Housing Assistance, Inc. (Chai)Ken Gelula, Director                         ",5809 Park Heights Avenue,,Baltimore,MD,21215,United States
0,55823100,,112 East Patapsco Avenue,,Baltimore,MD,21225,United States
0,167223,"Concord Baptist ChurchHazel Guin, Director                         ",5204 Liberty Heights Avenue,,Baltimore,MD,21207,United States
167038,55294408,"Lawyer Referral & Information Service Alicia Gipe, Director Of Public Services",Bar Association Of Baltimore City,111 North Calvert Street,Baltimore,MD,21202,United States
0,169112,"Coppin Heights Community Development CorporatMichelle McEachern, Executive Director       ",2779 West North Avenue,,Baltimore,MD,21216,United States
0,168186,"Coppin State UniversityDr. Reginald S. Avery, President             ",2500 West North Avenue,,Baltimore,MD,21216-3698,United States
0,167227,"Corpus Christi Community CenterRoberta Brown, Director                      ",110 West Lafayette Avenue,,Baltimore,MD,21217,United States
0,167693,"Score (Counselors To America's Small BusinessStephen Rosenstein, Chairman                 ",SCORE Office,9250 Bendix Road,Columbia,MD,21045,United States
0,204007,,3134 Eastern Avenue,,Baltimore,MD,21224,United States
0,168366,"Crossroads CentersBarbara McKenna, CEO                         ",2100 North Charles Street,,Baltimore,MD,21218,United States
0,219213,,3600 O'Donnell Street,Suite 2,Baltimore,MD,21224,United States
0,167243,"Damascus HouseCarroll Matanoski, Director                  ",4203 Ricthie Highway,,Baltimore,MD,21225,United States
0,616574,,PO Box 13222,,Baltimore,MD,21203,United States
0,168862,"Dayspring Programs  IncPamela Talabis, Executive Director           ",1125 North Patterson Park Avenue,,Baltimore,MD,21213,United States
0,29057295,,5411 Old Frederick Road,Suite 17,Baltimore,MD,21229,United States
0,168749,"Dependable Nursing Services, LlcEzinna Esochaghi, President                  ",6310 Fair Oaks Avenue,,Baltimore,MD,21214,United States
0,168361,"Development Corp. Of Northwest BaltimoreFlorine V. Robinson, Executive Director      ",3521 West Belvedere Avenue,,Baltimore,MD,21215,United States
0,169021,"Developmental Disabilities Administration  DdDiane K. Coughlin, Director                  ",201 West Preston Street,4th Floor,Baltimore,MD,21201,United States
0,167497,"Maryland Disability Law CenterVirginia Knowlton, Executive Director        ",1800 North Charles Street,Suite 400,Baltimore,MD,21201,United States
0,167247,"Disabled American VeteransFilippi Micocci, Supervisor                  ",31 Hopkins Plaza,Suite 1229,Baltimore,MD,21201-2825,United States
0,168299,"District Court Of MarylandKathy Hefner , Administrative Clerk          ",501 East Fayette Street,,Baltimore,MD,21202,United States
0,42254217,,5217 Reisterstown Road ,,Baltimore,MD,21215,United States
0,168412,"Donald Bentley Food PantryJosh Julius, Director                        ",2405 Loch Raven Road,,Baltimore,MD,21218,United States
0,167249,"The Door, Inc.Mary McClinton, Executive Director           ",219 North Chester Street,,Baltimore,MD,21231,United States
0,168671,"Downtown Partnership Of Baltimore, Inc.Tom Yeager, Executive Vice-President         ",20 South Charles Street,6th Floor,Baltimore,MD,21202,United States
0,27851469,,4710 Pennington Avenue,1st Floor,Baltimore ,MD,21226,United States
0,168598,"Dru Healthy Families MarylandDr. Barbara Hughes, Executive Director       ",2100 Eutaw Place,,Baltimore,MD,21217,United States
0,169080,"Druid Heights Community Development CorporatiKelly Little, Executive Director             ",2140 Mcculloh Street,,Baltimore,MD,21217,United States
0,167260,Dundalk Church Of The Brethren PantryMedie McLaughlin                             ,2660 Yorkway,,Baltimore,MD,21222-4432,United States
0,167262,"Dundalk Youth Service CenterJaqueline Stilling, Director                 ",2 North Dundalk Avenue,2nd Floor,Baltimore,MD,21222,United States
0,167487,"Dyslexia Tutoring ProgramMarcy  K. Kolodney, Chief Executive Officer  ",The Rotunda,"711 West 40th Street, Suite 310",Baltimore,MD,21211,United States
0,9693853,,800 South Oldham Street,,Baltimore,MD,21224,United States
0,167265,"East Baltimore Community CorporationBruce Jennings, Deputy Director              ",301 North Gay Street,,Baltimore,MD,21202,United States
167212,55290233,"Eastside Shelter Rob Quigg, Director",9150 Franklin Square Drive,Suite 108,Baltimore,MD,21237,United States
0,167269,"Eastern Interfaith OutreachMerle Bolger, Director                       ",PO Box 7878,,Baltimore,MD,21221,United States
0,168359,"Eastside Community Development CorporationEmma Feehely, Office Manager                 ",7835 Eastern Avenue,Suite 302,Baltimore,MD,21224,United States
0,168752,"Ebenezer Ame ChurchVernetta Butler, Coordinator                 ",20 West Montgomery Street,,Baltimore,MD,21230,United States
0,167271,"Echo House Multi-Service CenterJanice Lockwood, Executive Director          ",1705 West Fayette Street,,Baltimore,MD,21223-1708,United States
0,167272,"Edgemere Church Of God Food PantryRon Murray, Director                         ",7414 Ellen Avenue,,Baltimore,MD,21219-2120,United States
0,168493,"Education Based Latino Outreach, Inc. (Eblo)Maritza Gonzales, Program Manager            ",606 South Ann Street,,Baltimore,MD,21231,United States
0,167276,"Enoch Pratt Free LibraryCarla D. Hayden,  Executive Director         ",400 Cathedral Street,,Baltimore,MD,21201-4484,United States
0,167277,"Enon Baptist ChurchDeacon William Hardy, Coordinator            ",601 North Schroeder Street,,Baltimore,MD,21217,United States
0,169035,Episcopal Housing Corporation,3900 Roland Avenue,,Baltimore,MD,21211,United States
0,9789514,,3317 St. Luke's Lane,,Baltimore,MD,21207,United States
0,168046,"Equal Employment Opportunity Commission-EeocGerald Kiel, Director                        ",10 South Howard Street,3rd Floor,Baltimore,MD,21201,United States
0,168400,"Eubie Blake National Jazz Institute AndTroy Burton, Executive Director              ",847 North Howard Street,,Baltimore,MD,21201,United States
0,41274411,,3340 Old Fredrick Road,,Baltimore,MD,21229,United States
0,42114823,,833 N. Bond St.,,Baltimore,MD,21205,United States
0,54943247,,5315 Harford Road,,Baltimore,MD,21214,United States
0,35553872,,2422 West Patapsco Avenue,,Baltimore,MD,21230,United States
0,167287,"Family & Children's Services Of CentralStanley A. Levi, Executive Director          ","Maryland, Inc.",4623 Falls Road,Baltimore,MD,21209,United States
0,167289,"Family Crisis Center Of Balto. County, Inc.Douglas Murphy, Director                     ",PO Box 3909,,Baltimore,MD,21222,United States
0,167717,"Family Health Centers Of BaltimorePaula B. McLellan, CEO                       ",631 Cherry Hill Road,,Baltimore,MD,21225,United States
167055,55290236,"Baltimore County Dss, Tdap Tom Saylor, Tdap Policy Specialist",Family Investment Division,"6401 York Road, 1st Floor ",Baltimore,MD,21212,United States
0,168641,"Family League Of Baltimore City, Inc.Janis Parks, Executive Director              ",2305 North Charles Street,Suite 200,Baltimore,MD,21218,United States
0,17174779,,239 North Gay Street,,Baltimore,MD,21202,United States
0,167599,"The Family TreePatricia Cronin, Executive Director          ",2108 North Charles Street,,Baltimore,MD,21218,United States
0,168521,"Federal Public Defender's OfficeJames Wyda, Federal Public Defender          ",100 South Charles Street,9th Floor,Baltimore,MD,21201,United States
0,167297,"First Apostolic Faith Church PantryMelvina Wilson, Coordinator                  ",27 South Caroline Street,,Baltimore,MD,21231,United States
0,401849,,PO Box 8964,,Baltimore,MD,21222,United States
0,167298,"First Baptist Church Soup KitchenReather Green, Coordinator                   ",525 North Caroline Street,,Baltimore,MD,21205,United States
0,168223,"First Emmanuel Baptist ChurchReverend Eugene Belcher, Pastor              ",2209 Park Avenue,,Baltimore,MD,21217-4847,United States
0,166954,"First Mount Calvary Baptist ChurchRose Long, Coordinator                       ",1142 North Fulton Avenue,,Baltimore,MD,21217,United States
0,203809,,810 Weatherbee Road,,Baltimore,MD,21286,United States
0,167304,"Forty West Assistance & Referral CenterCharlotte Mason, Director                    ",4711 Edmondson Avenue,,Baltimore,MD,21229,United States
0,167307,"Foxwell Memorial ApartmentsMarti Chase, Community Director              ",3700 Greenspring Avenue,,Baltimore,MD,21211,United States
0,167308,"Sisters Of St. Francis Of AssisiSister Jodene Wydeven, Coordinator           ",Claire Court,3725 Ellerslie Avenue,Baltimore,MD,21218,United States
0,367693,,1564 Sheffield Road,,Baltimore,MD,21218,United States
0,10117122,,2526 St. Paul Street,,Baltimore,MD,21218,United States
0,167323,"Friends Research Institute, Inc.Patrick Bogan, President                     ",505 Baltimore Avenue,,Baltimore,MD,21204,United States
0,167327,"Fuel Fund Of Central Maryland, Admin. OfficeMary Ellen Vanni, Executive Director         ",1800 Washington Boulevard,Suite 410-A,Baltimore,MD,21230,United States
0,168728,"Fusion Partnerships, Inc.Polly Riddims, Managing Partner              ",1601 Guilford,2 South,Baltimore,MD,21202,United States
0,169036,Garwyn Oaks Housing Resource Center,2300 Garrison Boulevard,Suite 211,Baltimore,MD,21216,United States
0,35281678,,5500 Harford Rd.,,Baltimore,MD,21214,United States
0,168674,"Gaudenzia, Inc. At Park HeightsMichael Hall,  Executive Director            ",4615 Park Heights Avenue,,Baltimore,MD,21215-6331,United States
168443,55294412,,4450 Park Heights Avenue ,,Baltimore,MD,21215,United States
0,167338,"Gay & Lesbian Community Center Of Balto.Craig Wylie, Executive Director              ",100 Cathedral Street,3rd Floor,Baltimore,MD,21201,United States
0,168250,"Gift Of Hope Missionaries Of CharitySister Mamoriama, Contact Person             ",818 North Collington Avenue,,Baltimore,MD,21205,United States
0,167341,"Girl Scouts Of Central MarylandTraci A. Barnett, Executive Director         ",4806 Seton Drive,,Baltimore,MD,21215,United States
0,167343,"Glenwood Life Counseling CenterLillian Donnard, Executive Director          ",516 Glenwood Avenue,,Baltimore,MD,21212,United States
0,167344,"Good Shepherd Baptist PantryMary Speight, Contact Person                 ",3459 Park Heights Avenue,,Baltimore,MD,21215,United States
0,167345,"Goodwill Industries Of The ChesapeakeMarge Thomas, President/CEO                  ",222 East Redwood Street,,Baltimore,MD,21202,United States
0,167346,"Govans Ecumenical Development Corp. (Gedco)Mitchell Posner, Executive Director          ",5513 York Road,,Baltimore,MD,21212,United States
0,14982140,,5828 York Road,,Baltimore ,MD,21212,United States
0,167347,"Grace And Hope Mission, Inc.Gunhild Carlson, President                   ",4 South Gay Street,,Baltimore,MD,21202,United States
0,167351,"Greater Baltimore Center  For PregnancyCarol Clews, Director                        ",2418 St. Paul Street,,Baltimore,MD,21218-5518,United States
0,168474,"Greater Baltimore CommitteeDonald C. Fry, President                     ",111 South Calvert Street,Suite 1700,Baltimore,MD,21202,United States
0,167352,"Greater Baltimore Medical Center (Gbmc)Laurence Merlis, President                   ",6701 North Charles Street,,Baltimore,MD,21204,United States
0,167070,"Greater Baltimore Urban League, Inc.J. Howard Henderson, President               ",512 Orchard Street,,Baltimore,MD,21201,United States
0,168428,"Greater Grace World OutreachJoyce Anderson, Coordinator                  ",6025 Moravia Park Drive,,Baltimore,MD,21206,United States
0,168192,"HadassahAileen Bormel, President                     ",3723 Old Court Road,Suite 205,Baltimore,MD,21208,United States
0,167360,"Hampden Family CenterSteve Vassor, Executive Director             ",1104-1106 West 36th Street,,Baltimore,MD,21211,United States
0,9219438,,3612 Falls Road,,Baltimore,MD,21211,United States
0,167364,"Harbel Community Organization, Inc.Naomi Benyowitz, Administrative Director     ",5807 Harford Road,,Baltimore,MD,21214-1895,United States
0,167365,"Harford Belair Community Mental Health CenterDr. Larry Alessi, Director                   ",4308 Harford Road,,Baltimore,MD,21214,United States
0,167382,"Health Care For The Homeless, Inc.Jeff Singer, President & CEO                 ",111 Park Avenue,,Baltimore,MD,21201,United States
167382,20152150,"Health Care For The Homeless, Inc., Baltimore Jeff Singer, President & Ceo",421 Fallsway,,Baltimore,MD,21202,United States
0,55059188,,2901 Druid Park Drive,Suite 105,Baltimore,MD,21215,United States
168443,55294414,,Healthcare Access Maryland,"201 East Baltimore Street, Suite 1000",Baltimore,MD,21202,United States
0,167384,"Hearing & Speech Agency Of Metropolitan BaltoSusan H. Glasgow, Executive Director         ",5900 Metro Drive,,Baltimore,MD,21215,United States
0,2967177,,611 Park Avenue,Suite A,Baltimore,MD,21201,United States
0,169071,"Helping Other People Through EmpowermentThomas Hicks, Executive Director             ",2828 Loch Raven Road,,Baltimore,MD,21218,United States
0,167390,"Helping Up MissionBob Gehman, Executive Director               ",1029 East Baltimore Street,,Baltimore,MD,21202,United States
30817598,55294416,,Southeast Community Development Corporation,"3323 Eastern Avenue, Suite 200",Baltimore,MD,21224,United States
0,168402,"Historic East Baltimore Community ActionEdward Sabatino, Executive  Director         ",Historic East Baltimore Community Action Coalition,1212 North Wolfe Street,Baltimore,MD,21213,United States
0,167391,"Holy Rosary Church PantryFather John Michalski, Coordinator           ",408 South Chester Street,,Baltimore,MD,21231,United States
0,167392,"Homeless Persons Representation ProjectAntonia Fasanelli, Executive Director        ",201 North Charles Street,Suite 1104,Baltimore,MD,21201-4403,United States
0,167394,"Homestead Umc Service CenterCassandra Carry, Director                    ",1500 Gorsuch Avenue,,Baltimore,MD,21218,United States
0,9761522,,1 North Charles Street,Suite 1102 B,Baltimore ,MD,21201,United States
0,168877,"Hostelling International - Usa PotomacKristin Smith, President                     ",17 West Mulberry Street,Suite 771,Baltimore,MD,21201,United States
0,167400,"House Of Ruth, MarylandCarole Alexander, Executive Director         ",2201 Argonne Drive,,Baltimore,MD,21218-1627,United States
0,167361,"Hwrmw Christian FellowshipBetty Callahan, Director                     ",3449 Falls Road,,Baltimore,MD,21211,United States
0,168485,"I Can't, We Can, Inc.Israel Cason, President                      ",4432 Park Heights Avenue,,Baltimore,MD,21215,United States
0,56363983,,5438 York Road Suite 202,,Baltimore,MD,21212,United States
0,167604,"Pastoral Counseling Services Of MdDeanna Ferrell, Clinical Coordinator         ",5407 North Charles Street,,Baltimore,MD,21210-2094,United States
0,56406537,,5601 Loch Raven Boulevard ,Suite 105,Baltimore,MD,21239,United States
0,616558,,2104 Maryland Avenue,,Baltimore,MD,21218,United States
0,56335644,,"1900 N. Howard Street, Suite 200 ",,Baltimore,MD,21218,United States
0,260063,,6631 Johnnycake Road,,Baltimore,MD,21244,United States
0,219399,,5010 York Road,,Baltimore,MD,21212,United States
0,203586,,2520 Maryland Avenue,,Baltimore,MD,21216,United States
0,167430,"Jewish Community Center Of Greater BaltimoreLouis M. Buddy Sapolsky, Executive Director  ",5700 Park Heights Avenue,,Baltimore,MD,21215,United States
0,168098,"Jewish Community ServicesBarbara Gradet, LCSW, Executive Director     ",5750 Park Heights Avenue,,Baltimore,MD,21215,United States
0,182028,,217 East Redwood Street,Suite 1500,Baltimore,MD,21202,United States
0,168253,"Jobs, Housing & RecoveryLinda Boyer, Executive Director              ",PO Box 24258,,Baltimore,MD,21227,United States
0,167433,"John Wesley ChurchBarbara Hayes, Coordinator                   ",3202 West North Avenue,,Baltimore,MD,21216,United States
168176,55294422,"Small Business Resource Center Paul Taylor, Director",1101 East 33rd Street,Suite C307,Baltimore,MD,21218,United States
0,167434,"Johns Hopkins Bayview Medical CenterGregory F. Schaffer, President               ",4940 Eastern Avenue,,Baltimore,MD,21224,United States
0,169010,"Johns Hopkins Children S CenterGeorge J. Dover, M.D.                        ",1800 Orleans Street,,Baltimore,MD,21287,United States
0,168523,"Johns Hopkins Community PhysiciansRebecca Kritzler, Sr. Dir., Clin. Operations ",3100 Wyman Park Drive,,Baltimore,MD,21211,United States
168722,55294424,,"Johns Hopkins Department of Neurology, Green Spring Falls Concourse","10751 Falls Road, Suite 250",Baltimore,MD,21093,United States
0,167435,"Johns Hopkins HospitalRonald Peterson, CEO                         ",600 North Wolfe Street,,Baltimore,MD,21287,United States
167435,55294426,,Johns Hopkins Hospital,,Baltimore,MD,,United States
0,168722,"Johns Hopkins University School Of MedicineRonald Peterson, CEO                         ",720 Rutland Avenue,,Baltimore,MD,21205,United States
0,168356,"Johns Hopkins University School Of NursingMartha N. Hill,  Ph.D, RN, FAAN              ",525 North Wolfe Street,,Baltimore,MD,21205,United States
0,167459,"Johns Hopkins University, Homewood CampusDr. William R. Brody, President              ",3400 North Charles Street,,Baltimore,MD,21218,United States
0,219272,,2713 Latona Road,,Baltimore,MD,21214,United States
0,167438,"Jubilee Baltimore, Inc.Charles B. Duff, Jr., President              ",1351 South Clinton Street,,Baltimore,MD,21224,United States
0,168396,"Julie Community CenterSr. Barbara Ann English, Director            ",100 South Washington Street,,Baltimore,MD,21231,United States
0,167442,"Kennedy Krieger InstituteDr. Gary Goldstein, President                ",801 North Broadway,,Baltimore,MD,21205,United States
0,168077,"Medical Eye Bank Of MarylandPatricia Murphy, Executive Director          ",5520 Research Park Drive,Suite 400,Baltimore,MD,21228,United States
0,167452,"Keswick Multicare CenterElizabeth Bowerman, CEO                      ",700 West 40th Street,,Baltimore,MD,21211-2199,United States
167813,55294428,,1800 Washington Boulevard,Suite 340,Baltimore,MD,21230,United States
0,167460,"Levindale Hebrew Geriatric Center & HospitalRonald Rothstein, President/CEO              ",2434 West Belvedere Avenue,,Baltimore,MD,21215,United States
0,167461,"Lexaco, Inc.Jeffery Bowers, President                    ",218 North Paca Street,,Baltimore,MD,21201,United States
2001145,55294430,,Liberty Recreation,3901 Maine Avenue,Baltimore,MD,21207,United States
2001145,55294440,,Liberty Recreation,3901 Maine Avenue,Baltimore,MD,21207,United States
2001145,55294438,,Liberty Recreation,3901 Maine Avenue,Baltimore,MD,21207,United States
2001145,55294436,,Liberty Recreation,3901 Maine Avenue,Baltimore,MD,21207,United States
2001145,55294434,,Liberty Recreation,3901 Maine Avenue,Baltimore,MD,21207,United States
2001145,55294432,,Liberty Recreation,3901 Maine Avenue,Baltimore,MD,21207,United States
0,168063,"Life, Inc.Thomas Noto, Executive Director              ",2822 Hollins Ferry Road,,Baltimore,MD,21230,United States
0,168508,"Light Health & Wellness Comprehensive ServiceDebbie Rock, Executive Director              ",PO Box 25535,,Baltimore,MD,21217,United States
0,374366,,3308 Kyle Court,,Baltimore,MD,21244,United States
0,168280,"Living Classrooms FoundationGenevieve Gwiazda, Development Associate     ",802 South Caroline Street,,Baltimore,MD,21231,United States
0,167471,"Loading Dock, Inc.Leslie Kirkland, Executive Director          ",2 North Kresson Street,,Baltimore,MD,21224,United States
0,1740613,,3313 Oakfield Avenue,,Baltimore,MD,21207,United States
0,167473,"Loyola College Dept. Of Speech/Language Path.Bernie Kramer, Contact Person                ",4501 North Charles Street,,Baltimore,MD,21210,United States
0,174272,,4501 North Charles Street,,Baltimore,MD,21210,United States
0,21272107,,700 Light Street,,Baltimore ,MD,21230,United States
0,167474,"Lutheran Mission Society Of MarylandRev. David R. Maack, Executive Director      ",601 Hammonds Lane,,Baltimore,MD,21225,United States
0,168017,"Macedonia Baptist ChurchMargaret Coombs, Director                    ",718 West Lafayette Avenue,,Baltimore,MD,21217,United States
0,616562,,2117 Maryland Avenue,,Baltimore,MD,21218,United States
0,36814220,,3043 West Belvedere Avenue,,Baltimore,MD,21215,United States
0,167478,"Manna House, Inc.Esther Reaves, Executive Director            ",435 East 25th Street,,Baltimore,MD,21218,United States
0,167480,March Of Dimes Birth Defects Foundation,300 West Pratt Street,,Baltimore,MD,21201,United States
0,167481,"Marian HouseKatie Allston, Executive Director            ",949 Gorsuch Avenue,,Baltimore,MD,21218-3602,United States
0,167482,"Marine Corps Reserve CenterStaff Sgt. Singleton, Coordinator            ",7000 Hamlet Avenue,,Baltimore,MD,21234,United States
168649,55294442,,"Martin Luther King, Jr. Elementary",3750 Greenspring,Baltimore,MD,21211,United States
0,167483,"Martin Pollak Project, Inc.Richard L. Norman, CEO                       ",3701 Eastern Avenue,,Baltimore,MD,21224,United States
0,260072,,4140 Patterson Avenue,,Baltimore,MD,21215,United States
0,168498,"Maryland Center For Arts And Technology  IncDr. Dorothy E. Brunson,  Program Director    ",4910 Park Heights Avenue,2nd Floor,Baltimore,MD,21215,United States
0,168379,"Maryland Center For Veterans Education &Colonel Charles Williams, Executive Director ","Training, Inc.",301 North High Street,Baltimore,MD,21202,United States
0,182563,,5100 Denmore Avenue,,Baltimore,MD,21215,United States
0,167490,"Maryland Commission On Human RelationsHenry Ford, Executive Director               ",6 St. Paul Street,Suite 900,Baltimore,MD,21202,United States
0,168463,"Maryland Dept. Of AgingGloria Lawlah, Secretary                     ",301 West Preston Street,Suite 1007,Baltimore,MD,21201-2374,United States
0,167915,"Maryland Dept. Of Assessments & TaxationC. John Sullivan, Jr., Director              ",301 West Preston Street,,Baltimore,MD,21201-2395,United States
0,167492,"Maryland Dept. Of Business & Economic DevelopDavid Edgerley, Secretary                    ",401 East Pratt Street,9th Floor,Baltimore,MD,21202,United States
0,358732,,1800 Washington Boulevard,,Baltimore,MD,21230,United States
0,167494,"Maryland Dept. Of Health & Mental HygieneJohn M. Colmers, Secretary                   ",201 West Preston Street,,Baltimore,MD,21201-2399,United States
0,167495,"Maryland Dept. Of Human Resources (Dhr)Brenda Donald, Secretary                     ",311 West Saratoga Street,,Baltimore,MD,21201,United States
0,167244,"Maryland Dept. Of Juvenile ServicesKenneth Montague, Jr., Secretary             ",120 West Fayette Street,3rd Floor,Baltimore,MD,21201,United States
0,167496,"Maryland Dept. Of Labor, Licensing & RegulatiSusette Snyder, Job Center Supervisor        ",500 North Calvert Street,,Baltimore,MD,21201,United States
0,167520,"Maryland Dept. Of Veterans AffairsJames A. Adkins, Secretary                   ",16 Francis Street,4th Floor,Annapolis,MD,21401,United States
0,168436,"Maryland Educational Opportunity CenterEllen Dolvey-Howard, Executive Director      ",2305 North Charles Street,Suite 101,Baltimore,MD,21218,United States
0,358719,,1800 Washington Boulevard,Suite 755,Baltimore,MD,21230,United States
0,167281,"Episcopal Community Services Of Maryland, IncJean Cushman, Executive Director             ",4 East University Parkway,,Baltimore,MD,21218,United States
0,201133,,1001 Eastern Avenue,2nd Floor,Baltimore,MD,21202,United States
0,167498,"Maryland Food BankDeborah Flateman, Chief Executive Officer    ",2200 Halethorpe Farms Road,,Baltimore,MD,21227,United States
0,167500,"Maryland Higher Education CommissionElizabeth Urbanski, Director                 ",6 North Liberty Street,Ground Suite,Baltimore,MD,21201,United States
0,168313,"Maryland Humanities Council (Mhc)Margaret R. Burke, Executive Director        ",108 West Centre Street,,Baltimore,MD,21201-1002,United States
0,168140,Maryland Insurance AdministrationOffice of the Commissioner                   ,200 St. Paul Place,Suite 2700,Baltimore,MD,21202,United States
0,167458,"Legal Aid Bureau, Inc.Wilhelm H. Joseph, Jr., Esq., Exec. Director ",500 East Lexington Street,,Baltimore,MD,21202-3560,United States
0,168442,Maryland National GuardMajor General Bruce F. Tuxill                ,29th Division Street,5th Regiment Armory,Baltimore,MD,21201-2288,United States
0,167506,"Maryland New DirectionsGrace Lee, Director                          ",611 Park Avenue,,Baltimore,MD,21201,United States
0,167485,"Maryland NonprofitsPeter Berns, Executive Director              ",1500 Union Avenue,Suite 2500,Baltimore,MD,21211,United States
0,167516,"Maryland Office Of People's Counsel  (Opc)Paula M. Carmody, Director                   ",6 Saint Paul Street,Suite 2102,Baltimore,MD,21202-1608,United States
0,167585,"Maryland Office Of The Attorney GeneralJ. Joseph Curran, Jr., State Attorney General",200 St. Paul Place,16th Floor,Baltimore,MD,21202-2021,United States
0,167643,"Maryland Office Of The Public DefenderNancy Foster, Director                       ","6 St. Paul Street, Suite 1400",William Donald Schaffer Tower,Baltimore,MD,21202-1608,United States
0,168212,"Maryland Psychiatric Society Referral ServiceSteve Crawford, President                    ",1101 St. Paul Street,Suite 305,Baltimore,MD,21202,United States
0,167509,"Maryland School For The BlindCarl Lancaster, Interim President and CEO    ",3501 Taylor Avenue,,Baltimore,MD,21236,United States
0,167511,"Maryland Society For Sight, Inc.Audrey Novak, Executive Director             ",1313 West Old Cold Spring Lane,,Baltimore,MD,21209,United States
0,167508,"Maryland SpcaAileen Gabbey, Executive Director            ",3300 Falls Road,,Baltimore,MD,21211,United States
0,167513,"Maryland State Dept. Of EducationNancy Grasmick, State Superintendant         ",200 West Baltimore Street,,Baltimore,MD,21201,United States
0,167518,"Maryland State Public Service CommissionDouglas Nazarian, Chairman                   ",6 St. Paul Street,16th Floor,Baltimore,MD,21202,United States
0,167519,"Maryland Technology Assistance ProgramJessica Vollmer, Office Manager              ",2301 Argonne Drive,Suite T-17,Baltimore,MD,21218,United States
0,167521,"Maryland Volunteer Lawyers ServiceBonnie Sullivan, Executive Director          ",201 North Charles Street,Suite 1400,Baltimore,MD,21201-3701,United States
167434,55294444,Hopkins Elderplus Karen Armacost,"Mason F Lord Building, East Tower, Ground Floor",4940 Eastern Avenue,Baltimore,MD,21224,United States
0,24418029,,1211 North Chester Street,,Baltimore,MD,21213,United States
0,167524,"Mayor's Office Of Employment DevelopmentKaren Sitnick, Director                      ",417 East Fayette Street,Suite 468,Baltimore,MD,21202,United States
0,168439,"Meals On Wheels, Central Maryland, Inc.A. Thomas Grazio, Executive Director         ",515 South Haven Street,,Baltimore,MD,21224,United States
0,167941,"Medchi, The Maryland State Medical SocietyMartin Wasserman, M.D., Executive Director   ",1211 Cathedral Street,,Baltimore,MD,21201-5585,United States
0,168601,"Glass Substance Abuse Program, Inc.Herman Jones, President                      ",821 Eutaw Street,Suite 101 and 201,Baltimore,MD,21201,United States
0,168583,"Men's Center, TheLeon Purnell, Executive Director             ",2222 East Jefferson Street,,Baltimore,MD,21205,United States
0,167532,"Mercy Medical CenterThomas Mullen, CEO & President               ",345 St. Paul Place,,Baltimore,MD,21202-2140,United States
0,367995,,PO Box 213713,,Baltimore,MD,21203,United States
0,18737560,,411 Millington Avenue ,,Baltimore,MD,21223,United States
0,167537,"Military Order Of The Purple HeartVernon F. Mitchell, National Service Officer ",31 Hopkins Plaza,Room 1237,Baltimore,MD,21201-2829,United States
0,169001,"Morgan State UniversityCynthia Lloyd, Tax Volunteer                 ",1700 East Coldspring Lane,,Baltimore,MD,21251,United States
0,374398,,6000 Radecke Avenue,,Baltimore,MD,21206,United States
0,39378823,,2000 East Belvedere Avenue,,Baltimore,MD,21239,United States
0,167552,"Mountain Manor Treatment CentersPaul Wells, Administrator                    ",3800 Frederick Avenue,,Baltimore,MD,21229,United States
0,168484,"Moveable FeastVic Basile,  Executive Director              ",PO Box 2298,,Baltimore,MD,21203,United States
0,24322688,,513 East 36th Street,,Baltimore,MD,21218,United States
0,56406588,,2812-14 Reisterstown Road,,Baltimore ,MD,21215,United States
0,358851,,2201 Garrison Boulevard,,Baltimore,MD,21216,United States
0,56526160,,"3708 Liberty Heights Ave, 3rd Fl",,Baltimore,MD,21215,United States
0,167561,"My Brother's KeeperSister Carol Durkin, Director                ",4207 Frederick Avenue,,Baltimore,MD,21229,United States
0,12689149,,1400 East Federal Street,2nd Floor,Baltimore,MD,21213,United States
0,167563,"Naacp - National HeadquartersDennis C. Hayes, Interim President           ",4805 Mount Hope Drive,,Baltimore,MD,21215,United States
0,167068,"Narcotics Anonymous Service CenterFrank Dyson, Office Manager                  ",217 North Warwick Avenue,,Baltimore,MD,21223,United States
0,168679,"National Council On Alcoholism & Drug Dep.Carlos Hardy, Executive Director             ",28 East Ostend Street,Suite 303,Baltimore,MD,21230,United States
0,167566,"National Federation Of The Blind-HeadquartersDr. Marc Maurer, President                   ",200 East Wells Street,,Baltimore,MD,21230,United States
0,56406541,,5411 Old Frederick Rd#13,,Baltimore,MD,21229,United States
0,168626,"Native American Lifelines, Inc.Susan Roth, Executive Director               ",106 West Clay Street,,Baltimore,MD,21201,United States
0,167574,"Neighborhood Design Center, Inc., BaltimoreMark Cameron, Executive Director             ",120 West North Avenue,Suite 306,Baltimore,MD,21201,United States
0,167163,"Neighborhood Housing Services Of Balto, Inc.Felix Torres, Executive Director             ",25 East 20th Street,Suite 170,Baltimore,MD,21218,United States
0,166972,"All Saints Catholic ChurchGloria Barnes, Chair of Food Pantry          ",4408 Liberty Heights Avenue,,Baltimore,MD,21207-7593,United States
0,168736,"New Antioch ChurchLoilita King, Outreach Director              ",2401 St. Paul Street,,Baltimore,MD,21202,United States
0,167577,"New Creation Christian ChurchBishop A. Bryan Claxton, Pastor              ",PO Box 29180,,Baltimore,MD,21205,United States
168241,51349267,,2417 East North Avenue,,Baltimore,MD,21213,United States
0,168241,"New Life Baptist ChurchMilton Williams, Pastor                      ",2417 East North Avenue,,Baltimore,MD,21213,United States
0,260007,,559 Roberts Street,,Baltimore,MD,21217,United States
0,167102,"Bread Of Life MinistryJessie Hall, Coordinator                     ",1501 Mcculloh Street,,Baltimore,MD,21217,United States
0,3171543,,6020 Marian Drive,,Baltimore,MD,21215,United States
0,167578,"New Shiloh Baptist ChurchLarry Glover, Director                       ",2100 North  Monroe Street,,Baltimore,MD,21217,United States
0,168355,"New Song Urban MinistriesPatty Prasada-Rao, Co-Executive Director     ",1530 Presstman Street,,Baltimore,MD,21217,United States
0,368000,,3931 Ridgway Avenue,,Baltimore,MD,21215,United States
0,219426,,644 East 33rd Street,,Baltimore,MD,21218,United States
0,168676,"Newborn Holistic Ministries, Inc.C. W. Harris, Elder                          ",1928 Pennsylvania Avenue,,Baltimore,MD,21217,United States
0,169051,"Northeast Development AllianceShirl Byron, Executive Director              ",PO Box 66011,,Baltimore,MD,21239,United States
0,26878053,,1100 East Northern Parkway,,Baltimore,MD,21239,United States
0,167882,"Office Of The Maryland Wic ProgramKathleen Knolhoff, Director                  ",201 West Preston Street,Room 103,Baltimore,MD,21201,United States
12689149,55294452,,1400 East Federal Street,2nd Floor,Baltimore ,MD,21213,United States
0,168362,"Oliver Community  Economic Development Corp.Nina Harper, Exec. Director                  ",1400 East Federal Street,,Baltimore,MD,21213,United States
0,38359492,,3500 Edmondson Avenue,,Baltimore,MD,21229,United States
0,169074,"Optimum Health SystemsDr. Sam Omotosho, Director                   ",2300 Garrison Boulevard,Suite 104,Baltimore,MD,21216,United States
0,203844,,Lockerman-Bundy Elementary School,301 North Pulaski Street,Baltimore,MD,21223,United States
0,203791,,3907 Hamilton Avenue,,Baltimore,MD,21206,United States
0,17175009,,3939 Reisterstown Road,,Baltimore,MD,21215,United States
0,167601,"Park West Health System, Inc.Dr. Allen J. Bennett, President/CEO          ",3319 West Belvedere Avenue,,Baltimore,MD,21215,United States
0,1741086,,2100 Liberty Heights Avenue,,Baltimore,MD,21217,United States
0,169052,"Brooklyn Church Of GodRev. Ray Sewell, Outreach Pastor             ",3804 9th Street,,Baltimore,MD,21225,United States
0,168448,"Patrick Allison House, Inc.Howard Wicker, Program Manager               ",210 West Madison Street,,Baltimore,MD,21201,United States
0,167923,"Paul's Place, Inc.William J. McLennan, Executive Director      ",1118 Ward Street,,Baltimore,MD,21230,United States
0,167605,"Payne Memorial ChurchCheneda Samuels, Administrator               ",1714 Madison Avenue,,Baltimore,MD,21217,United States
0,3629791,,505 East 42nd Street,,Baltimore,MD,21218,United States
0,168751,"People Encouraging People (Corp. Office)Ms. Dale Meyer, President/ CEO               ",2002 Clipper Park Road,Suite 105,Baltimore,MD,21211,United States
0,167608,"People's Church Of BaltimoreCalvin Pettigrew, Pantry Coordinator         ",230 North Fulton Avenue,,Baltimore,MD,21223,United States
0,167610,"Perkins Square Baptist ChurchDr. Virginia Ferguson, Coordinator           ",2500 Edmondson Avenue,,Baltimore,MD,21223,United States
0,168682,"Perry Hall United Methodist ChurchBeverly Shaffer, Outreach Director           ",9515 Belair Road,,Baltimore,MD,21236,United States
0,168538,"Pet Loss HelplineRobin Kellogg, Coordinator                   ",1000 East Joppa Road,Apartment 203,Baltimore,MD,21286,United States
0,168085,"Planned Parenthood Of Maryland, Inc.John Nugent, President/CEO                   ",330 North Howard Street,,Baltimore,MD,21201,United States
168051,55290240,"Autism Society Of America Heather Chesley, Co- Presidents",PO Box 10822,,Parkville,MD,21234,United States
203459,55294456,"Casa (Court Appointed Special Advocate Prgm.) Susan Burger, Director",PO Box 13004,,Baltimore,MD,21203,United States
616574,55294458,,PO Box 13222,,Baltimore,MD,21203,United States
167063,55294462,"Bge Customer Care Call Center Doreen Hartley, Director",PO Box 1475,,Baltimore,MD,21203,United States
167513,55294464,"Baltimore City Dept. Of Social Services Timothy Griffith, Director",CCS Central,PO Box 17015,Baltimore,MD,21297,United States
167595,55294466,,PO Box 20013,,Baltimore,MD,21284,United States
167969,55294468,"Chesapeake Down's Syndrome Parent Group Giulia Pearnan, President",PO Box 21027,,Baltimore,MD,21284-0127,United States
367995,55294470,,PO Box 23713,,Baltimore,MD,21203,United States
167948,55294472,Al-Anon & Alateen Groups Volunteer On Duty,PO Box 28259,,Baltimore,MD,21234-8259,United States
167289,55294476,"Family Crisis Center Of Baltimore County, Inc Douglas Murphy, Executive Director",PO Box 3909,,Baltimore,MD,21222,United States
167055,55290244,,PO Box 3909,,Baltimore ,MD,21222,United States
0,374389,,3410 White Avenue,,Baltimore,MD,21214,United States
0,56460361,,5710 Bellona Ave,Suite 102,Baltimore,MD,21212,United States
0,168394,"Powell Recovery Center, Inc.Bill Scott, Executive Director               ",14 South Broadway,,Baltimore,MD,21231,United States
0,167615,"Pregnancy Center NorthCindi Ritter, Director                       ",6805 York Road,,Baltimore,MD,21212,United States
0,167616,"Pregnancy Center WestIrene Eagan, Director                        ",6400 B Frederick Road,,Baltimore,MD,21228,United States
0,168455,"Presbytery Of BaltimoreReverend Dr. Peter K. Nord, Exec. Presbyter  ",5400 Loch Raven Boulevard,,Baltimore,MD,21239,United States
0,12277601,,25 North Caroline Street,,Baltimore,MD,21231,United States
0,168628,"Pro Bono Counseling Project, TheBarbara Anderson, Executive Director         ",110 West Road,Suite 202,Baltimore,MD,21204,United States
0,167512,"Pro Bono Resource Center Of MarylandSharon Goldsmith, ExecutiveDirector          ",520 West Fayette Street,,Baltimore,MD,21201,United States
0,1830797,,PO Box 39744,,Baltimore,MD,21212,United States
0,167639,"Project Plase, Inc.Mary Slicher, Executive Director             ",1814 Maryland Avenue,,Baltimore,MD,21201,United States
0,2001145,,Liberty Recreation,3901 Maine Avenue,Baltimore,MD,21207,United States
0,168435,"Providence Adult Day CareRobin Coley, Program Director                ",1427 Pennsylvania Avenue,,Baltimore,MD,21217,United States
0,167641,"Providence Baptist ChurchLeslie Wood, Deacon                          ",1401 Pennsylvania Avenue,,Baltimore,MD,21217,United States
0,167644,"Public Justice CenterJohn Nethercut, Executive Director           ",1 North Charles Street,Suite 200,Baltimore,MD,21201,United States
0,167657,"Radio Reading Network Of MarylandPeggy Dorsey, Office Administrator           ",3501 Taylor Avenue,,Baltimore,MD,21236,United States
0,168382,"Raven's Medical Adult Day CareEdna Evans, CEO                              ",1821 North Smallwood Street,,Baltimore,MD,21216-7512,United States
0,167659,"Ray Of Hope Baptist ChurchTheola Pigatt, Director                      ",3000 Parkside Drive,,Baltimore,MD,21214,United States
0,168328,"Rebuilding Together, BaltimoreBonnie Bessor, Executive Director            ",5820 York Road,Suite T300,Baltimore,MD,21212,United States
0,204262,,1900 East Northern Parkway,Suite 201,Baltimore,MD,21239,United States
0,168653,"Recovery NetworkClark Hudak, Director                        ",201 North Charles Street,Suite 200,Baltimore,MD,21201,United States
0,1110733,,1900 North Broadway ,Suite 101,Baltimore,MD,21213,United States
0,167672,"Ronald Mcdonald House Charities Of Balto. IncMariane Rowan-Braun, Executive Director      ",635 West Lexington Street,,Baltimore,MD,21201-1571,United States
0,28766236,,PO Box 41432 ,,Baltimore,MD,21203,United States
167148,55290247,"Villa Maria Behavioral Health Clinic Angela Ferioli, Program Supervisor",Saint Clements Church,2700 Washington  Avenue,Baltimore,MD,21227,United States
0,168883,"Salem United Methodist ChurchRev. Dr. Colin Phillips, President/Pastor    ",7509 Windsor Mill Road,,Baltimore,MD,21244,United States
0,167675,"Salvation Army, Greater Baltimore AreaMajor Gary Haupt, Baltimore Area Commander   ",814 Light Street,,Baltimore,MD,21230,United States
0,167531,"Samaritan CommunitySharon Krieger, Program Director             ",1407 Bolton Street,,Baltimore,MD,21217,United States
0,12830652,,1900 North Broadway,Suite 100,Baltimore,MD,21213,United States
0,167690,"Second Shiloh Meal KitchenWanda Hudson, President                      ",PO Box 33385,,Baltimore,MD,21218,United States
0,168418,"Senior Network Of North BaltimoreJames William, Interim Executive Director    ",5828 York Road,,Baltimore,MD,21212,United States
0,169066,Seiu 1199 (Service Employees International UnNichelle McGirt                              ,611 North Eutaw Street,"Mondawmin Mall, 3rd Floor",Baltimore,MD,21201,United States
0,168616,"Shelter Properties, LlcTom Bondenko, Manager                        ",218 North Charles Street,Suite 220,Baltimore,MD,21201,United States
0,167699,"Shepherd's ClinicJack VandenHengel, ExecutiveDirector         ",2800 Kirk Avenue,,Baltimore,MD,21218,United States
0,167702,"Sheppard Pratt Health SystemSteven S. Sharfstein, M.D., CEO              ",PO Box 6815,,Baltimore,MD,21285-6815,United States
0,167705,"Sinai Hospital Of Baltimore, Inc.Neil Meltzer, President                      ",2401 West Belvedere Avenue,,Baltimore,MD,21215,United States
0,168210,"Sisters Together And Reaching, Inc.Rev. Debra Hickman, President/CEO            ",1505 Eutaw Place,,Baltimore,MD,21217,United States
0,168176,"Small Business Resource CenterPaul Taylor, Director                        ",1101 East 33rd Street,,Baltimore,MD,21218,United States
0,20161155,,7201 Sollers Point Road,,Baltimore,MD,21222,United States
0,167715,"South Baltimore Community Assistance ProgramShirley Rose, Director                       ",1435 South Hanover Street,,Baltimore,MD,21230,United States
0,167975,"South Baltimore Learning CorporationSonia Socha, Executive Director              ",28 East Ostend Street,,Baltimore,MD,21230,United States
0,169084,"Southeast Community Development CorporationChris Ryer, Director                         ",3323 Eastern Avenue,Suite 200,Baltimore,MD,21224,United States
0,30817598,,Highlandtown Elementary/Middle School #237, 231 South Eaton Street,Baltimore ,MD,21224,United States
167054,55939595,,,,,MD,,United States
0,167723,"Southwest Emergency ServicesBetty Okonski, Director                      ",1201 Maple Avenue,,Baltimore,MD,21227-2639,United States
0,168062,"Special Olympics, MarylandDr. Patricia Krebs, CEO & President          ",3701 Commerce Drive,Suite 103,Baltimore ,MD,21227,United States
0,167724,"Spina Bifida Association Of Maryland, Inc.Sue Whalen, President                        ",2416 Lampost Lane,,Baltimore,MD,21234,United States
0,167728,"St. Agnes HospitalBonnie Phipps, President, CEO                ",900 Caton Avenue,,Baltimore,MD,21229,United States
0,167729,"St. Ambrose Housing Aid Center, Inc.Vincent P. Quayle, Executive Director        ",321 East 25th Street,,Baltimore,MD,21218,United States
0,53488803,,4414 Frankford Avenue,,Baltimore,MD,21206,United States
0,167731,"St. Cecilia Rcc Soup KitchenAngela McCusson, Coordinator                 ",3300 Clifton Avenue,,Baltimore,MD,21216,United States
0,11920917,,1212 Chesaco Avenue,,Baltimore,MD,21237,United States
0,167732,"St. Edward's Catholic ChurchLillian Humphries, Contact Person            ",901 Poplar Grove Street,,Baltimore,MD,21216-4398,United States
0,167733,"St. Elizabeth's ChurchLucy Di Pinto, Director                      ",2638 East Baltimore Street,,Baltimore,MD,21224,United States
0,167735,"St. Francis Neighborhood CenterFather Tom Composto, Executive Director      ",2405 Linden Avenue,,Baltimore,MD,21217-3944,United States
0,167736,"St. Francis Xavier ChurchEd Thomas, Coordinator                       ",1501 East Oliver Street,,Baltimore,MD,21213-2999,United States
0,167737,"St. Gregory The Great ChurchFather Damien Nalepa, Pastor                 ",1542 North Gilmor Street,,Baltimore,MD,21217,United States
0,167738,"St. Ignatius Catholic ChurchRev. William Watters, S.J., Pastor           ",740 North Calvert Street,Basement,Baltimore,MD,21202-3684,United States
0,26115871,,PO Box 66195,,Baltimore,MD,21239,United States
0,167739,"St. John Lutheran ChurchDoris Anderson, Ministry Assistant           ",226 Washburn Avenue,,Baltimore,MD,21225-2099,United States
0,40202590,,7001 Harford Road,,Baltimore,MD,21234,United States
0,6941139,,3900 Roland Avenue,,Baltimore ,MD,21211,United States
0,39970361,,6400 Belair Road,,Baltimore,MD,21206,United States
0,167758,St. Paul Evangelical Lutheran ChurchReverend Strahan                             ,3915 Pennington Avenue,,Baltimore,MD,21226-1211,United States
0,259785,,7834 Eastern Avenue,,Baltimore,MD,21224,United States
0,167762,"St. Peter's Adult Learning CenterChip Woods, Director                         ",13 South Poppleton Street,,Baltimore,MD,21201,United States
0,167763,"St. Peter's Lutheran Church PantryLou Tortorice, Program Director              ",7910 Belair Road,,Baltimore,MD,21236,United States
0,167766,"St. Vincent De Paul Of BaltimoreJohn J. Schiavone, Executive Director        ",2305 North Charles Street,Suite 300,Baltimore,MD,21218,United States
0,167663,"St. Wenceslaus Catholic ChurchAudrey T. Wesson, Director                   ",2100 East Madison Street,,Baltimore,MD,21205,United States
0,56406466,,5616 Park Heights Avenue,,Baltimore,MD,21215,United States
0,167353,"Greater Homewood Community Corporation, Inc.Jo Ann McKinney, Learner Advocate            ",3501 North Charles Street,,Baltimore,MD,21218,United States
0,169061,"Seedco, EarnbenefitsSara Johnson, Baltimore Program Associate    ",217 East Redwood Street,Suite 1500,Baltimore,MD,21202,United States
0,168886,"Supportive Housing Group, Inc.Deborah Davis, Program Director              ",1600 Rutland Avenue,,Baltimore,MD,21213,United States
0,168989,"Survivors Of SuicideJudy Tunkle, Facilitator                     ",Church Of The Redeemer,5603 North Charles Street,Baltimore,MD,21210,United States
0,168715,"Taylor Made Assisted Living CenterTamara R. Taylor-Norfleet, Chief Exec. Office",6206 Pilgrim Road,,Baltimore,MD,21214,United States
0,271284,,802 North Fulton Avenue,,Baltimore,MD,21217,United States
0,56363993,,1111 Anywhere Avenue,,Baltimore,MD,21061,United States
0,168881,"Kennedy Krieger Family CenterElizabeth Thompson, Ph.D., Director          ",1750 East Fairmount Avenue,2nd Floor,Baltimore,MD,21213-3939,United States
169010,55294484,Johns Hopkins Children S Center George Siberry,"The Harriet Lane Health Clinic, David M. Rubenstein Child Health Building",200 North Wolfe Street,Baltimore,MD,21287,United States
3009943,55294486,,901 N Milton Ave,Suite 260,Baltimore,MD,21205,United States
167276,55294488,"Enoch Pratt Free Library Carla D. Hayden,  Executive Director",The Pennsylvania Avenue Branch,1531 West North Avenue,Baltimore,MD,21217,United States
167487,55294490,"Dyslexia Tutoring Program Marcy K. Kolodny,  Chief Executive Officer",The Rotunda,"711 West 40th Street, Suite 310",Baltimore,MD,21211,United States
168155,55294492,"Choice Program Bill Connelly, Service Coordinator",The Shriver Center - PUP,1000 Hilltop Circle,Baltimore,MD,21250,United States
0,56481593,,3425 Sinclair Lane,,,MD,21213,United States
0,56406505,,2901 Druid Park Drive,Suite A210,Baltimore,MD,21215,United States
0,167784,"Total Health Care, Inc.Dennis Cherot, President                     ",1501 Division Street,,Baltimore,MD,21217,United States
0,515126,,100 South Charles Street,5th Floor,Baltimore,MD,21203,United States
0,38359495,,841 East Fort Avenue,#318 ,Baltimore,MD,21230,United States
0,167774,"Treatment Resources For Youth (Try)LaTavia Little, Director                     ",2517 North Charles Street,,Baltimore,MD,21218,United States
0,167791,"Trinity Baptist ChurchMary Taylor, Food Pantry Coordinator         ",1601 Druid Hill Avenue,,Baltimore,MD,21217,United States
0,168425,"Trinity Newbirth International Christian MiniElizabeth Milburn, Executive Director        ",3600-2 North Rogers Avenue,,Baltimore,MD,21207,United States
0,167792,"True Way Church Of ChristMary Newman, Director                        ",2214 Evergreen Street,,Baltimore,MD,21216,United States
0,167645,"Tuerk House, Inc.Dr. John E. Hickey, Ph.D., Director          ",730 Ashburton Street,,Baltimore,MD,21216,United States
0,167934,"Twelve Step Recovery WorkshopDrew Leder, Contact Person                   ",PO Box 26145,,Baltimore,MD,21210,United States
0,167809,"U.S. Small Business Administration, BaltimoreStephen D. Umberger, District Director       ",10 South Howard Street,Suite 6220,Baltimore,MD,21201,United States
0,167706,"U.S. Social Security AdministrationJo Anne B. Barnhart, Commissioner            ",6401 Security Boulevard,Windsor Park Building,Baltimore,MD,21235-0001,United States
0,8892260,,1215 East Fort Avenue,Suite 104,Baltimore,MD,21230,United States
0,1830800,,1217 West North Avenue,,Baltimore,MD,21217,United States
182028,55290250,,UMBC Apartment Community Center,1000 Hilltop Circle,Baltimore,MD,21250,United States
0,168401,"United Ministries, Inc.Sheila Helgerson, Executive Director         ",1400 East Lombard Street,,Baltimore,MD,21231,United States
0,167813,"United Way Of Central Maryland, Inc.Larry Walton, CPO                            ",1800 Washington Boulevard,Suite 340,Baltimore,MD,21230,United States
0,167823,"Universal Counseling ServicesTracy Schulden, Executive Director           ",1401 Severn Street,Suite 201,Baltimore,MD,21230,United States
0,182559,,1420 North Charles Street,,Baltimore,MD,21201,United States
0,167825,"University Of Baltimore School Of LawPhillip J. Closius, Dean                     ",1415 Maryland Avenue,,Baltimore,MD,21201,United States
0,168155,"University Of Maryland Baltimore CountyFreeman A. Hrabowski, III, President         ",1000 Hilltop Circle,,Baltimore,MD,21250,United States
0,167824,University Of Maryland Dental School,650 West Baltimore Street,,Baltimore,MD,21201,United States
0,167827,"University Of Maryland Medical SystemRobert A. Chrencik ,  Interim President & CEO",250 West Pratt Street,,Baltimore,MD,21201,United States
0,168747,"University Of Maryland School Of LawKaren H. Rothenberg, Dean                    ",500 West Baltimore Street,,Baltimore,MD,21201,United States
168747,55294494,,"University of Maryland School of Law, Clinical Law Office","500 West Baltimore Street, Room 360",Baltimore,MD,21201,United States
0,168352,"University Of Maryland School Of MedicineE. Albert Reece, MD, PhD, MBA, Dean          ",655 West Baltimore Street,,Baltimore,MD,21201,United States
0,167828,"University Of Maryland School Of PharmacyDavid A. Knapp, PhD, Dean                    ",20 North Pine Street,Office Level # 3,Baltimore,MD,21201,United States
0,169149,University Of Maryland School Of Social WorkDean Richard P. Barth                        ,525 West Redwood Street,,Baltimore,MD,21201,United States
0,2698485,,"1500 Union Avenue, 2100",,Baltimore ,MD,21211,United States
0,168337,"Valley Bridge Alcoholism ProgramBenjamin Toney, Program Manager              ",28 South Broadway,,Baltimore,MD,21231,United States
0,168683,"Vehicles For ChangeMartin Schwartz, Executive Director          ",4111 Washington Boulevard,,Baltimore,MD,21227,United States
0,167833,"Veterans Of Foreign WarsPhil Madlin, State Service Officer           ",31 Hopkins Plaza,Room 1226,Baltimore,MD,21201,United States
0,168640,"Victoire Health Services, Inc.Taiwo Brown, President                       ",6211 Harford Road,,Baltimore,MD,21214,United States
0,203444,,2521 St. Paul Street,,Baltimore,MD,21218,United States
0,167150,"The Catholic WorkerWilla Bickham, Co-Founder                    ",26 South Mount Street,,Baltimore,MD,21223,United States
0,167839,"Volunteers For Medical Engineering, Inc.Norma Theo Pinette, Executive Director       ",2301 Argonne Drive,,Baltimore,MD,21218,United States
0,168071,"Vna Home Health Of MarylandNancy Jaffe, DOO/Administrator               ",7008 Security Boulevard,Suite 300,Baltimore,MD,21244,United States
167804,23968893,"Vita, Jackie A. Hill Jackie A. Hill, Tax Volunteer",,,Baltimore,MD,,United States
167804,24269369,"Vita, Jackie A. Hill Jackie A. Hill, Tax Volunteer",,,Baltimore,MD,,United States
167697,55290254,"Turnaround Inc., Rosedale Rosalyn Branson, Executive Director","TurnAround, Inc.",8503 La Salle Road FL 2,Towson,MD,21286,United States
0,1740990,,600 North Charles Street,,Baltimore,MD,21201,United States
0,167856,"Waters Ame ChurchIris Rowe, Soup Kitchen Director             ",417 North Aisquith Street,,Baltimore,MD,21202,United States
0,167859,"Wayland Baptist ChurchGladys Saunders, Coordinator                 ",3200 Garrison Boulevard,,Baltimore,MD,21216,United States
0,167802,"United Presbyterian Ministries, Inc.Heather Warren                               ",524 North Charles Street,,Baltimore,MD,21201,United States
0,167865,"Whitestone Baptist ChurchMs. Smith, Coordinator                       ",3001-3005 Baker Street,,Baltimore,MD,21216,United States
0,168723,"Whole Woman's HealthGloria Johnson, Executive Director           ",7648 Belair Road,,Baltimore,MD,21236,United States
0,29426582,,2502 W. Northern Parkway,,Baltimore,MD,21215,United States
0,168581,"Women Accepting Responsibility (W.A.R.)Bernice Tucker, Founder                      ",2300 Garrison Boulevard,Suite 150,Baltimore,MD,21216,United States
0,167879,"The Women's Growth CenterIlene Toller, Director                       ",5209 York Road,Suite B-12,Baltimore,MD,21212,United States
0,167880,"The Women's Housing CoalitionJoann Levy, Executive Director               ",119 East 25th Street,,Baltimore,MD,21218,United States
0,167883,"Woodbourne Center, Inc.Stanley Weinstein, Ph.D, President/CEO       ",1301 Woodbourne Avenue,,Baltimore,MD,21239-3399,United States
0,168011,"Worker's Compensation CommissionR. Karl Aumann, Esq.,  Chairman              ",10 East Baltimore Street,,Baltimore,MD,21202,United States
0,367690,,7 East Baltimore Street,,Baltimore,MD,21202,United States
0,167503,"World Trade Center Institute, TheDeb Kielty, Director                         ",401 East Pratt Street,Suite 232,Baltimore,MD,21202,United States
0,167900,"Y Of Central Md, Administrative OfficeJohn Hoey, President & CEO                   ",303 West Chesapeake Avenue,,Baltimore,MD,21204,United States
0,212342,,3533 Dolfield Avenue,,Baltimore,MD,21215,United States
0,168399,"Baltimore Community FoundationThomas E. Wilcox, President                  ",10 West Eager Street,3rd Floor,Baltimore,MD,21201,United States
0,9693892,,2315 North Charles Street,1st Floor,Baltimore,MD,21218,United States
0,204343,,2601 North Howard Street,Suite 160,Baltimore,MD,21218,United States
0,167902,"Ywca Of The Greater Baltimore Area, Inc.Dawn Fisk Thomsen, Interim CEO               ",1800 North Charles Street,Suite 904,Baltimore,MD,21201,United States
0,167904,"Zion Baptist ChurchMarshall F. Prentice, Pastor                 ",1700 North Caroline Street,,Baltimore,MD,21213,United States